{
  "type": "FeatureCollection",
  "features": [
    {
      "type": "Feature",
      "properties": {
        "name": "Yanahuara",
        "category": "Tourist",
        "osmType": "relation",
        "osmId": 1887821,
        "stroke": "#f59e0b",
        "stroke-width": 2,
        "stroke-opacity": 0.95,
        "fill": "#f59e0b",
        "fill-opacity": 0.16
      },
      "geometry": {
        "type": "Polygon",
        "coordinates": [
          [
            [
              -71.5665561,
              -16.4035797
            ],
            [
              -71.5661349,
              -16.4048641
            ],
            [
              -71.5600189,
              -16.4079564
            ],
            [
              -71.5588094,
              -16.4089335
            ],
            [
              -71.558612,
              -16.4085978
            ],
            [
              -71.5562281,
              -16.4089031
            ],
            [
              -71.5534349,
              -16.408089
            ],
            [
              -71.5524503,
              -16.4080746
            ],
            [
              -71.5516874,
              -16.4063066
            ],
            [
              -71.552448,
              -16.4036943
            ],
            [
              -71.5523192,
              -16.4033343
            ],
            [
              -71.5517535,
              -16.4031417
            ],
            [
              -71.5501167,
              -16.400121
            ],
            [
              -71.5477536,
              -16.3973489
            ],
            [
              -71.5476714,
              -16.3964782
            ],
            [
              -71.5471772,
              -16.3961587
            ],
            [
              -71.5470327,
              -16.3958379
            ],
            [
              -71.5461909,
              -16.3962161
            ],
            [
              -71.5458819,
              -16.3955184
            ],
            [
              -71.5449742,
              -16.3959195
            ],
            [
              -71.5440596,
              -16.3934607
            ],
            [
              -71.5423304,
              -16.3934666
            ],
            [
              -71.5419951,
              -16.3931666
            ],
            [
              -71.5414775,
              -16.3933431
            ],
            [
              -71.5407481,
              -16.3923137
            ],
            [
              -71.5404657,
              -16.3921961
            ],
            [
              -71.5398187,
              -16.3923785
            ],
            [
              -71.536666,
              -16.3829495
            ],
            [
              -71.5358072,
              -16.3827906
            ],
            [
              -71.5354484,
              -16.3819437
            ],
            [
              -71.5348425,
              -16.3819437
            ],
            [
              -71.5341581,
              -16.378435
            ],
            [
              -71.533625,
              -16.3774756
            ],
            [
              -71.532886,
              -16.3740773
            ],
            [
              -71.5341719,
              -16.3706739
            ],
            [
              -71.5347209,
              -16.3683496
            ],
            [
              -71.5347402,
              -16.3675645
            ],
            [
              -71.5355229,
              -16.3672607
            ],
            [
              -71.5358124,
              -16.3673835
            ],
            [
              -71.5360414,
              -16.367947
            ],
            [
              -71.5358153,
              -16.3690505
            ],
            [
              -71.5361309,
              -16.369663
            ],
            [
              -71.5357204,
              -16.3702911
            ],
            [
              -71.5359597,
              -16.3724377
            ],
            [
              -71.5357262,
              -16.3746087
            ],
            [
              -71.5358196,
              -16.3761029
            ],
            [
              -71.5370102,
              -16.3797446
            ],
            [
              -71.5382417,
              -16.3819617
            ],
            [
              -71.5387124,
              -16.3824322
            ],
            [
              -71.538912,
              -16.3833164
            ],
            [
              -71.53924,
              -16.3834875
            ],
            [
              -71.5398531,
              -16.3834305
            ],
            [
              -71.5400956,
              -16.3842432
            ],
            [
              -71.541878,
              -16.3840009
            ],
            [
              -71.5425767,
              -16.3833591
            ],
            [
              -71.5434324,
              -16.3857405
            ],
            [
              -71.5447442,
              -16.3853127
            ],
            [
              -71.5462986,
              -16.3897761
            ],
            [
              -71.545721,
              -16.3899051
            ],
            [
              -71.5461351,
              -16.3908056
            ],
            [
              -71.545938,
              -16.3912877
            ],
            [
              -71.5462885,
              -16.3921202
            ],
            [
              -71.5471914,
              -16.3923544
            ],
            [
              -71.5488321,
              -16.3932099
            ],
            [
              -71.5496542,
              -16.3933126
            ],
            [
              -71.5509322,
              -16.3924412
            ],
            [
              -71.550977,
              -16.3915475
            ],
            [
              -71.5513036,
              -16.3911877
            ],
            [
              -71.5526712,
              -16.3908115
            ],
            [
              -71.5533989,
              -16.3908817
            ],
            [
              -71.5544409,
              -16.3919249
            ],
            [
              -71.55625,
              -16.3925279
            ],
            [
              -71.5595229,
              -16.3940704
            ],
            [
              -71.5599172,
              -16.3959109
            ],
            [
              -71.5596597,
              -16.3968651
            ],
            [
              -71.5596597,
              -16.3978192
            ],
            [
              -71.5602406,
              -16.3984416
            ],
            [
              -71.5638917,
              -16.4006406
            ],
            [
              -71.5658112,
              -16.4020679
            ],
            [
              -71.5665561,
              -16.4035797
            ]
          ]
        ]
      }
    },
    {
      "type": "Feature",
      "properties": {
        "name": "Cayma",
        "category": "Residential",
        "osmType": "relation",
        "osmId": 1887797,
        "stroke": "#0f766e",
        "stroke-width": 2,
        "stroke-opacity": 0.95,
        "fill": "#0f766e",
        "fill-opacity": 0.16
      },
      "geometry": {
        "type": "Polygon",
        "coordinates": [
          [
            [
              -71.556694,
              -16.3458424
            ],
            [
              -71.5561219,
              -16.347044
            ],
            [
              -71.5551529,
              -16.3478527
            ],
            [
              -71.5536805,
              -16.349678
            ],
            [
              -71.5538101,
              -16.3503121
            ],
            [
              -71.5536583,
              -16.3510649
            ],
            [
              -71.5541076,
              -16.3526421
            ],
            [
              -71.553566,
              -16.3558674
            ],
            [
              -71.5545425,
              -16.3581257
            ],
            [
              -71.554657,
              -16.359766
            ],
            [
              -71.5538864,
              -16.362421
            ],
            [
              -71.5534821,
              -16.3665295
            ],
            [
              -71.5522766,
              -16.3706169
            ],
            [
              -71.552208,
              -16.3717385
            ],
            [
              -71.5524979,
              -16.3727016
            ],
            [
              -71.5539017,
              -16.3746434
            ],
            [
              -71.5544435,
              -16.3764267
            ],
            [
              -71.5543671,
              -16.3778839
            ],
            [
              -71.5531082,
              -16.3799496
            ],
            [
              -71.5527827,
              -16.3812865
            ],
            [
              -71.5522995,
              -16.3821296
            ],
            [
              -71.5529099,
              -16.385025
            ],
            [
              -71.5521164,
              -16.386858
            ],
            [
              -71.5517731,
              -16.3881817
            ],
            [
              -71.5517417,
              -16.391013
            ],
            [
              -71.550977,
              -16.3915475
            ],
            [
              -71.5509322,
              -16.3924412
            ],
            [
              -71.5507669,
              -16.3926512
            ],
            [
              -71.5499581,
              -16.3932099
            ],
            [
              -71.549337,
              -16.3933439
            ],
            [
              -71.5462885,
              -16.3921202
            ],
            [
              -71.545938,
              -16.3912877
            ],
            [
              -71.5461351,
              -16.3908056
            ],
            [
              -71.545721,
              -16.3899051
            ],
            [
              -71.5462986,
              -16.3897761
            ],
            [
              -71.5447442,
              -16.3853127
            ],
            [
              -71.5434324,
              -16.3857405
            ],
            [
              -71.5425767,
              -16.3833591
            ],
            [
              -71.541878,
              -16.3840009
            ],
            [
              -71.5400956,
              -16.3842432
            ],
            [
              -71.5398531,
              -16.3834305
            ],
            [
              -71.53924,
              -16.3834875
            ],
            [
              -71.538912,
              -16.3833164
            ],
            [
              -71.5387124,
              -16.3824322
            ],
            [
              -71.5374304,
              -16.3806317
            ],
            [
              -71.5367597,
              -16.3791756
            ],
            [
              -71.5358196,
              -16.3761029
            ],
            [
              -71.5357262,
              -16.3746087
            ],
            [
              -71.5359597,
              -16.3724377
            ],
            [
              -71.5357204,
              -16.3702911
            ],
            [
              -71.5361309,
              -16.369663
            ],
            [
              -71.5358153,
              -16.3690505
            ],
            [
              -71.5360414,
              -16.367947
            ],
            [
              -71.5358124,
              -16.3673835
            ],
            [
              -71.5355229,
              -16.3672607
            ],
            [
              -71.5361984,
              -16.366078
            ],
            [
              -71.5362409,
              -16.3654448
            ],
            [
              -71.5367982,
              -16.3642367
            ],
            [
              -71.5368511,
              -16.3637171
            ],
            [
              -71.536394,
              -16.3623248
            ],
            [
              -71.5365455,
              -16.3617787
            ],
            [
              -71.5365058,
              -16.3602548
            ],
            [
              -71.5369153,
              -16.3589917
            ],
            [
              -71.5368831,
              -16.3587629
            ],
            [
              -71.5358023,
              -16.3578121
            ],
            [
              -71.535609,
              -16.3562414
            ],
            [
              -71.5363155,
              -16.3554364
            ],
            [
              -71.5363665,
              -16.3549791
            ],
            [
              -71.5369494,
              -16.3544854
            ],
            [
              -71.5370081,
              -16.3539099
            ],
            [
              -71.5365897,
              -16.3533299
            ],
            [
              -71.5366315,
              -16.3527218
            ],
            [
              -71.5361831,
              -16.3521976
            ],
            [
              -71.53614,
              -16.3517643
            ],
            [
              -71.5356831,
              -16.3510583
            ],
            [
              -71.5357071,
              -16.3471373
            ],
            [
              -71.535935,
              -16.3458105
            ],
            [
              -71.5355578,
              -16.3444972
            ],
            [
              -71.5350117,
              -16.3435824
            ],
            [
              -71.534986,
              -16.3426976
            ],
            [
              -71.5353335,
              -16.3419081
            ],
            [
              -71.5351281,
              -16.3408455
            ],
            [
              -71.5353418,
              -16.3394861
            ],
            [
              -71.5341757,
              -16.3384944
            ],
            [
              -71.5339079,
              -16.3377977
            ],
            [
              -71.5341403,
              -16.3354681
            ],
            [
              -71.5344956,
              -16.3349626
            ],
            [
              -71.5341743,
              -16.3345774
            ],
            [
              -71.5332796,
              -16.3344265
            ],
            [
              -71.5329813,
              -16.3339481
            ],
            [
              -71.5329586,
              -16.3322054
            ],
            [
              -71.531752,
              -16.3309186
            ],
            [
              -71.5311924,
              -16.329596
            ],
            [
              -71.5301391,
              -16.3280297
            ],
            [
              -71.5286612,
              -16.3267907
            ],
            [
              -71.5279244,
              -16.3257008
            ],
            [
              -71.5274267,
              -16.325298
            ],
            [
              -71.5252644,
              -16.3241624
            ],
            [
              -71.5246433,
              -16.3240535
            ],
            [
              -71.5243763,
              -16.3243114
            ],
            [
              -71.5235599,
              -16.3243034
            ],
            [
              -71.5212045,
              -16.3236802
            ],
            [
              -71.5201035,
              -16.3218923
            ],
            [
              -71.5185337,
              -16.3215214
            ],
            [
              -71.5180373,
              -16.3211411
            ],
            [
              -71.5175044,
              -16.3193251
            ],
            [
              -71.5172297,
              -16.3190157
            ],
            [
              -71.5162936,
              -16.318742
            ],
            [
              -71.5153055,
              -16.3180977
            ],
            [
              -71.5145623,
              -16.318477
            ],
            [
              -71.5120987,
              -16.3183107
            ],
            [
              -71.5112644,
              -16.3180159
            ],
            [
              -71.5102915,
              -16.3168646
            ],
            [
              -71.5088806,
              -16.316445
            ],
            [
              -71.5080503,
              -16.3169248
            ],
            [
              -71.5067902,
              -16.3166248
            ],
            [
              -71.5056983,
              -16.3147987
            ],
            [
              -71.5048287,
              -16.3140224
            ],
            [
              -71.5047112,
              -16.3129626
            ],
            [
              -71.5039619,
              -16.3117591
            ],
            [
              -71.4996357,
              -16.3115708
            ],
            [
              -71.4979314,
              -16.311128
            ],
            [
              -71.4964139,
              -16.3110034
            ],
            [
              -71.4945778,
              -16.3112492
            ],
            [
              -71.4936455,
              -16.3110702
            ],
            [
              -71.4927626,
              -16.3104779
            ],
            [
              -71.4921473,
              -16.3094976
            ],
            [
              -71.4921305,
              -16.3090942
            ],
            [
              -71.4917028,
              -16.3087446
            ],
            [
              -71.4910043,
              -16.3056951
            ],
            [
              -71.4907918,
              -16.305458
            ],
            [
              -71.4893221,
              -16.3042866
            ],
            [
              -71.4877383,
              -16.3038461
            ],
            [
              -71.486801,
              -16.3042526
            ],
            [
              -71.4851227,
              -16.3035717
            ],
            [
              -71.4838486,
              -16.3020725
            ],
            [
              -71.4813614,
              -16.2982311
            ],
            [
              -71.4808121,
              -16.2978364
            ],
            [
              -71.4794694,
              -16.2974357
            ],
            [
              -71.4781036,
              -16.2965927
            ],
            [
              -71.477478,
              -16.2959137
            ],
            [
              -71.4750457,
              -16.2941212
            ],
            [
              -71.4743212,
              -16.2932
            ],
            [
              -71.4744709,
              -16.2923419
            ],
            [
              -71.4737529,
              -16.29168
            ],
            [
              -71.4732132,
              -16.2914772
            ],
            [
              -71.4704055,
              -16.291235
            ],
            [
              -71.4675522,
              -16.2919616
            ],
            [
              -71.4659652,
              -16.292181
            ],
            [
              -71.465271,
              -16.2919711
            ],
            [
              -71.4643555,
              -16.2910271
            ],
            [
              -71.4636384,
              -16.2896442
            ],
            [
              -71.4622726,
              -16.289032
            ],
            [
              -71.4609909,
              -16.2877579
            ],
            [
              -71.4603576,
              -16.2859955
            ],
            [
              -71.4600754,
              -16.2845269
            ],
            [
              -71.4587402,
              -16.2846717
            ],
            [
              -71.4562377,
              -16.2859669
            ],
            [
              -71.4547654,
              -16.2862472
            ],
            [
              -71.4520721,
              -16.2860432
            ],
            [
              -71.4506379,
              -16.2861671
            ],
            [
              -71.447876,
              -16.2867717
            ],
            [
              -71.4452591,
              -16.2866992
            ],
            [
              -71.4424896,
              -16.2871954
            ],
            [
              -71.4377289,
              -16.289114
            ],
            [
              -71.4368134,
              -16.2899341
            ],
            [
              -71.4340439,
              -16.2892704
            ],
            [
              -71.432869,
              -16.2895527
            ],
            [
              -71.4305496,
              -16.2895317
            ],
            [
              -71.4292984,
              -16.2898846
            ],
            [
              -71.4251709,
              -16.2904204
            ],
            [
              -71.421051,
              -16.2920704
            ],
            [
              -71.419014,
              -16.293457
            ],
            [
              -71.416527,
              -16.2946606
            ],
            [
              -71.4141082,
              -16.2955761
            ],
            [
              -71.4106064,
              -16.2962112
            ],
            [
              -71.4100112,
              -16.2955799
            ],
            [
              -71.4089661,
              -16.295147
            ],
            [
              -71.405388,
              -16.295147
            ],
            [
              -71.4040222,
              -16.2956029
            ],
            [
              -71.4028396,
              -16.2965202
            ],
            [
              -71.4021149,
              -16.2967054
            ],
            [
              -71.3969879,
              -16.295826
            ],
            [
              -71.3927841,
              -16.293726
            ],
            [
              -71.3871612,
              -16.2918377
            ],
            [
              -71.3854904,
              -16.2909584
            ],
            [
              -71.383728,
              -16.2897281
            ],
            [
              -71.382103,
              -16.2882347
            ],
            [
              -71.3799057,
              -16.2850285
            ],
            [
              -71.3778457,
              -16.2824364
            ],
            [
              -71.3766099,
              -16.2799759
            ],
            [
              -71.3745041,
              -16.2771626
            ],
            [
              -71.3727036,
              -16.2750987
            ],
            [
              -71.370987,
              -16.2737809
            ],
            [
              -71.3703307,
              -16.2721977
            ],
            [
              -71.3690569,
              -16.2702656
            ],
            [
              -71.3636932,
              -16.2640705
            ],
            [
              -71.3608399,
              -16.2603361
            ],
            [
              -71.3593979,
              -16.2579594
            ],
            [
              -71.357338,
              -16.2555256
            ],
            [
              -71.3558045,
              -16.2532635
            ],
            [
              -71.353569,
              -16.2513695
            ],
            [
              -71.3509826,
              -16.2502251
            ],
            [
              -71.35038,
              -16.2489109
            ],
            [
              -71.3499527,
              -16.2468166
            ],
            [
              -71.3489304,
              -16.2465725
            ],
            [
              -71.3471299,
              -16.2469884
            ],
            [
              -71.3464814,
              -16.2469482
            ],
            [
              -71.346016,
              -16.2466679
            ],
            [
              -71.340767,
              -16.2413559
            ],
            [
              -71.3399887,
              -16.2403145
            ],
            [
              -71.3394012,
              -16.239109
            ],
            [
              -71.3390426,
              -16.237711
            ],
            [
              -71.3383636,
              -16.2338389
            ],
            [
              -71.3385696,
              -16.2256622
            ],
            [
              -71.3407452,
              -16.225463
            ],
            [
              -71.34194,
              -16.22466
            ],
            [
              -71.34208,
              -16.22406
            ],
            [
              -71.3427799,
              -16.22359
            ],
            [
              -71.34404,
              -16.22327
            ],
            [
              -71.34675,
              -16.22331
            ],
            [
              -71.34797,
              -16.22304
            ],
            [
              -71.35291,
              -16.22029
            ],
            [
              -71.3540301,
              -16.21913
            ],
            [
              -71.35629,
              -16.21769
            ],
            [
              -71.35931,
              -16.21378
            ],
            [
              -71.35999,
              -16.21317
            ],
            [
              -71.36128,
              -16.21276
            ],
            [
              -71.36291,
              -16.21274
            ],
            [
              -71.36451,
              -16.2131
            ],
            [
              -71.3661647,
              -16.2126274
            ],
            [
              -71.367877,
              -16.2114649
            ],
            [
              -71.3704935,
              -16.2107147
            ],
            [
              -71.3721545,
              -16.2105134
            ],
            [
              -71.3736142,
              -16.2106644
            ],
            [
              -71.3785975,
              -16.208802
            ],
            [
              -71.3809357,
              -16.2084199
            ],
            [
              -71.38517,
              -16.2080822
            ],
            [
              -71.3886719,
              -16.2067966
            ],
            [
              -71.3949127,
              -16.2062721
            ],
            [
              -71.3973224,
              -16.2062852
            ],
            [
              -71.4023559,
              -16.2076442
            ],
            [
              -71.40749,
              -16.208651
            ],
            [
              -71.4098559,
              -16.208651
            ],
            [
              -71.4117181,
              -16.2089026
            ],
            [
              -71.4124669,
              -16.208586
            ],
            [
              -71.41197,
              -16.2042717
            ],
            [
              -71.4120202,
              -16.2016544
            ],
            [
              -71.4147886,
              -16.1954127
            ],
            [
              -71.4170539,
              -16.1916375
            ],
            [
              -71.4198726,
              -16.1897249
            ],
            [
              -71.4210176,
              -16.1885176
            ],
            [
              -71.4251577,
              -16.1756812
            ],
            [
              -71.4255102,
              -16.1732147
            ],
            [
              -71.4263156,
              -16.1715537
            ],
            [
              -71.4273726,
              -16.1704464
            ],
            [
              -71.4308166,
              -16.1693554
            ],
            [
              -71.434772,
              -16.1686342
            ],
            [
              -71.4411087,
              -16.1680927
            ],
            [
              -71.4496209,
              -16.1666711
            ],
            [
              -71.4543021,
              -16.1668221
            ],
            [
              -71.4574229,
              -16.1655637
            ],
            [
              -71.4588826,
              -16.1647081
            ],
            [
              -71.4607954,
              -16.164406
            ],
            [
              -71.4639665,
              -16.1650604
            ],
            [
              -71.4672887,
              -16.1673255
            ],
            [
              -71.4703369,
              -16.1715279
            ],
            [
              -71.4726867,
              -16.1759205
            ],
            [
              -71.4733506,
              -16.1780166
            ],
            [
              -71.4747011,
              -16.1804847
            ],
            [
              -71.475708,
              -16.1836606
            ],
            [
              -71.4764634,
              -16.1847019
            ],
            [
              -71.4827424,
              -16.1870346
            ],
            [
              -71.4880524,
              -16.1897259
            ],
            [
              -71.4901734,
              -16.1910896
            ],
            [
              -71.4955522,
              -16.1933136
            ],
            [
              -71.4968415,
              -16.194355
            ],
            [
              -71.498497,
              -16.1961137
            ],
            [
              -71.5005799,
              -16.1972256
            ],
            [
              -71.501297,
              -16.1979064
            ],
            [
              -71.5025177,
              -16.1983376
            ],
            [
              -71.5049342,
              -16.2001644
            ],
            [
              -71.5056329,
              -16.2002539
            ],
            [
              -71.5062319,
              -16.2016921
            ],
            [
              -71.5064035,
              -16.2035064
            ],
            [
              -71.5054256,
              -16.2063302
            ],
            [
              -71.5028686,
              -16.2087975
            ],
            [
              -71.5014822,
              -16.2108149
            ],
            [
              -71.5014049,
              -16.2132891
            ],
            [
              -71.5005054,
              -16.2174712
            ],
            [
              -71.4996695,
              -16.2181597
            ],
            [
              -71.4993535,
              -16.2187284
            ],
            [
              -71.4997432,
              -16.2193889
            ],
            [
              -71.5006776,
              -16.219561
            ],
            [
              -71.5116001,
              -16.21893
            ],
            [
              -71.5156174,
              -16.2201595
            ],
            [
              -71.5186234,
              -16.2215557
            ],
            [
              -71.5198441,
              -16.2228927
            ],
            [
              -71.5214844,
              -16.224001
            ],
            [
              -71.5220566,
              -16.2249814
            ],
            [
              -71.5227814,
              -16.227438
            ],
            [
              -71.5235367,
              -16.22859
            ],
            [
              -71.5238266,
              -16.229435
            ],
            [
              -71.524559,
              -16.2323036
            ],
            [
              -71.524498,
              -16.2347374
            ],
            [
              -71.5255585,
              -16.2384224
            ],
            [
              -71.5263061,
              -16.2392311
            ],
            [
              -71.5284195,
              -16.2399101
            ],
            [
              -71.5293045,
              -16.2417221
            ],
            [
              -71.5293961,
              -16.2427311
            ],
            [
              -71.528389,
              -16.2462826
            ],
            [
              -71.5283432,
              -16.2484512
            ],
            [
              -71.5286407,
              -16.251833
            ],
            [
              -71.5293502,
              -16.2549859
            ],
            [
              -71.5294037,
              -16.2571716
            ],
            [
              -71.5300599,
              -16.2598496
            ],
            [
              -71.5325699,
              -16.2637825
            ],
            [
              -71.5343627,
              -16.2652492
            ],
            [
              -71.535019,
              -16.2665042
            ],
            [
              -71.5355454,
              -16.2687206
            ],
            [
              -71.5364761,
              -16.2707557
            ],
            [
              -71.539299,
              -16.2735329
            ],
            [
              -71.5416794,
              -16.2750892
            ],
            [
              -71.5436706,
              -16.2777195
            ],
            [
              -71.5455551,
              -16.2818107
            ],
            [
              -71.5475615,
              -16.2844982
            ],
            [
              -71.5477905,
              -16.2858142
            ],
            [
              -71.5486807,
              -16.2880012
            ],
            [
              -71.5486656,
              -16.2895959
            ],
            [
              -71.5494453,
              -16.2902068
            ],
            [
              -71.5494791,
              -16.290776
            ],
            [
              -71.5499467,
              -16.2912566
            ],
            [
              -71.549623,
              -16.2918599
            ],
            [
              -71.5497116,
              -16.2925665
            ],
            [
              -71.5494099,
              -16.293425
            ],
            [
              -71.5497225,
              -16.2939747
            ],
            [
              -71.548874,
              -16.2970619
            ],
            [
              -71.5484015,
              -16.3012336
            ],
            [
              -71.5485288,
              -16.3028264
            ],
            [
              -71.546709,
              -16.3053965
            ],
            [
              -71.5442215,
              -16.307293
            ],
            [
              -71.5442781,
              -16.3086749
            ],
            [
              -71.54588,
              -16.31141
            ],
            [
              -71.5461045,
              -16.3121801
            ],
            [
              -71.5460161,
              -16.3124125
            ],
            [
              -71.5455383,
              -16.3126515
            ],
            [
              -71.5459254,
              -16.3149114
            ],
            [
              -71.5455299,
              -16.3191731
            ],
            [
              -71.54601,
              -16.32037
            ],
            [
              -71.5477399,
              -16.32227
            ],
            [
              -71.5477905,
              -16.323489
            ],
            [
              -71.5481724,
              -16.324155
            ],
            [
              -71.5497974,
              -16.3256935
            ],
            [
              -71.5505965,
              -16.3263065
            ],
            [
              -71.5516123,
              -16.3267672
            ],
            [
              -71.5518407,
              -16.3271458
            ],
            [
              -71.55229,
              -16.32852
            ],
            [
              -71.5521958,
              -16.3303205
            ],
            [
              -71.5528009,
              -16.3317771
            ],
            [
              -71.5535016,
              -16.3323014
            ],
            [
              -71.5550842,
              -16.3373012
            ],
            [
              -71.5555054,
              -16.3394929
            ],
            [
              -71.5554633,
              -16.340369
            ],
            [
              -71.5565491,
              -16.3436489
            ],
            [
              -71.556694,
              -16.3454342
            ],
            [
              -71.556694,
              -16.3458424
            ]
          ]
        ]
      }
    },
    {
      "type": "Feature",
      "properties": {
        "name": "Miraflores",
        "category": "Hip",
        "osmType": "relation",
        "osmId": 1887805,
        "stroke": "#f43f5e",
        "stroke-width": 2,
        "stroke-opacity": 0.95,
        "fill": "#f43f5e",
        "fill-opacity": 0.16
      },
      "geometry": {
        "type": "Polygon",
        "coordinates": [
          [
            [
              -71.5288201,
              -16.3933589
            ],
            [
              -71.5271615,
              -16.3951716
            ],
            [
              -71.5273711,
              -16.3953814
            ],
            [
              -71.5266241,
              -16.3961284
            ],
            [
              -71.5197192,
              -16.4005969
            ],
            [
              -71.5165081,
              -16.4029295
            ],
            [
              -71.5136857,
              -16.4012591
            ],
            [
              -71.5123034,
              -16.4001647
            ],
            [
              -71.5118625,
              -16.3996716
            ],
            [
              -71.5117275,
              -16.3990991
            ],
            [
              -71.5091642,
              -16.3959311
            ],
            [
              -71.5072634,
              -16.394448
            ],
            [
              -71.505521,
              -16.3934689
            ],
            [
              -71.5028571,
              -16.3922449
            ],
            [
              -71.499286,
              -16.3929216
            ],
            [
              -71.496982,
              -16.3926769
            ],
            [
              -71.4962476,
              -16.3924462
            ],
            [
              -71.4949516,
              -16.391424
            ],
            [
              -71.4946492,
              -16.3896529
            ],
            [
              -71.4947789,
              -16.3878529
            ],
            [
              -71.4947069,
              -16.3871474
            ],
            [
              -71.4945052,
              -16.3868881
            ],
            [
              -71.4929356,
              -16.3866145
            ],
            [
              -71.490387,
              -16.3855342
            ],
            [
              -71.4889221,
              -16.3857326
            ],
            [
              -71.4880371,
              -16.3854732
            ],
            [
              -71.4866657,
              -16.3838152
            ],
            [
              -71.4812012,
              -16.3799572
            ],
            [
              -71.4798507,
              -16.3783512
            ],
            [
              -71.4758377,
              -16.3744564
            ],
            [
              -71.4745179,
              -16.3721904
            ],
            [
              -71.4737549,
              -16.3715286
            ],
            [
              -71.4712525,
              -16.3684084
            ],
            [
              -71.4691391,
              -16.3665237
            ],
            [
              -71.4661941,
              -16.3644886
            ],
            [
              -71.460846,
              -16.359499
            ],
            [
              -71.4584885,
              -16.3580685
            ],
            [
              -71.4573899,
              -16.3570976
            ],
            [
              -71.456482,
              -16.355856
            ],
            [
              -71.4556809,
              -16.3535672
            ],
            [
              -71.453598,
              -16.3515244
            ],
            [
              -71.4505081,
              -16.347374
            ],
            [
              -71.4472884,
              -16.3450317
            ],
            [
              -71.4450302,
              -16.3437939
            ],
            [
              -71.4433822,
              -16.3418484
            ],
            [
              -71.4395981,
              -16.3384114
            ],
            [
              -71.4360581,
              -16.3368989
            ],
            [
              -71.4310685,
              -16.3334636
            ],
            [
              -71.4294357,
              -16.3315086
            ],
            [
              -71.4277344,
              -16.3283139
            ],
            [
              -71.425766,
              -16.3252774
            ],
            [
              -71.4247055,
              -16.3245449
            ],
            [
              -71.4239197,
              -16.3233222
            ],
            [
              -71.4228974,
              -16.3222771
            ],
            [
              -71.4205932,
              -16.3205719
            ],
            [
              -71.4195632,
              -16.3181
            ],
            [
              -71.4187927,
              -16.3144035
            ],
            [
              -71.4157486,
              -16.3089657
            ],
            [
              -71.4149399,
              -16.3063889
            ],
            [
              -71.4135514,
              -16.303545
            ],
            [
              -71.4124146,
              -16.300251
            ],
            [
              -71.411026,
              -16.29772
            ],
            [
              -71.4106064,
              -16.2962112
            ],
            [
              -71.4139329,
              -16.2988129
            ],
            [
              -71.4250717,
              -16.3050842
            ],
            [
              -71.4278717,
              -16.3085461
            ],
            [
              -71.4306945,
              -16.3129559
            ],
            [
              -71.4346085,
              -16.317276
            ],
            [
              -71.4356461,
              -16.3178672
            ],
            [
              -71.4422455,
              -16.320509
            ],
            [
              -71.4452286,
              -16.3223991
            ],
            [
              -71.4458466,
              -16.3231354
            ],
            [
              -71.4463806,
              -16.3246784
            ],
            [
              -71.4461594,
              -16.3273335
            ],
            [
              -71.4465256,
              -16.3279036
            ],
            [
              -71.4479065,
              -16.3285885
            ],
            [
              -71.4494781,
              -16.3297024
            ],
            [
              -71.4509354,
              -16.3303776
            ],
            [
              -71.4528275,
              -16.3323536
            ],
            [
              -71.4550095,
              -16.3340511
            ],
            [
              -71.4566192,
              -16.3349915
            ],
            [
              -71.4585571,
              -16.3369331
            ],
            [
              -71.4594116,
              -16.3374862
            ],
            [
              -71.4615784,
              -16.3384056
            ],
            [
              -71.4621735,
              -16.3389015
            ],
            [
              -71.4629287,
              -16.3402442
            ],
            [
              -71.4679565,
              -16.3457394
            ],
            [
              -71.4714585,
              -16.3490791
            ],
            [
              -71.4731064,
              -16.3512821
            ],
            [
              -71.4782105,
              -16.3558484
            ],
            [
              -71.48909,
              -16.3613815
            ],
            [
              -71.4907532,
              -16.3628216
            ],
            [
              -71.491951,
              -16.3644639
            ],
            [
              -71.4941559,
              -16.3664531
            ],
            [
              -71.494751,
              -16.3668671
            ],
            [
              -71.4965591,
              -16.3675329
            ],
            [
              -71.4988937,
              -16.3694896
            ],
            [
              -71.5,
              -16.3698235
            ],
            [
              -71.5007477,
              -16.369627
            ],
            [
              -71.5023651,
              -16.369854
            ],
            [
              -71.5049134,
              -16.3717079
            ],
            [
              -71.5067215,
              -16.3726864
            ],
            [
              -71.5098649,
              -16.374876
            ],
            [
              -71.5129776,
              -16.3774872
            ],
            [
              -71.5142365,
              -16.3790417
            ],
            [
              -71.5142181,
              -16.3798898
            ],
            [
              -71.5137819,
              -16.3809363
            ],
            [
              -71.513834,
              -16.3813685
            ],
            [
              -71.5146121,
              -16.3822382
            ],
            [
              -71.5161837,
              -16.3834721
            ],
            [
              -71.5173253,
              -16.385213
            ],
            [
              -71.5203093,
              -16.3864707
            ],
            [
              -71.5209833,
              -16.3877532
            ],
            [
              -71.5228844,
              -16.3883987
            ],
            [
              -71.5234102,
              -16.3887484
            ],
            [
              -71.5235488,
              -16.3891411
            ],
            [
              -71.5246862,
              -16.3898726
            ],
            [
              -71.5259935,
              -16.3899421
            ],
            [
              -71.5285879,
              -16.3905465
            ],
            [
              -71.5284769,
              -16.3909477
            ],
            [
              -71.5279758,
              -16.390993
            ],
            [
              -71.5278338,
              -16.3912632
            ],
            [
              -71.5274534,
              -16.3929882
            ],
            [
              -71.5275856,
              -16.3931882
            ],
            [
              -71.5288197,
              -16.3933135
            ],
            [
              -71.5288201,
              -16.3933589
            ]
          ]
        ]
      }
    }
  ]
}
