{
  "type": "FeatureCollection",
  "features": [
    {
      "type": "Feature",
      "properties": {
        "name": "Villa Morra",
        "category": "Tourist",
        "osmType": "R",
        "osmId": 3678186,
        "source": "https://www.openstreetmap.org/relation/3678186",
        "retrievedAt": "2026-09-24",
        "stroke": "#f59e0b",
        "stroke-width": 2,
        "stroke-opacity": 0.95,
        "fill": "#f59e0b",
        "fill-opacity": 0.16
      },
      "geometry": {
        "type": "Polygon",
        "coordinates": [
          [
            [
              -57.5897105,
              -25.2897486
            ],
            [
              -57.5895383,
              -25.2899429
            ],
            [
              -57.5892043,
              -25.2900484
            ],
            [
              -57.58793,
              -25.2905778
            ],
            [
              -57.5870304,
              -25.2909759
            ],
            [
              -57.5852372,
              -25.2918103
            ],
            [
              -57.584338,
              -25.2921874
            ],
            [
              -57.5834548,
              -25.2925912
            ],
            [
              -57.5825547,
              -25.2929626
            ],
            [
              -57.5816752,
              -25.2933693
            ],
            [
              -57.5807467,
              -25.2937654
            ],
            [
              -57.5798441,
              -25.2941577
            ],
            [
              -57.5798185,
              -25.2941692
            ],
            [
              -57.5789504,
              -25.2945555
            ],
            [
              -57.5780638,
              -25.2949399
            ],
            [
              -57.5771315,
              -25.2953353
            ],
            [
              -57.5766369,
              -25.2945435
            ],
            [
              -57.5761551,
              -25.2937378
            ],
            [
              -57.5756657,
              -25.2929289
            ],
            [
              -57.575182,
              -25.2921432
            ],
            [
              -57.5744071,
              -25.29083
            ],
            [
              -57.5737043,
              -25.2897116
            ],
            [
              -57.5730331,
              -25.2885973
            ],
            [
              -57.5720739,
              -25.2870318
            ],
            [
              -57.5720548,
              -25.2869496
            ],
            [
              -57.5718805,
              -25.2866693
            ],
            [
              -57.5718998,
              -25.2865056
            ],
            [
              -57.5719034,
              -25.2864766
            ],
            [
              -57.5720663,
              -25.2864811
            ],
            [
              -57.572169,
              -25.2864731
            ],
            [
              -57.5722512,
              -25.2864618
            ],
            [
              -57.5723539,
              -25.2864448
            ],
            [
              -57.5725096,
              -25.2864173
            ],
            [
              -57.5777656,
              -25.2852005
            ],
            [
              -57.5780276,
              -25.2851426
            ],
            [
              -57.5783443,
              -25.2850722
            ],
            [
              -57.5785602,
              -25.2850386
            ],
            [
              -57.5787407,
              -25.2850194
            ],
            [
              -57.5789778,
              -25.2850114
            ],
            [
              -57.5791831,
              -25.285013
            ],
            [
              -57.5794503,
              -25.2850242
            ],
            [
              -57.5797069,
              -25.2850434
            ],
            [
              -57.5800343,
              -25.2850738
            ],
            [
              -57.5802377,
              -25.2850992
            ],
            [
              -57.5809353,
              -25.2851464
            ],
            [
              -57.5812788,
              -25.2851678
            ],
            [
              -57.581533,
              -25.2851938
            ],
            [
              -57.5822617,
              -25.2852905
            ],
            [
              -57.5823563,
              -25.2853159
            ],
            [
              -57.5826541,
              -25.2854902
            ],
            [
              -57.5830126,
              -25.2856717
            ],
            [
              -57.5832513,
              -25.285789
            ],
            [
              -57.5834542,
              -25.2858812
            ],
            [
              -57.5836432,
              -25.2859494
            ],
            [
              -57.5837831,
              -25.2859836
            ],
            [
              -57.583916,
              -25.2860155
            ],
            [
              -57.5841024,
              -25.2860457
            ],
            [
              -57.5842745,
              -25.2860689
            ],
            [
              -57.5854616,
              -25.2861974
            ],
            [
              -57.5854775,
              -25.2861996
            ],
            [
              -57.5856581,
              -25.2862216
            ],
            [
              -57.5859353,
              -25.2862447
            ],
            [
              -57.5862392,
              -25.2862738
            ],
            [
              -57.5863304,
              -25.2862834
            ],
            [
              -57.5867863,
              -25.2863325
            ],
            [
              -57.58697,
              -25.2863471
            ],
            [
              -57.5879857,
              -25.2864562
            ],
            [
              -57.5885625,
              -25.2864967
            ],
            [
              -57.5886127,
              -25.2865017
            ],
            [
              -57.5886702,
              -25.2865045
            ],
            [
              -57.5887264,
              -25.2865061
            ],
            [
              -57.5892311,
              -25.2881616
            ],
            [
              -57.5896802,
              -25.28963
            ],
            [
              -57.5897105,
              -25.2897486
            ]
          ]
        ]
      }
    },
    {
      "type": "Feature",
      "properties": {
        "name": "Recoleta",
        "category": "Residential",
        "osmType": "R",
        "osmId": 3657383,
        "source": "https://www.openstreetmap.org/relation/3657383",
        "retrievedAt": "2026-09-24",
        "stroke": "#0f766e",
        "stroke-width": 2,
        "stroke-opacity": 0.95,
        "fill": "#0f766e",
        "fill-opacity": 0.16
      },
      "geometry": {
        "type": "Polygon",
        "coordinates": [
          [
            [
              -57.601325,
              -25.2952882
            ],
            [
              -57.6012739,
              -25.2953158
            ],
            [
              -57.6008712,
              -25.295546
            ],
            [
              -57.6007775,
              -25.2955955
            ],
            [
              -57.6006872,
              -25.2957099
            ],
            [
              -57.6002887,
              -25.2960663
            ],
            [
              -57.5994248,
              -25.2954738
            ],
            [
              -57.5992583,
              -25.2953588
            ],
            [
              -57.5992157,
              -25.2953294
            ],
            [
              -57.5982363,
              -25.2955684
            ],
            [
              -57.5980256,
              -25.2956165
            ],
            [
              -57.5970661,
              -25.2958356
            ],
            [
              -57.5969126,
              -25.2958707
            ],
            [
              -57.5967582,
              -25.2959084
            ],
            [
              -57.5953133,
              -25.296261
            ],
            [
              -57.595209,
              -25.2962864
            ],
            [
              -57.5951198,
              -25.2963217
            ],
            [
              -57.5950379,
              -25.2963695
            ],
            [
              -57.5949485,
              -25.2964346
            ],
            [
              -57.5948714,
              -25.2964546
            ],
            [
              -57.5948269,
              -25.2964628
            ],
            [
              -57.592934,
              -25.2968096
            ],
            [
              -57.5928899,
              -25.2968179
            ],
            [
              -57.5934676,
              -25.2987677
            ],
            [
              -57.5938595,
              -25.3001234
            ],
            [
              -57.5942342,
              -25.3013804
            ],
            [
              -57.5944705,
              -25.3021769
            ],
            [
              -57.594731,
              -25.3030351
            ],
            [
              -57.5946603,
              -25.3030418
            ],
            [
              -57.5945857,
              -25.3030502
            ],
            [
              -57.5936847,
              -25.3031514
            ],
            [
              -57.593535,
              -25.3031827
            ],
            [
              -57.5924546,
              -25.3036982
            ],
            [
              -57.5915283,
              -25.304154
            ],
            [
              -57.5904499,
              -25.3046808
            ],
            [
              -57.5902294,
              -25.3047863
            ],
            [
              -57.5891817,
              -25.3052874
            ],
            [
              -57.5882915,
              -25.3057252
            ],
            [
              -57.5873118,
              -25.3061815
            ],
            [
              -57.5868774,
              -25.3064017
            ],
            [
              -57.5864429,
              -25.3066219
            ],
            [
              -57.5855915,
              -25.3070884
            ],
            [
              -57.585038,
              -25.3073719
            ],
            [
              -57.5846727,
              -25.3075528
            ],
            [
              -57.5845903,
              -25.3075935
            ],
            [
              -57.5845408,
              -25.3076201
            ],
            [
              -57.583102,
              -25.3052483
            ],
            [
              -57.5814648,
              -25.3024705
            ],
            [
              -57.5781397,
              -25.2970246
            ],
            [
              -57.5781113,
              -25.2969777
            ],
            [
              -57.5771315,
              -25.2953353
            ],
            [
              -57.5780638,
              -25.2949399
            ],
            [
              -57.5789504,
              -25.2945555
            ],
            [
              -57.5798185,
              -25.2941692
            ],
            [
              -57.5798441,
              -25.2941577
            ],
            [
              -57.5807467,
              -25.2937654
            ],
            [
              -57.5816752,
              -25.2933693
            ],
            [
              -57.5825547,
              -25.2929626
            ],
            [
              -57.5834548,
              -25.2925912
            ],
            [
              -57.584338,
              -25.2921874
            ],
            [
              -57.5852372,
              -25.2918103
            ],
            [
              -57.5870304,
              -25.2909759
            ],
            [
              -57.58793,
              -25.2905778
            ],
            [
              -57.5892043,
              -25.2900484
            ],
            [
              -57.5895383,
              -25.2899429
            ],
            [
              -57.5897105,
              -25.2897486
            ],
            [
              -57.5896802,
              -25.28963
            ],
            [
              -57.5892311,
              -25.2881616
            ],
            [
              -57.5887264,
              -25.2865061
            ],
            [
              -57.5887818,
              -25.2865127
            ],
            [
              -57.5888283,
              -25.2865188
            ],
            [
              -57.5888644,
              -25.2865236
            ],
            [
              -57.5891395,
              -25.28656
            ],
            [
              -57.5896215,
              -25.2866052
            ],
            [
              -57.5897547,
              -25.2866169
            ],
            [
              -57.5899538,
              -25.2866344
            ],
            [
              -57.5903047,
              -25.2866692
            ],
            [
              -57.5903271,
              -25.2866714
            ],
            [
              -57.5905681,
              -25.286694
            ],
            [
              -57.5907719,
              -25.2867131
            ],
            [
              -57.5915147,
              -25.2867828
            ],
            [
              -57.5916555,
              -25.286796
            ],
            [
              -57.5918045,
              -25.2868133
            ],
            [
              -57.5919029,
              -25.2868246
            ],
            [
              -57.5929875,
              -25.2869499
            ],
            [
              -57.5930978,
              -25.2869627
            ],
            [
              -57.593169,
              -25.2869712
            ],
            [
              -57.5935831,
              -25.2870205
            ],
            [
              -57.5936772,
              -25.2870317
            ],
            [
              -57.5937622,
              -25.2870413
            ],
            [
              -57.5948642,
              -25.2871654
            ],
            [
              -57.5948864,
              -25.2871679
            ],
            [
              -57.5949672,
              -25.287177
            ],
            [
              -57.5949798,
              -25.2872564
            ],
            [
              -57.5949829,
              -25.2872759
            ],
            [
              -57.5950386,
              -25.2876263
            ],
            [
              -57.5950663,
              -25.2877284
            ],
            [
              -57.5950993,
              -25.2878222
            ],
            [
              -57.5952704,
              -25.2881429
            ],
            [
              -57.5954465,
              -25.2884729
            ],
            [
              -57.5955348,
              -25.2886383
            ],
            [
              -57.5956544,
              -25.2888471
            ],
            [
              -57.5957865,
              -25.2890779
            ],
            [
              -57.5958078,
              -25.2891169
            ],
            [
              -57.5958379,
              -25.2891718
            ],
            [
              -57.5968135,
              -25.2910079
            ],
            [
              -57.5969049,
              -25.2911799
            ],
            [
              -57.5969408,
              -25.2912475
            ],
            [
              -57.5969499,
              -25.2912646
            ],
            [
              -57.5969587,
              -25.2913048
            ],
            [
              -57.598909,
              -25.2916699
            ],
            [
              -57.5989354,
              -25.2917126
            ],
            [
              -57.5989445,
              -25.2917262
            ],
            [
              -57.5989746,
              -25.2917711
            ],
            [
              -57.5997951,
              -25.2929936
            ],
            [
              -57.6004445,
              -25.2939779
            ],
            [
              -57.6010199,
              -25.2948228
            ],
            [
              -57.601325,
              -25.2952882
            ]
          ]
        ]
      }
    }
  ]
}
