{
  "type": "FeatureCollection",
  "features": [
    {
      "type": "Feature",
      "properties": {
        "name": "Riomar",
        "category": "Hip",
        "osmType": "R",
        "osmId": 13466677,
        "source": "https://www.openstreetmap.org/relation/13466677",
        "retrievedAt": "2026-09-24",
        "stroke": "#f43f5e",
        "stroke-width": 2,
        "stroke-opacity": 0.95,
        "fill": "#f43f5e",
        "fill-opacity": 0.16
      },
      "geometry": {
        "type": "Polygon",
        "coordinates": [
          [
            [
              -74.8428686,
              11.0129097
            ],
            [
              -74.8403428,
              11.0115585
            ],
            [
              -74.8387335,
              11.0107212
            ],
            [
              -74.8379547,
              11.0102991
            ],
            [
              -74.8360727,
              11.00931
            ],
            [
              -74.8334334,
              11.0079041
            ],
            [
              -74.8320709,
              11.0071669
            ],
            [
              -74.8306064,
              11.0064297
            ],
            [
              -74.8299807,
              11.0060856
            ],
            [
              -74.8299421,
              11.0060336
            ],
            [
              -74.8299185,
              11.0059794
            ],
            [
              -74.8299128,
              11.0059327
            ],
            [
              -74.829918,
              11.0058815
            ],
            [
              -74.8299372,
              11.0058414
            ],
            [
              -74.8299748,
              11.0058285
            ],
            [
              -74.8300511,
              11.0058464
            ],
            [
              -74.8300195,
              11.0057965
            ],
            [
              -74.8300206,
              11.0057595
            ],
            [
              -74.8302406,
              11.0053225
            ],
            [
              -74.8300384,
              11.0052161
            ],
            [
              -74.8298478,
              11.0051159
            ],
            [
              -74.8297383,
              11.005054
            ],
            [
              -74.8293426,
              11.0048817
            ],
            [
              -74.82911,
              11.0047616
            ],
            [
              -74.8288641,
              11.0045945
            ],
            [
              -74.8286641,
              11.0044327
            ],
            [
              -74.8285565,
              11.0042951
            ],
            [
              -74.8284741,
              11.0042217
            ],
            [
              -74.8283879,
              11.0041604
            ],
            [
              -74.8281336,
              11.0040451
            ],
            [
              -74.8273971,
              11.0038571
            ],
            [
              -74.8272036,
              11.0038006
            ],
            [
              -74.8265969,
              11.0036211
            ],
            [
              -74.8260429,
              11.0034818
            ],
            [
              -74.8249119,
              11.0031806
            ],
            [
              -74.8246875,
              11.0030883
            ],
            [
              -74.8246579,
              11.0030835
            ],
            [
              -74.8246172,
              11.0030845
            ],
            [
              -74.8244511,
              11.0030885
            ],
            [
              -74.8242245,
              11.0030939
            ],
            [
              -74.8241201,
              11.0030964
            ],
            [
              -74.8239963,
              11.0030994
            ],
            [
              -74.8236738,
              11.0031179
            ],
            [
              -74.8231362,
              11.0031513
            ],
            [
              -74.8225253,
              11.003158
            ],
            [
              -74.822104,
              11.003145
            ],
            [
              -74.8210161,
              11.0030813
            ],
            [
              -74.8207325,
              11.0030496
            ],
            [
              -74.8206236,
              11.0030391
            ],
            [
              -74.8201809,
              11.0029529
            ],
            [
              -74.8196551,
              11.0027811
            ],
            [
              -74.8187665,
              11.0024049
            ],
            [
              -74.8183333,
              11.0032893
            ],
            [
              -74.8173769,
              11.005297
            ],
            [
              -74.8173706,
              11.0053103
            ],
            [
              -74.8172042,
              11.0056638
            ],
            [
              -74.8171272,
              11.0058285
            ],
            [
              -74.8170863,
              11.0059168
            ],
            [
              -74.8168216,
              11.0064674
            ],
            [
              -74.8167536,
              11.0065993
            ],
            [
              -74.8169972,
              11.0067147
            ],
            [
              -74.8173146,
              11.0068591
            ],
            [
              -74.8182332,
              11.0073003
            ],
            [
              -74.8182763,
              11.0073228
            ],
            [
              -74.8182295,
              11.0073489
            ],
            [
              -74.8179742,
              11.0074765
            ],
            [
              -74.817341,
              11.0077554
            ],
            [
              -74.8166327,
              11.0083445
            ],
            [
              -74.816321,
              11.0086762
            ],
            [
              -74.8159806,
              11.0090763
            ],
            [
              -74.8154018,
              11.0098591
            ],
            [
              -74.815177,
              11.0101917
            ],
            [
              -74.8137543,
              11.0095746
            ],
            [
              -74.8132199,
              11.0093448
            ],
            [
              -74.8136802,
              11.0089781
            ],
            [
              -74.8139345,
              11.0087716
            ],
            [
              -74.8132347,
              11.0084622
            ],
            [
              -74.8126774,
              11.0082157
            ],
            [
              -74.812086,
              11.0079613
            ],
            [
              -74.8118545,
              11.0083712
            ],
            [
              -74.8116932,
              11.0086843
            ],
            [
              -74.8115635,
              11.0090992
            ],
            [
              -74.8113617,
              11.0097648
            ],
            [
              -74.8111221,
              11.0105761
            ],
            [
              -74.8110252,
              11.0108435
            ],
            [
              -74.8108744,
              11.0111465
            ],
            [
              -74.8105701,
              11.0114714
            ],
            [
              -74.8101934,
              11.0117946
            ],
            [
              -74.8104952,
              11.0118352
            ],
            [
              -74.8107954,
              11.0119465
            ],
            [
              -74.8104649,
              11.0123105
            ],
            [
              -74.8102468,
              11.0125508
            ],
            [
              -74.8100028,
              11.0130881
            ],
            [
              -74.8097702,
              11.0135827
            ],
            [
              -74.8094774,
              11.0141409
            ],
            [
              -74.809086,
              11.0148083
            ],
            [
              -74.8088888,
              11.0152184
            ],
            [
              -74.8087246,
              11.0157468
            ],
            [
              -74.8096779,
              11.0160113
            ],
            [
              -74.8101918,
              11.0161469
            ],
            [
              -74.8110069,
              11.0163513
            ],
            [
              -74.8108509,
              11.0169592
            ],
            [
              -74.8107423,
              11.0173081
            ],
            [
              -74.8105542,
              11.0176158
            ],
            [
              -74.810311,
              11.0179592
            ],
            [
              -74.8099758,
              11.018405
            ],
            [
              -74.8097001,
              11.0187447
            ],
            [
              -74.8092364,
              11.0193057
            ],
            [
              -74.8086976,
              11.0191664
            ],
            [
              -74.8081749,
              11.0190414
            ],
            [
              -74.8079761,
              11.0191015
            ],
            [
              -74.8075165,
              11.0189772
            ],
            [
              -74.8071005,
              11.0194287
            ],
            [
              -74.8067894,
              11.0197248
            ],
            [
              -74.8061124,
              11.0202918
            ],
            [
              -74.8063437,
              11.0206522
            ],
            [
              -74.8058578,
              11.0207974
            ],
            [
              -74.8054504,
              11.020912
            ],
            [
              -74.8052285,
              11.0209653
            ],
            [
              -74.8050301,
              11.0210529
            ],
            [
              -74.8048078,
              11.0212084
            ],
            [
              -74.8045192,
              11.0214601
            ],
            [
              -74.8041008,
              11.0218249
            ],
            [
              -74.8035295,
              11.0222859
            ],
            [
              -74.8029503,
              11.0227374
            ],
            [
              -74.8026873,
              11.023011
            ],
            [
              -74.8025008,
              11.0233305
            ],
            [
              -74.8023113,
              11.0237943
            ],
            [
              -74.8021873,
              11.0240693
            ],
            [
              -74.8019867,
              11.0243458
            ],
            [
              -74.8018593,
              11.0244714
            ],
            [
              -74.801547,
              11.0247573
            ],
            [
              -74.8013617,
              11.0249628
            ],
            [
              -74.8012788,
              11.0251156
            ],
            [
              -74.8012076,
              11.02532
            ],
            [
              -74.801123,
              11.025597
            ],
            [
              -74.8010045,
              11.0259152
            ],
            [
              -74.8008243,
              11.0263028
            ],
            [
              -74.8006091,
              11.0269071
            ],
            [
              -74.8005483,
              11.0270964
            ],
            [
              -74.8003493,
              11.0274628
            ],
            [
              -74.8004746,
              11.0276037
            ],
            [
              -74.8004603,
              11.0276548
            ],
            [
              -74.8004533,
              11.0277155
            ],
            [
              -74.8004914,
              11.0278384
            ],
            [
              -74.8005063,
              11.0279115
            ],
            [
              -74.8005274,
              11.0280134
            ],
            [
              -74.8002938,
              11.0282567
            ],
            [
              -74.8009756,
              11.0288675
            ],
            [
              -74.8013249,
              11.0291532
            ],
            [
              -74.8014234,
              11.0290427
            ],
            [
              -74.801455,
              11.0290217
            ],
            [
              -74.8014842,
              11.029023
            ],
            [
              -74.8015101,
              11.0290393
            ],
            [
              -74.8015571,
              11.0290833
            ],
            [
              -74.8016067,
              11.0291233
            ],
            [
              -74.8016523,
              11.0291736
            ],
            [
              -74.8017341,
              11.0292488
            ],
            [
              -74.8017786,
              11.0293098
            ],
            [
              -74.8018259,
              11.0293457
            ],
            [
              -74.8019137,
              11.0294263
            ],
            [
              -74.801993,
              11.0294772
            ],
            [
              -74.8020245,
              11.0294898
            ],
            [
              -74.8020528,
              11.0294944
            ],
            [
              -74.8020917,
              11.0295253
            ],
            [
              -74.8020903,
              11.0295587
            ],
            [
              -74.8021552,
              11.029615
            ],
            [
              -74.8022005,
              11.0296325
            ],
            [
              -74.8022389,
              11.0296221
            ],
            [
              -74.8023256,
              11.0294812
            ],
            [
              -74.8024075,
              11.029535
            ],
            [
              -74.8023079,
              11.0297105
            ],
            [
              -74.8023004,
              11.0297763
            ],
            [
              -74.8023076,
              11.0298002
            ],
            [
              -74.8023598,
              11.0297982
            ],
            [
              -74.8024674,
              11.0298212
            ],
            [
              -74.8025246,
              11.0299325
            ],
            [
              -74.8026198,
              11.0299958
            ],
            [
              -74.8030301,
              11.030205
            ],
            [
              -74.8031868,
              11.0303005
            ],
            [
              -74.8032931,
              11.0302927
            ],
            [
              -74.8033588,
              11.0302917
            ],
            [
              -74.8034069,
              11.0303034
            ],
            [
              -74.803429,
              11.030335
            ],
            [
              -74.8034406,
              11.0303769
            ],
            [
              -74.8034918,
              11.0304424
            ],
            [
              -74.8038837,
              11.0306262
            ],
            [
              -74.8041076,
              11.0307162
            ],
            [
              -74.804321,
              11.030802
            ],
            [
              -74.804563,
              11.0309092
            ],
            [
              -74.8047211,
              11.0309822
            ],
            [
              -74.8048537,
              11.0310565
            ],
            [
              -74.8050196,
              11.031171
            ],
            [
              -74.8052577,
              11.0313657
            ],
            [
              -74.8056854,
              11.0317182
            ],
            [
              -74.8059104,
              11.0318493
            ],
            [
              -74.8060329,
              11.0319122
            ],
            [
              -74.8062671,
              11.0319453
            ],
            [
              -74.8063274,
              11.0319915
            ],
            [
              -74.8064326,
              11.0320775
            ],
            [
              -74.8065651,
              11.0321417
            ],
            [
              -74.8066031,
              11.0320798
            ],
            [
              -74.8071991,
              11.0324903
            ],
            [
              -74.8075172,
              11.0326969
            ],
            [
              -74.808353,
              11.033163
            ],
            [
              -74.8092343,
              11.0336814
            ],
            [
              -74.8102887,
              11.0341466
            ],
            [
              -74.8104998,
              11.0342461
            ],
            [
              -74.8104721,
              11.0343844
            ],
            [
              -74.8109079,
              11.0346194
            ],
            [
              -74.8110711,
              11.0347205
            ],
            [
              -74.8115161,
              11.0351347
            ],
            [
              -74.812275,
              11.0356951
            ],
            [
              -74.8126274,
              11.0360998
            ],
            [
              -74.8134175,
              11.0365413
            ],
            [
              -74.8172388,
              11.0388087
            ],
            [
              -74.8182773,
              11.0394197
            ],
            [
              -74.8195327,
              11.0405655
            ],
            [
              -74.8196998,
              11.0407692
            ],
            [
              -74.8198737,
              11.0411413
            ],
            [
              -74.8205497,
              11.0415862
            ],
            [
              -74.8206927,
              11.0414108
            ],
            [
              -74.8215611,
              11.041843
            ],
            [
              -74.8232899,
              11.0429856
            ],
            [
              -74.8252252,
              11.0437765
            ],
            [
              -74.8255155,
              11.0437499
            ],
            [
              -74.8257066,
              11.0438138
            ],
            [
              -74.8261291,
              11.0440465
            ],
            [
              -74.826232,
              11.0440044
            ],
            [
              -74.8265252,
              11.04424
            ],
            [
              -74.8266771,
              11.0441969
            ],
            [
              -74.8268937,
              11.0443548
            ],
            [
              -74.8269901,
              11.0444538
            ],
            [
              -74.8272059,
              11.0446515
            ],
            [
              -74.8272948,
              11.0447226
            ],
            [
              -74.8275221,
              11.0448912
            ],
            [
              -74.8277802,
              11.0450436
            ],
            [
              -74.8278837,
              11.045156
            ],
            [
              -74.8279338,
              11.0451272
            ],
            [
              -74.828013,
              11.0451959
            ],
            [
              -74.8281074,
              11.0452758
            ],
            [
              -74.8282449,
              11.0453233
            ],
            [
              -74.8299653,
              11.0443007
            ],
            [
              -74.8300132,
              11.0442016
            ],
            [
              -74.8301314,
              11.0441736
            ],
            [
              -74.8302409,
              11.044233
            ],
            [
              -74.8302323,
              11.0443367
            ],
            [
              -74.8303232,
              11.044401
            ],
            [
              -74.8303887,
              11.0443262
            ],
            [
              -74.8305076,
              11.0442883
            ],
            [
              -74.8305636,
              11.0442875
            ],
            [
              -74.8306522,
              11.0443228
            ],
            [
              -74.830691,
              11.0443577
            ],
            [
              -74.8307677,
              11.0443166
            ],
            [
              -74.8308594,
              11.0443413
            ],
            [
              -74.8310351,
              11.0444599
            ],
            [
              -74.8311263,
              11.0444386
            ],
            [
              -74.8312188,
              11.0445277
            ],
            [
              -74.8311371,
              11.0446526
            ],
            [
              -74.8313088,
              11.0447996
            ],
            [
              -74.8314189,
              11.044736
            ],
            [
              -74.8315104,
              11.0446615
            ],
            [
              -74.8315377,
              11.0445494
            ],
            [
              -74.8316231,
              11.0445152
            ],
            [
              -74.8316929,
              11.0444904
            ],
            [
              -74.8317671,
              11.0444242
            ],
            [
              -74.8318491,
              11.0443976
            ],
            [
              -74.8319846,
              11.0443735
            ],
            [
              -74.8321644,
              11.0441867
            ],
            [
              -74.8320745,
              11.0439437
            ],
            [
              -74.8320168,
              11.0438582
            ],
            [
              -74.8319135,
              11.0437674
            ],
            [
              -74.8316816,
              11.0436015
            ],
            [
              -74.8316172,
              11.0435423
            ],
            [
              -74.8314271,
              11.0434285
            ],
            [
              -74.8313818,
              11.0433942
            ],
            [
              -74.83136,
              11.0433692
            ],
            [
              -74.8313463,
              11.0433363
            ],
            [
              -74.8313406,
              11.0432995
            ],
            [
              -74.8313409,
              11.0432679
            ],
            [
              -74.8313379,
              11.0432485
            ],
            [
              -74.8313295,
              11.0432271
            ],
            [
              -74.8313121,
              11.0432106
            ],
            [
              -74.8310747,
              11.0430461
            ],
            [
              -74.8309595,
              11.042885
            ],
            [
              -74.8308823,
              11.0427847
            ],
            [
              -74.8308329,
              11.0427281
            ],
            [
              -74.8307079,
              11.0426013
            ],
            [
              -74.8306071,
              11.0425086
            ],
            [
              -74.8302332,
              11.0422236
            ],
            [
              -74.8298331,
              11.0417837
            ],
            [
              -74.8298242,
              11.0416295
            ],
            [
              -74.8298411,
              11.0414881
            ],
            [
              -74.8298686,
              11.0412955
            ],
            [
              -74.8298936,
              11.0412407
            ],
            [
              -74.8299439,
              11.041209
            ],
            [
              -74.8300184,
              11.041201
            ],
            [
              -74.8300715,
              11.0412232
            ],
            [
              -74.8301602,
              11.0412608
            ],
            [
              -74.8302178,
              11.04114
            ],
            [
              -74.8302665,
              11.0411455
            ],
            [
              -74.8303624,
              11.0411579
            ],
            [
              -74.8304421,
              11.0411482
            ],
            [
              -74.830494,
              11.0411482
            ],
            [
              -74.8305543,
              11.0411732
            ],
            [
              -74.8305842,
              11.0412488
            ],
            [
              -74.8306355,
              11.0413211
            ],
            [
              -74.8306793,
              11.0413696
            ],
            [
              -74.8307512,
              11.0413955
            ],
            [
              -74.8308032,
              11.0413798
            ],
            [
              -74.8308458,
              11.0413533
            ],
            [
              -74.8308723,
              11.0412853
            ],
            [
              -74.8309132,
              11.0412352
            ],
            [
              -74.8309398,
              11.0412055
            ],
            [
              -74.8309034,
              11.0409324
            ],
            [
              -74.8308591,
              11.0407706
            ],
            [
              -74.8308477,
              11.0407191
            ],
            [
              -74.8308198,
              11.0406742
            ],
            [
              -74.8307831,
              11.0406452
            ],
            [
              -74.830738,
              11.0406292
            ],
            [
              -74.8306843,
              11.0406196
            ],
            [
              -74.8305757,
              11.0406062
            ],
            [
              -74.8304664,
              11.0405959
            ],
            [
              -74.8303507,
              11.0405951
            ],
            [
              -74.8302924,
              11.0405886
            ],
            [
              -74.8302266,
              11.0405746
            ],
            [
              -74.8301768,
              11.0405539
            ],
            [
              -74.8301239,
              11.0405279
            ],
            [
              -74.8300567,
              11.0404769
            ],
            [
              -74.8299857,
              11.0404059
            ],
            [
              -74.8299201,
              11.0403384
            ],
            [
              -74.82988,
              11.0402974
            ],
            [
              -74.8298522,
              11.0402691
            ],
            [
              -74.8297582,
              11.040159
            ],
            [
              -74.829746,
              11.0401456
            ],
            [
              -74.8292992,
              11.0396598
            ],
            [
              -74.8291743,
              11.0395239
            ],
            [
              -74.8290323,
              11.0393657
            ],
            [
              -74.828971,
              11.0392863
            ],
            [
              -74.8289208,
              11.0392024
            ],
            [
              -74.8288503,
              11.0390239
            ],
            [
              -74.8287425,
              11.0388185
            ],
            [
              -74.828699,
              11.0387355
            ],
            [
              -74.8285338,
              11.0384631
            ],
            [
              -74.8284795,
              11.0383735
            ],
            [
              -74.8284528,
              11.0383293
            ],
            [
              -74.8284413,
              11.0383102
            ],
            [
              -74.828069,
              11.0385116
            ],
            [
              -74.8276367,
              11.0387634
            ],
            [
              -74.8275242,
              11.038811
            ],
            [
              -74.8273949,
              11.038841
            ],
            [
              -74.8272227,
              11.0388711
            ],
            [
              -74.8271649,
              11.0388735
            ],
            [
              -74.8272036,
              11.0388204
            ],
            [
              -74.827228,
              11.0387576
            ],
            [
              -74.827235,
              11.0386996
            ],
            [
              -74.8272285,
              11.0386423
            ],
            [
              -74.8272083,
              11.0385865
            ],
            [
              -74.8271773,
              11.0385387
            ],
            [
              -74.8271362,
              11.0384988
            ],
            [
              -74.8270574,
              11.0383351
            ],
            [
              -74.8269917,
              11.0382002
            ],
            [
              -74.8269709,
              11.0381173
            ],
            [
              -74.8269694,
              11.0380444
            ],
            [
              -74.8269608,
              11.0377608
            ],
            [
              -74.8269723,
              11.0376849
            ],
            [
              -74.8269998,
              11.0375708
            ],
            [
              -74.8270532,
              11.0374227
            ],
            [
              -74.8271386,
              11.0372643
            ],
            [
              -74.8272915,
              11.0370722
            ],
            [
              -74.8274393,
              11.0369155
            ],
            [
              -74.8287774,
              11.0356118
            ],
            [
              -74.8292411,
              11.0351148
            ],
            [
              -74.829742,
              11.0345614
            ],
            [
              -74.8299455,
              11.0343307
            ],
            [
              -74.8301227,
              11.0341069
            ],
            [
              -74.830212,
              11.0339212
            ],
            [
              -74.8308405,
              11.0330927
            ],
            [
              -74.8311708,
              11.0326086
            ],
            [
              -74.8313238,
              11.0323892
            ],
            [
              -74.8317724,
              11.0316933
            ],
            [
              -74.8319241,
              11.0314579
            ],
            [
              -74.832005,
              11.0313102
            ],
            [
              -74.83216,
              11.031011
            ],
            [
              -74.8323922,
              11.0305694
            ],
            [
              -74.8330065,
              11.0292774
            ],
            [
              -74.8331107,
              11.0290285
            ],
            [
              -74.8339101,
              11.0271296
            ],
            [
              -74.8343734,
              11.0260292
            ],
            [
              -74.8347896,
              11.0250076
            ],
            [
              -74.8353931,
              11.0235262
            ],
            [
              -74.8359425,
              11.0221715
            ],
            [
              -74.8362404,
              11.0214211
            ],
            [
              -74.8362403,
              11.0213824
            ],
            [
              -74.8364761,
              11.0208242
            ],
            [
              -74.8371088,
              11.0191297
            ],
            [
              -74.8373218,
              11.0186702
            ],
            [
              -74.837697,
              11.0177108
            ],
            [
              -74.8378246,
              11.0173936
            ],
            [
              -74.8380818,
              11.0166717
            ],
            [
              -74.8384953,
              11.0157508
            ],
            [
              -74.8386182,
              11.0154564
            ],
            [
              -74.8386628,
              11.0153192
            ],
            [
              -74.8390345,
              11.014426
            ],
            [
              -74.8395411,
              11.0138374
            ],
            [
              -74.839633,
              11.0136821
            ],
            [
              -74.8397506,
              11.0134729
            ],
            [
              -74.8398645,
              11.0133395
            ],
            [
              -74.839979,
              11.0132461
            ],
            [
              -74.8401949,
              11.0131474
            ],
            [
              -74.8412734,
              11.0127504
            ],
            [
              -74.8414019,
              11.012703
            ],
            [
              -74.841605,
              11.0126407
            ],
            [
              -74.841717,
              11.0126268
            ],
            [
              -74.841816,
              11.0126245
            ],
            [
              -74.8419401,
              11.012637
            ],
            [
              -74.8420732,
              11.0126538
            ],
            [
              -74.8422117,
              11.0126943
            ],
            [
              -74.842443,
              11.0127843
            ],
            [
              -74.8425545,
              11.0128387
            ],
            [
              -74.8428686,
              11.0129097
            ]
          ]
        ]
      }
    }
  ]
}
