{
  "type": "FeatureCollection",
  "features": [
    {
      "type": "Feature",
      "properties": {
        "name": "Nazaré",
        "category": "Tourist",
        "osmType": "relation",
        "osmId": 5136602,
        "stroke": "#f59e0b",
        "stroke-width": 2,
        "stroke-opacity": 0.95,
        "fill": "#f59e0b",
        "fill-opacity": 0.16
      },
      "geometry": {
        "type": "Polygon",
        "coordinates": [
          [
            [
              -48.4939661,
              -1.4514545
            ],
            [
              -48.492548,
              -1.453942
            ],
            [
              -48.4928413,
              -1.4541154
            ],
            [
              -48.4907237,
              -1.4571304
            ],
            [
              -48.4894239,
              -1.4562526
            ],
            [
              -48.4856174,
              -1.455694
            ],
            [
              -48.4853041,
              -1.4569752
            ],
            [
              -48.4809709,
              -1.4564462
            ],
            [
              -48.477234,
              -1.4564764
            ],
            [
              -48.4781607,
              -1.4459601
            ],
            [
              -48.4869254,
              -1.4484882
            ],
            [
              -48.4902877,
              -1.4509621
            ],
            [
              -48.4911091,
              -1.4499043
            ],
            [
              -48.4939151,
              -1.4514283
            ],
            [
              -48.4939661,
              -1.4514545
            ]
          ]
        ]
      }
    },
    {
      "type": "Feature",
      "properties": {
        "name": "Umarizal",
        "category": "Residential",
        "osmType": "relation",
        "osmId": 5136604,
        "stroke": "#0f766e",
        "stroke-width": 2,
        "stroke-opacity": 0.95,
        "fill": "#0f766e",
        "fill-opacity": 0.16
      },
      "geometry": {
        "type": "Polygon",
        "coordinates": [
          [
            [
              -48.4953548,
              -1.4397
            ],
            [
              -48.4947057,
              -1.4399477
            ],
            [
              -48.494763,
              -1.4400922
            ],
            [
              -48.490239,
              -1.443453
            ],
            [
              -48.4866016,
              -1.4483961
            ],
            [
              -48.4781607,
              -1.4459601
            ],
            [
              -48.4759518,
              -1.4459386
            ],
            [
              -48.4761523,
              -1.4398668
            ],
            [
              -48.4752165,
              -1.4385164
            ],
            [
              -48.479382,
              -1.4355726
            ],
            [
              -48.4798896,
              -1.4347225
            ],
            [
              -48.4810808,
              -1.4346629
            ],
            [
              -48.4872934,
              -1.4330696
            ],
            [
              -48.493324,
              -1.431129
            ],
            [
              -48.4937582,
              -1.4322737
            ],
            [
              -48.4936256,
              -1.4340573
            ],
            [
              -48.4939751,
              -1.4349335
            ],
            [
              -48.4933339,
              -1.4352988
            ],
            [
              -48.4938326,
              -1.4359907
            ],
            [
              -48.4940791,
              -1.4359741
            ],
            [
              -48.49417,
              -1.436234
            ],
            [
              -48.4944122,
              -1.4361613
            ],
            [
              -48.494499,
              -1.4364873
            ],
            [
              -48.4953548,
              -1.4397
            ]
          ]
        ]
      }
    },
    {
      "type": "Feature",
      "properties": {
        "name": "Batista Campos",
        "category": "Hip",
        "osmType": "relation",
        "osmId": 5130874,
        "stroke": "#f43f5e",
        "stroke-width": 2,
        "stroke-opacity": 0.95,
        "fill": "#f43f5e",
        "fill-opacity": 0.16
      },
      "geometry": {
        "type": "Polygon",
        "coordinates": [
          [
            [
              -48.4993356,
              -1.4588713
            ],
            [
              -48.4961875,
              -1.4629548
            ],
            [
              -48.4943486,
              -1.4611321
            ],
            [
              -48.4841276,
              -1.4695029
            ],
            [
              -48.4828174,
              -1.465511
            ],
            [
              -48.4843522,
              -1.4633803
            ],
            [
              -48.4838563,
              -1.4633325
            ],
            [
              -48.4856174,
              -1.455694
            ],
            [
              -48.4894239,
              -1.4562526
            ],
            [
              -48.4907237,
              -1.4571304
            ],
            [
              -48.4928413,
              -1.4541154
            ],
            [
              -48.4940729,
              -1.4556212
            ],
            [
              -48.4973472,
              -1.4576518
            ],
            [
              -48.4993356,
              -1.4588713
            ]
          ]
        ]
      }
    }
  ]
}
