{
  "type": "FeatureCollection",
  "features": [
    {
      "type": "Feature",
      "properties": {
        "name": "Centro",
        "category": "Tourist",
        "osmType": "relation",
        "osmId": 3408743,
        "stroke": "#f59e0b",
        "stroke-width": 2,
        "stroke-opacity": 0.95,
        "fill": "#f59e0b",
        "fill-opacity": 0.16
      },
      "geometry": {
        "type": "Polygon",
        "coordinates": [
          [
            [
              -43.9482266,
              -19.9178163
            ],
            [
              -43.9451705,
              -19.9228284
            ],
            [
              -43.9454811,
              -19.9239564
            ],
            [
              -43.9364179,
              -19.926198
            ],
            [
              -43.9360909,
              -19.9249575
            ],
            [
              -43.9351437,
              -19.9264944
            ],
            [
              -43.9325467,
              -19.9271309
            ],
            [
              -43.9312806,
              -19.9220709
            ],
            [
              -43.9310642,
              -19.9219781
            ],
            [
              -43.9314496,
              -19.9213382
            ],
            [
              -43.9322402,
              -19.9213933
            ],
            [
              -43.9329714,
              -19.9211261
            ],
            [
              -43.9334404,
              -19.9206988
            ],
            [
              -43.9340392,
              -19.9196705
            ],
            [
              -43.9330079,
              -19.9190931
            ],
            [
              -43.9316081,
              -19.9136456
            ],
            [
              -43.9327158,
              -19.9142511
            ],
            [
              -43.9331918,
              -19.9134758
            ],
            [
              -43.9338105,
              -19.9131746
            ],
            [
              -43.9367095,
              -19.9130672
            ],
            [
              -43.9391292,
              -19.912074
            ],
            [
              -43.9404977,
              -19.9120741
            ],
            [
              -43.9434225,
              -19.9135356
            ],
            [
              -43.9431618,
              -19.9138558
            ],
            [
              -43.9464596,
              -19.9175153
            ],
            [
              -43.9472789,
              -19.9178222
            ],
            [
              -43.9479854,
              -19.9178445
            ],
            [
              -43.9482266,
              -19.9178163
            ]
          ]
        ]
      }
    },
    {
      "type": "Feature",
      "properties": {
        "name": "Lourdes",
        "category": "Residential",
        "osmType": "way",
        "osmId": 947751118,
        "stroke": "#0f766e",
        "stroke-width": 2,
        "stroke-opacity": 0.95,
        "fill": "#0f766e",
        "fill-opacity": 0.16
      },
      "geometry": {
        "type": "Polygon",
        "coordinates": [
          [
            [
              -43.9484573,
              -19.9350616
            ],
            [
              -43.9459333,
              -19.9356962
            ],
            [
              -43.9439809,
              -19.938779
            ],
            [
              -43.9414608,
              -19.9394077
            ],
            [
              -43.9391152,
              -19.9307783
            ],
            [
              -43.9377489,
              -19.9310946
            ],
            [
              -43.9363539,
              -19.9261975
            ],
            [
              -43.9440323,
              -19.9244053
            ],
            [
              -43.9442988,
              -19.9242382
            ],
            [
              -43.9446429,
              -19.9235401
            ],
            [
              -43.9455468,
              -19.9235599
            ],
            [
              -43.9484573,
              -19.9350616
            ]
          ]
        ]
      }
    },
    {
      "type": "Feature",
      "properties": {
        "name": "Savassi",
        "category": "Hip",
        "osmType": "relation",
        "osmId": 3408944,
        "stroke": "#f43f5e",
        "stroke-width": 2,
        "stroke-opacity": 0.95,
        "fill": "#f43f5e",
        "fill-opacity": 0.16
      },
      "geometry": {
        "type": "Polygon",
        "coordinates": [
          [
            [
              -43.9414294,
              -19.9393805
            ],
            [
              -43.9375381,
              -19.940296
            ],
            [
              -43.927095,
              -19.9392499
            ],
            [
              -43.9263099,
              -19.9389569
            ],
            [
              -43.9319156,
              -19.9299014
            ],
            [
              -43.9335515,
              -19.9308061
            ],
            [
              -43.9339337,
              -19.9320811
            ],
            [
              -43.9390451,
              -19.9307296
            ],
            [
              -43.9407299,
              -19.9369001
            ],
            [
              -43.9414294,
              -19.9393805
            ]
          ]
        ]
      }
    }
  ]
}
