{
  "type": "FeatureCollection",
  "features": [
    {
      "type": "Feature",
      "properties": {
        "name": "Granada",
        "category": "Tourist",
        "osmType": "R",
        "osmId": 8956514,
        "source": "https://www.openstreetmap.org/relation/8956514",
        "retrievedAt": "2026-09-24",
        "stroke": "#f59e0b",
        "stroke-width": 2,
        "stroke-opacity": 0.95,
        "fill": "#f59e0b",
        "fill-opacity": 0.16
      },
      "geometry": {
        "type": "Polygon",
        "coordinates": [
          [
            [
              -76.537636,
              3.460601
            ],
            [
              -76.537621,
              3.460434
            ],
            [
              -76.537568,
              3.46014
            ],
            [
              -76.5375832,
              3.4598477
            ],
            [
              -76.5375304,
              3.4593521
            ],
            [
              -76.537535,
              3.4590889
            ],
            [
              -76.5375625,
              3.4589055
            ],
            [
              -76.5375117,
              3.4588764
            ],
            [
              -76.5374122,
              3.458809
            ],
            [
              -76.5373523,
              3.4587534
            ],
            [
              -76.5372738,
              3.458682
            ],
            [
              -76.5371201,
              3.4585766
            ],
            [
              -76.5370548,
              3.4586545
            ],
            [
              -76.5369719,
              3.4587024
            ],
            [
              -76.5368869,
              3.4586944
            ],
            [
              -76.5368309,
              3.4586564
            ],
            [
              -76.5367919,
              3.4586114
            ],
            [
              -76.5367649,
              3.4585484
            ],
            [
              -76.536776,
              3.458355
            ],
            [
              -76.5367316,
              3.4582499
            ],
            [
              -76.536621,
              3.458136
            ],
            [
              -76.5364059,
              3.4579694
            ],
            [
              -76.5359475,
              3.4585786
            ],
            [
              -76.5357464,
              3.458435
            ],
            [
              -76.5352435,
              3.4580759
            ],
            [
              -76.5351875,
              3.4580346
            ],
            [
              -76.534587,
              3.4575912
            ],
            [
              -76.5345558,
              3.4575682
            ],
            [
              -76.5345761,
              3.4575421
            ],
            [
              -76.5349392,
              3.4570778
            ],
            [
              -76.5351063,
              3.4569319
            ],
            [
              -76.5355746,
              3.4565003
            ],
            [
              -76.5357082,
              3.4563782
            ],
            [
              -76.53611,
              3.4559886
            ],
            [
              -76.5365238,
              3.4554717
            ],
            [
              -76.536623,
              3.4553328
            ],
            [
              -76.5366881,
              3.4552364
            ],
            [
              -76.5367276,
              3.4551774
            ],
            [
              -76.5367471,
              3.4551199
            ],
            [
              -76.5367631,
              3.4550462
            ],
            [
              -76.5367625,
              3.4549679
            ],
            [
              -76.5367594,
              3.4548468
            ],
            [
              -76.5368544,
              3.454646
            ],
            [
              -76.5366315,
              3.454737
            ],
            [
              -76.5360644,
              3.4549665
            ],
            [
              -76.535702,
              3.4551131
            ],
            [
              -76.5355993,
              3.4551547
            ],
            [
              -76.5353551,
              3.4552536
            ],
            [
              -76.5351689,
              3.4553258
            ],
            [
              -76.5349696,
              3.4554159
            ],
            [
              -76.5347534,
              3.4555137
            ],
            [
              -76.5345528,
              3.4556032
            ],
            [
              -76.5343119,
              3.4557133
            ],
            [
              -76.5340072,
              3.4558511
            ],
            [
              -76.5338791,
              3.4559081
            ],
            [
              -76.5338169,
              3.4557938
            ],
            [
              -76.5336855,
              3.4555525
            ],
            [
              -76.5336399,
              3.4554689
            ],
            [
              -76.5335966,
              3.4553895
            ],
            [
              -76.5335787,
              3.4553566
            ],
            [
              -76.5331603,
              3.4545883
            ],
            [
              -76.5330913,
              3.4544615
            ],
            [
              -76.5328937,
              3.4541092
            ],
            [
              -76.5328051,
              3.4539497
            ],
            [
              -76.5327633,
              3.4538883
            ],
            [
              -76.5326191,
              3.4539927
            ],
            [
              -76.5324757,
              3.4542565
            ],
            [
              -76.5322986,
              3.4544492
            ],
            [
              -76.5321887,
              3.4546607
            ],
            [
              -76.5320304,
              3.4555282
            ],
            [
              -76.5318963,
              3.4561922
            ],
            [
              -76.5318024,
              3.4565054
            ],
            [
              -76.5314886,
              3.4568267
            ],
            [
              -76.5314242,
              3.4568856
            ],
            [
              -76.5311278,
              3.4570743
            ],
            [
              -76.5308315,
              3.457231
            ],
            [
              -76.5303487,
              3.4576567
            ],
            [
              -76.5301475,
              3.4577638
            ],
            [
              -76.5298685,
              3.4577959
            ],
            [
              -76.5292034,
              3.4577557
            ],
            [
              -76.5288821,
              3.4577975
            ],
            [
              -76.5290506,
              3.4580798
            ],
            [
              -76.5290915,
              3.4581381
            ],
            [
              -76.529125,
              3.4581859
            ],
            [
              -76.529154,
              3.4582272
            ],
            [
              -76.529184,
              3.45827
            ],
            [
              -76.5292114,
              3.458309
            ],
            [
              -76.5292711,
              3.4583941
            ],
            [
              -76.5297923,
              3.4592539
            ],
            [
              -76.5298229,
              3.4593005
            ],
            [
              -76.5298458,
              3.4593357
            ],
            [
              -76.5302173,
              3.4599361
            ],
            [
              -76.5302501,
              3.4599817
            ],
            [
              -76.5302761,
              3.460023
            ],
            [
              -76.5305122,
              3.4603801
            ],
            [
              -76.5306465,
              3.4605974
            ],
            [
              -76.5310014,
              3.4611499
            ],
            [
              -76.5310449,
              3.4612124
            ],
            [
              -76.531104,
              3.4612366
            ],
            [
              -76.5314395,
              3.4613083
            ],
            [
              -76.5318278,
              3.4613801
            ],
            [
              -76.5318803,
              3.4613934
            ],
            [
              -76.5319289,
              3.4614232
            ],
            [
              -76.5319754,
              3.4614606
            ],
            [
              -76.5323325,
              3.4617924
            ],
            [
              -76.5324031,
              3.4618491
            ],
            [
              -76.5324512,
              3.4618807
            ],
            [
              -76.5325834,
              3.4619696
            ],
            [
              -76.5326725,
              3.462016
            ],
            [
              -76.532855,
              3.4620649
            ],
            [
              -76.5329912,
              3.4621243
            ],
            [
              -76.5334227,
              3.4623458
            ],
            [
              -76.533495,
              3.4623578
            ],
            [
              -76.5335617,
              3.4623513
            ],
            [
              -76.5335748,
              3.4624047
            ],
            [
              -76.5335979,
              3.4624532
            ],
            [
              -76.5339893,
              3.4628292
            ],
            [
              -76.5340247,
              3.4628646
            ],
            [
              -76.5340485,
              3.4629104
            ],
            [
              -76.5340574,
              3.4629611
            ],
            [
              -76.5340538,
              3.4629986
            ],
            [
              -76.534039,
              3.4630406
            ],
            [
              -76.534013,
              3.4630778
            ],
            [
              -76.5339335,
              3.4631249
            ],
            [
              -76.5348588,
              3.4633508
            ],
            [
              -76.5352719,
              3.4635069
            ],
            [
              -76.5354717,
              3.4630475
            ],
            [
              -76.5355535,
              3.4626329
            ],
            [
              -76.535693,
              3.4626058
            ],
            [
              -76.5358251,
              3.4625538
            ],
            [
              -76.5359455,
              3.4624786
            ],
            [
              -76.5360502,
              3.4623826
            ],
            [
              -76.5361355,
              3.4622693
            ],
            [
              -76.5361987,
              3.4621422
            ],
            [
              -76.5362376,
              3.4620058
            ],
            [
              -76.5367256,
              3.4618667
            ],
            [
              -76.5368477,
              3.4615147
            ],
            [
              -76.5371668,
              3.4611466
            ],
            [
              -76.537534,
              3.4611
            ],
            [
              -76.537621,
              3.460785
            ],
            [
              -76.537636,
              3.460601
            ]
          ]
        ]
      }
    },
    {
      "type": "Feature",
      "properties": {
        "name": "Ciudad Jardín",
        "category": "Residential",
        "osmType": "R",
        "osmId": 9174986,
        "source": "https://www.openstreetmap.org/relation/9174986",
        "retrievedAt": "2026-09-24",
        "stroke": "#0f766e",
        "stroke-width": 2,
        "stroke-opacity": 0.95,
        "fill": "#0f766e",
        "fill-opacity": 0.16
      },
      "geometry": {
        "type": "Polygon",
        "coordinates": [
          [
            [
              -76.5446226,
              3.3644497
            ],
            [
              -76.5422925,
              3.3610258
            ],
            [
              -76.5423958,
              3.3607714
            ],
            [
              -76.5428228,
              3.3596027
            ],
            [
              -76.5430328,
              3.3594125
            ],
            [
              -76.5436229,
              3.3588094
            ],
            [
              -76.5441057,
              3.3582344
            ],
            [
              -76.5441981,
              3.3580215
            ],
            [
              -76.5441218,
              3.3577202
            ],
            [
              -76.5440211,
              3.3575168
            ],
            [
              -76.5439942,
              3.3572758
            ],
            [
              -76.5439455,
              3.357272
            ],
            [
              -76.5434076,
              3.3572297
            ],
            [
              -76.5431479,
              3.3572312
            ],
            [
              -76.5419908,
              3.3571171
            ],
            [
              -76.5420794,
              3.3565412
            ],
            [
              -76.5415171,
              3.3564837
            ],
            [
              -76.5411266,
              3.3564455
            ],
            [
              -76.5410601,
              3.3564393
            ],
            [
              -76.5401878,
              3.3573082
            ],
            [
              -76.5398691,
              3.3570105
            ],
            [
              -76.5396684,
              3.3569061
            ],
            [
              -76.5394744,
              3.356881
            ],
            [
              -76.53735,
              3.3572191
            ],
            [
              -76.5372553,
              3.3571526
            ],
            [
              -76.5368342,
              3.3569759
            ],
            [
              -76.5366404,
              3.3569592
            ],
            [
              -76.5364185,
              3.3569919
            ],
            [
              -76.5353832,
              3.3574311
            ],
            [
              -76.5346812,
              3.3577768
            ],
            [
              -76.5346397,
              3.3584029
            ],
            [
              -76.5343491,
              3.3583239
            ],
            [
              -76.5341531,
              3.3583022
            ],
            [
              -76.534062,
              3.3583222
            ],
            [
              -76.5339466,
              3.3583582
            ],
            [
              -76.5337646,
              3.3584604
            ],
            [
              -76.5334401,
              3.3586909
            ],
            [
              -76.5332041,
              3.3589022
            ],
            [
              -76.5327367,
              3.3594194
            ],
            [
              -76.5323483,
              3.3600427
            ],
            [
              -76.5320583,
              3.3606669
            ],
            [
              -76.531583,
              3.3596098
            ],
            [
              -76.5315161,
              3.3597122
            ],
            [
              -76.5314336,
              3.359799
            ],
            [
              -76.5313577,
              3.359946
            ],
            [
              -76.5312864,
              3.3600083
            ],
            [
              -76.5310009,
              3.3601263
            ],
            [
              -76.5309116,
              3.3601553
            ],
            [
              -76.5308403,
              3.3603245
            ],
            [
              -76.5307711,
              3.3604759
            ],
            [
              -76.5306507,
              3.3607186
            ],
            [
              -76.5305614,
              3.3608433
            ],
            [
              -76.5304856,
              3.3609702
            ],
            [
              -76.5304098,
              3.3611751
            ],
            [
              -76.5303451,
              3.3612686
            ],
            [
              -76.5301555,
              3.361302
            ],
            [
              -76.5300373,
              3.3613287
            ],
            [
              -76.529957,
              3.3613643
            ],
            [
              -76.5298611,
              3.361518
            ],
            [
              -76.5297696,
              3.3616405
            ],
            [
              -76.5296202,
              3.3617852
            ],
            [
              -76.5294908,
              3.3618253
            ],
            [
              -76.5293815,
              3.361803
            ],
            [
              -76.5293035,
              3.361783
            ],
            [
              -76.5292365,
              3.3618208
            ],
            [
              -76.5291719,
              3.3618698
            ],
            [
              -76.5290983,
              3.3620145
            ],
            [
              -76.529009,
              3.3621014
            ],
            [
              -76.5288797,
              3.3621548
            ],
            [
              -76.5287927,
              3.3621504
            ],
            [
              -76.5287213,
              3.3620813
            ],
            [
              -76.528641,
              3.3620702
            ],
            [
              -76.5285183,
              3.3621147
            ],
            [
              -76.5283533,
              3.3622394
            ],
            [
              -76.5282507,
              3.3623329
            ],
            [
              -76.5282507,
              3.3624265
            ],
            [
              -76.5282797,
              3.3624821
            ],
            [
              -76.5282797,
              3.3626113
            ],
            [
              -76.5282083,
              3.3626914
            ],
            [
              -76.5281258,
              3.3626157
            ],
            [
              -76.5280321,
              3.3625311
            ],
            [
              -76.5279496,
              3.3625378
            ],
            [
              -76.5278581,
              3.3625801
            ],
            [
              -76.5277421,
              3.3627426
            ],
            [
              -76.5276685,
              3.3628317
            ],
            [
              -76.5276908,
              3.3629653
            ],
            [
              -76.5276484,
              3.3630701
            ],
            [
              -76.5278244,
              3.3630947
            ],
            [
              -76.5281843,
              3.3631766
            ],
            [
              -76.528459,
              3.3631937
            ],
            [
              -76.5287164,
              3.3634508
            ],
            [
              -76.5291027,
              3.3634079
            ],
            [
              -76.5292314,
              3.3635365
            ],
            [
              -76.5293344,
              3.3635193
            ],
            [
              -76.5294889,
              3.363605
            ],
            [
              -76.5297636,
              3.3637507
            ],
            [
              -76.5300468,
              3.3638106
            ],
            [
              -76.5302786,
              3.3640334
            ],
            [
              -76.5304171,
              3.3642284
            ],
            [
              -76.5305351,
              3.3645176
            ],
            [
              -76.5305995,
              3.3647104
            ],
            [
              -76.5307068,
              3.3649567
            ],
            [
              -76.5310032,
              3.3651267
            ],
            [
              -76.5311305,
              3.3652037
            ],
            [
              -76.5298535,
              3.3670975
            ],
            [
              -76.5297992,
              3.3671677
            ],
            [
              -76.5297546,
              3.3672486
            ],
            [
              -76.5297296,
              3.3673094
            ],
            [
              -76.529808,
              3.3673463
            ],
            [
              -76.5304615,
              3.3676659
            ],
            [
              -76.5311159,
              3.3680064
            ],
            [
              -76.5319218,
              3.3684212
            ],
            [
              -76.5325856,
              3.3687466
            ],
            [
              -76.5328114,
              3.3688632
            ],
            [
              -76.5334654,
              3.3692044
            ],
            [
              -76.5343934,
              3.369685
            ],
            [
              -76.5352397,
              3.3701081
            ],
            [
              -76.535878,
              3.370416
            ],
            [
              -76.5361999,
              3.3705619
            ],
            [
              -76.536448,
              3.3706021
            ],
            [
              -76.5365469,
              3.3706108
            ],
            [
              -76.5367983,
              3.3707666
            ],
            [
              -76.5370308,
              3.3709524
            ],
            [
              -76.5370954,
              3.3709939
            ],
            [
              -76.5371405,
              3.371025
            ],
            [
              -76.5371715,
              3.3694715
            ],
            [
              -76.5371893,
              3.368867
            ],
            [
              -76.5371997,
              3.3684586
            ],
            [
              -76.5372557,
              3.3684365
            ],
            [
              -76.5373031,
              3.3684153
            ],
            [
              -76.5374579,
              3.3683262
            ],
            [
              -76.5377209,
              3.3681823
            ],
            [
              -76.5378328,
              3.3681387
            ],
            [
              -76.5379594,
              3.3681066
            ],
            [
              -76.5383914,
              3.3680737
            ],
            [
              -76.539166,
              3.3680053
            ],
            [
              -76.5392601,
              3.3680094
            ],
            [
              -76.5393994,
              3.3680443
            ],
            [
              -76.5396935,
              3.3681695
            ],
            [
              -76.5398289,
              3.3682084
            ],
            [
              -76.5400756,
              3.3682333
            ],
            [
              -76.5405118,
              3.368221
            ],
            [
              -76.5406514,
              3.3682529
            ],
            [
              -76.540809,
              3.3683149
            ],
            [
              -76.5410535,
              3.3684331
            ],
            [
              -76.5413391,
              3.3685712
            ],
            [
              -76.5416695,
              3.3687738
            ],
            [
              -76.5415641,
              3.3676315
            ],
            [
              -76.5415822,
              3.3675054
            ],
            [
              -76.5416072,
              3.3673791
            ],
            [
              -76.5415399,
              3.367211
            ],
            [
              -76.5415318,
              3.3670062
            ],
            [
              -76.5414943,
              3.3668187
            ],
            [
              -76.5414246,
              3.366567
            ],
            [
              -76.5414675,
              3.3664278
            ],
            [
              -76.5415158,
              3.3663261
            ],
            [
              -76.5415694,
              3.3661654
            ],
            [
              -76.541682,
              3.3660315
            ],
            [
              -76.5417089,
              3.3659137
            ],
            [
              -76.5416606,
              3.365753
            ],
            [
              -76.5416177,
              3.3656245
            ],
            [
              -76.5415909,
              3.3654799
            ],
            [
              -76.5415211,
              3.3653835
            ],
            [
              -76.5414782,
              3.3652711
            ],
            [
              -76.541505,
              3.3651961
            ],
            [
              -76.5418054,
              3.3650622
            ],
            [
              -76.5419878,
              3.3648962
            ],
            [
              -76.5424009,
              3.3645481
            ],
            [
              -76.5427335,
              3.3643553
            ],
            [
              -76.5430124,
              3.3642322
            ],
            [
              -76.5433879,
              3.3641733
            ],
            [
              -76.5436401,
              3.3642322
            ],
            [
              -76.543801,
              3.3643179
            ],
            [
              -76.5439405,
              3.3644196
            ],
            [
              -76.5441121,
              3.364516
            ],
            [
              -76.5442892,
              3.3646231
            ],
            [
              -76.5444447,
              3.364591
            ],
            [
              -76.5446057,
              3.3644732
            ],
            [
              -76.5446226,
              3.3644497
            ]
          ]
        ]
      }
    },
    {
      "type": "Feature",
      "properties": {
        "name": "San Antonio",
        "category": "Hip",
        "osmType": "R",
        "osmId": 7669497,
        "source": "https://www.openstreetmap.org/relation/7669497",
        "retrievedAt": "2026-09-24",
        "stroke": "#f43f5e",
        "stroke-width": 2,
        "stroke-opacity": 0.95,
        "fill": "#f43f5e",
        "fill-opacity": 0.16
      },
      "geometry": {
        "type": "Polygon",
        "coordinates": [
          [
            [
              -76.5433943,
              3.44851
            ],
            [
              -76.5433857,
              3.4484691
            ],
            [
              -76.5432629,
              3.4478822
            ],
            [
              -76.5429557,
              3.4478823
            ],
            [
              -76.5422364,
              3.4480545
            ],
            [
              -76.5419571,
              3.4481388
            ],
            [
              -76.5418345,
              3.4481387
            ],
            [
              -76.5417182,
              3.4481184
            ],
            [
              -76.5409528,
              3.4476287
            ],
            [
              -76.5408165,
              3.4476003
            ],
            [
              -76.540761,
              3.4474908
            ],
            [
              -76.5405566,
              3.447285
            ],
            [
              -76.5404711,
              3.4471455
            ],
            [
              -76.5404176,
              3.4469879
            ],
            [
              -76.5404192,
              3.4468363
            ],
            [
              -76.5404601,
              3.4465888
            ],
            [
              -76.5406048,
              3.4466132
            ],
            [
              -76.5410099,
              3.446651
            ],
            [
              -76.5418523,
              3.4467746
            ],
            [
              -76.5419203,
              3.4467844
            ],
            [
              -76.5420169,
              3.4467843
            ],
            [
              -76.5428335,
              3.4467935
            ],
            [
              -76.542919,
              3.4467394
            ],
            [
              -76.542958,
              3.4466761
            ],
            [
              -76.5429719,
              3.4465502
            ],
            [
              -76.5429201,
              3.4464438
            ],
            [
              -76.5428416,
              3.4463996
            ],
            [
              -76.5424355,
              3.44637
            ],
            [
              -76.5424204,
              3.4461064
            ],
            [
              -76.5423036,
              3.4461016
            ],
            [
              -76.5416459,
              3.4460935
            ],
            [
              -76.5410908,
              3.4460478
            ],
            [
              -76.540084,
              3.4457537
            ],
            [
              -76.5392781,
              3.4455584
            ],
            [
              -76.5388913,
              3.4455297
            ],
            [
              -76.5377895,
              3.4455407
            ],
            [
              -76.5372017,
              3.4455444
            ],
            [
              -76.5366786,
              3.445511
            ],
            [
              -76.5366365,
              3.4455107
            ],
            [
              -76.5365355,
              3.4455053
            ],
            [
              -76.5365271,
              3.4456126
            ],
            [
              -76.5365526,
              3.4461347
            ],
            [
              -76.5365955,
              3.4462579
            ],
            [
              -76.5366073,
              3.446379
            ],
            [
              -76.5366377,
              3.4466901
            ],
            [
              -76.5367521,
              3.4471926
            ],
            [
              -76.5369565,
              3.4481415
            ],
            [
              -76.5369815,
              3.4482128
            ],
            [
              -76.5369996,
              3.4482749
            ],
            [
              -76.5372582,
              3.4489613
            ],
            [
              -76.5375676,
              3.4497871
            ],
            [
              -76.5376666,
              3.4497435
            ],
            [
              -76.5376834,
              3.4497268
            ],
            [
              -76.537699,
              3.4497274
            ],
            [
              -76.5379037,
              3.4496311
            ],
            [
              -76.5381235,
              3.4495315
            ],
            [
              -76.5382933,
              3.4494177
            ],
            [
              -76.5384223,
              3.449308
            ],
            [
              -76.5385268,
              3.4492427
            ],
            [
              -76.5386011,
              3.4491903
            ],
            [
              -76.5387037,
              3.4491494
            ],
            [
              -76.5388188,
              3.449136
            ],
            [
              -76.5391574,
              3.449116
            ],
            [
              -76.5394986,
              3.4491175
            ],
            [
              -76.5397429,
              3.4490894
            ],
            [
              -76.54002,
              3.4490341
            ],
            [
              -76.5400622,
              3.4490179
            ],
            [
              -76.5401489,
              3.4489779
            ],
            [
              -76.540292,
              3.4489336
            ],
            [
              -76.5404469,
              3.4489088
            ],
            [
              -76.5405882,
              3.4489056
            ],
            [
              -76.5407185,
              3.448919
            ],
            [
              -76.5415572,
              3.4491391
            ],
            [
              -76.5416824,
              3.4491638
            ],
            [
              -76.5417774,
              3.4491698
            ],
            [
              -76.5418724,
              3.4491645
            ],
            [
              -76.5419661,
              3.4491478
            ],
            [
              -76.5420658,
              3.4491167
            ],
            [
              -76.5424112,
              3.4489768
            ],
            [
              -76.5427961,
              3.4488066
            ],
            [
              -76.5433943,
              3.44851
            ]
          ]
        ]
      }
    }
  ]
}
