{
  "type": "FeatureCollection",
  "features": [
    {
      "type": "Feature",
      "properties": {
        "name": "Altamira",
        "category": "Tourist",
        "osmType": "W",
        "osmId": 1501408924,
        "source": "https://www.openstreetmap.org/way/1501408924",
        "retrievedAt": "2026-09-24",
        "stroke": "#f59e0b",
        "stroke-width": 2,
        "stroke-opacity": 0.95,
        "fill": "#f59e0b",
        "fill-opacity": 0.16
      },
      "geometry": {
        "type": "Polygon",
        "coordinates": [
          [
            [
              -66.8584907,
              10.5133198
            ],
            [
              -66.8583646,
              10.5130916
            ],
            [
              -66.8580336,
              10.5126924
            ],
            [
              -66.8577947,
              10.512381
            ],
            [
              -66.8576006,
              10.5120856
            ],
            [
              -66.8574582,
              10.5117055
            ],
            [
              -66.8574098,
              10.5115288
            ],
            [
              -66.8572525,
              10.5111466
            ],
            [
              -66.8569368,
              10.5106444
            ],
            [
              -66.8566394,
              10.5103797
            ],
            [
              -66.8564941,
              10.5099473
            ],
            [
              -66.8564482,
              10.5095814
            ],
            [
              -66.8563823,
              10.5092168
            ],
            [
              -66.856062,
              10.5089614
            ],
            [
              -66.8558227,
              10.5085548
            ],
            [
              -66.8556978,
              10.5083256
            ],
            [
              -66.8556036,
              10.5076297
            ],
            [
              -66.8554971,
              10.5073361
            ],
            [
              -66.8554449,
              10.5069154
            ],
            [
              -66.8553332,
              10.5066414
            ],
            [
              -66.8552228,
              10.5062593
            ],
            [
              -66.8551784,
              10.5060901
            ],
            [
              -66.8551685,
              10.5058412
            ],
            [
              -66.8549859,
              10.5055613
            ],
            [
              -66.8546039,
              10.5052054
            ],
            [
              -66.8543275,
              10.5048501
            ],
            [
              -66.8538779,
              10.5039688
            ],
            [
              -66.8536537,
              10.503713
            ],
            [
              -66.8536034,
              10.5033724
            ],
            [
              -66.853589,
              10.5031123
            ],
            [
              -66.8533591,
              10.5025431
            ],
            [
              -66.8531755,
              10.5023373
            ],
            [
              -66.8526416,
              10.5022493
            ],
            [
              -66.8522179,
              10.5021104
            ],
            [
              -66.8520062,
              10.5018892
            ],
            [
              -66.8517821,
              10.5015002
            ],
            [
              -66.8518467,
              10.5011202
            ],
            [
              -66.851803,
              10.500892
            ],
            [
              -66.8516498,
              10.5006885
            ],
            [
              -66.8511734,
              10.5005483
            ],
            [
              -66.8511334,
              10.5005387
            ],
            [
              -66.851163,
              10.5009886
            ],
            [
              -66.8509389,
              10.5009648
            ],
            [
              -66.8506991,
              10.5009376
            ],
            [
              -66.8503223,
              10.5004602
            ],
            [
              -66.8501463,
              10.5003818
            ],
            [
              -66.8504915,
              10.5002048
            ],
            [
              -66.8505822,
              10.5000478
            ],
            [
              -66.8503708,
              10.4997606
            ],
            [
              -66.850136,
              10.4996388
            ],
            [
              -66.8499801,
              10.4994398
            ],
            [
              -66.8501751,
              10.499315
            ],
            [
              -66.8503548,
              10.4990292
            ],
            [
              -66.8507341,
              10.4987782
            ],
            [
              -66.8509255,
              10.4986093
            ],
            [
              -66.850856,
              10.4982984
            ],
            [
              -66.8506833,
              10.4976873
            ],
            [
              -66.8505857,
              10.4973451
            ],
            [
              -66.8503081,
              10.4966079
            ],
            [
              -66.8502264,
              10.4964105
            ],
            [
              -66.8499287,
              10.4959355
            ],
            [
              -66.849795,
              10.4956496
            ],
            [
              -66.8497217,
              10.4952608
            ],
            [
              -66.8493102,
              10.4953507
            ],
            [
              -66.8492341,
              10.4948819
            ],
            [
              -66.8492137,
              10.4942241
            ],
            [
              -66.8491897,
              10.4934314
            ],
            [
              -66.8487501,
              10.493442
            ],
            [
              -66.8484001,
              10.493448
            ],
            [
              -66.8478272,
              10.493483
            ],
            [
              -66.8478883,
              10.4940765
            ],
            [
              -66.8479996,
              10.4950012
            ],
            [
              -66.8480636,
              10.4954279
            ],
            [
              -66.8480949,
              10.4957065
            ],
            [
              -66.8476333,
              10.4958456
            ],
            [
              -66.8476961,
              10.4958947
            ],
            [
              -66.8477909,
              10.4962368
            ],
            [
              -66.8477435,
              10.4969971
            ],
            [
              -66.8477705,
              10.4976603
            ],
            [
              -66.8478928,
              10.4983769
            ],
            [
              -66.8479447,
              10.4990047
            ],
            [
              -66.8480007,
              10.4995246
            ],
            [
              -66.8477803,
              10.5005182
            ],
            [
              -66.8477016,
              10.5012311
            ],
            [
              -66.8475258,
              10.5020278
            ],
            [
              -66.8475637,
              10.5028145
            ],
            [
              -66.8473531,
              10.5033748
            ],
            [
              -66.8472118,
              10.5037253
            ],
            [
              -66.8470882,
              10.5039984
            ],
            [
              -66.8468231,
              10.5041527
            ],
            [
              -66.8462166,
              10.5044603
            ],
            [
              -66.8460258,
              10.5048334
            ],
            [
              -66.8456322,
              10.505353
            ],
            [
              -66.8452895,
              10.5057821
            ],
            [
              -66.8448945,
              10.5062722
            ],
            [
              -66.8447267,
              10.5068928
            ],
            [
              -66.8445253,
              10.5075939
            ],
            [
              -66.8444547,
              10.507816
            ],
            [
              -66.8448313,
              10.5080363
            ],
            [
              -66.8448802,
              10.5088518
            ],
            [
              -66.8449516,
              10.509691
            ],
            [
              -66.8450005,
              10.5103558
            ],
            [
              -66.8446893,
              10.5106371
            ],
            [
              -66.8442683,
              10.5111745
            ],
            [
              -66.8442366,
              10.5114941
            ],
            [
              -66.8445725,
              10.5121452
            ],
            [
              -66.8448017,
              10.5126129
            ],
            [
              -66.8449502,
              10.5128552
            ],
            [
              -66.8462935,
              10.5128141
            ],
            [
              -66.8472239,
              10.5127162
            ],
            [
              -66.8483264,
              10.5128408
            ],
            [
              -66.8493296,
              10.5129105
            ],
            [
              -66.8497218,
              10.5130986
            ],
            [
              -66.8502493,
              10.5132697
            ],
            [
              -66.8512191,
              10.5132511
            ],
            [
              -66.8522696,
              10.5132874
            ],
            [
              -66.8533103,
              10.5133645
            ],
            [
              -66.8545571,
              10.5131845
            ],
            [
              -66.8560962,
              10.5130869
            ],
            [
              -66.8571789,
              10.5131859
            ],
            [
              -66.8581621,
              10.5133254
            ],
            [
              -66.8584907,
              10.5133198
            ]
          ]
        ]
      }
    },
    {
      "type": "Feature",
      "properties": {
        "name": "Los Palos Grandes",
        "category": "Residential",
        "osmType": "W",
        "osmId": 1499965774,
        "source": "https://www.openstreetmap.org/way/1499965774",
        "retrievedAt": "2026-09-24",
        "stroke": "#0f766e",
        "stroke-width": 2,
        "stroke-opacity": 0.95,
        "fill": "#0f766e",
        "fill-opacity": 0.16
      },
      "geometry": {
        "type": "Polygon",
        "coordinates": [
          [
            [
              -66.8480319,
              10.49946
            ],
            [
              -66.8479567,
              10.4984313
            ],
            [
              -66.847819,
              10.497673
            ],
            [
              -66.8477814,
              10.4968423
            ],
            [
              -66.8477891,
              10.4962752
            ],
            [
              -66.8478828,
              10.4958825
            ],
            [
              -66.8479446,
              10.4957695
            ],
            [
              -66.8453667,
              10.4964466
            ],
            [
              -66.8437131,
              10.4969055
            ],
            [
              -66.843477,
              10.4969899
            ],
            [
              -66.8432593,
              10.4969608
            ],
            [
              -66.8424455,
              10.4972499
            ],
            [
              -66.8423379,
              10.4971718
            ],
            [
              -66.8419975,
              10.4982625
            ],
            [
              -66.8416679,
              10.499323
            ],
            [
              -66.8415992,
              10.5011342
            ],
            [
              -66.8413149,
              10.5026705
            ],
            [
              -66.8412079,
              10.5030544
            ],
            [
              -66.8399043,
              10.5046684
            ],
            [
              -66.839226,
              10.5057063
            ],
            [
              -66.8390393,
              10.5065329
            ],
            [
              -66.8391922,
              10.5074375
            ],
            [
              -66.8387349,
              10.5077948
            ],
            [
              -66.8384734,
              10.5080229
            ],
            [
              -66.8380617,
              10.5080796
            ],
            [
              -66.8378451,
              10.5087185
            ],
            [
              -66.8389064,
              10.5128198
            ],
            [
              -66.8405679,
              10.5130225
            ],
            [
              -66.8425999,
              10.5117085
            ],
            [
              -66.8433516,
              10.5115456
            ],
            [
              -66.8443709,
              10.5125948
            ],
            [
              -66.8449502,
              10.5128552
            ],
            [
              -66.8442845,
              10.5113477
            ],
            [
              -66.8444831,
              10.5108574
            ],
            [
              -66.8450448,
              10.5103505
            ],
            [
              -66.8448473,
              10.5083145
            ],
            [
              -66.8448473,
              10.5079941
            ],
            [
              -66.8444638,
              10.5077845
            ],
            [
              -66.8445253,
              10.5075939
            ],
            [
              -66.8449704,
              10.5062142
            ],
            [
              -66.8453945,
              10.505707
            ],
            [
              -66.8462174,
              10.5045344
            ],
            [
              -66.8468812,
              10.5041327
            ],
            [
              -66.8471184,
              10.5039512
            ],
            [
              -66.8473531,
              10.5033748
            ],
            [
              -66.8475647,
              10.5028551
            ],
            [
              -66.8475637,
              10.5028145
            ],
            [
              -66.8475444,
              10.5020447
            ],
            [
              -66.8476178,
              10.5017101
            ],
            [
              -66.8477016,
              10.5012311
            ],
            [
              -66.8478993,
              10.5001
            ],
            [
              -66.8480319,
              10.49946
            ]
          ]
        ]
      }
    },
    {
      "type": "Feature",
      "properties": {
        "name": "La Castellana",
        "category": "Hip",
        "osmType": "W",
        "osmId": 1501395379,
        "source": "https://www.openstreetmap.org/way/1501395379",
        "retrievedAt": "2026-09-24",
        "stroke": "#f43f5e",
        "stroke-width": 2,
        "stroke-opacity": 0.95,
        "fill": "#f43f5e",
        "fill-opacity": 0.16
      },
      "geometry": {
        "type": "Polygon",
        "coordinates": [
          [
            [
              -66.8620607,
              10.5101103
            ],
            [
              -66.8620044,
              10.5098888
            ],
            [
              -66.8617934,
              10.5097741
            ],
            [
              -66.8614819,
              10.5096281
            ],
            [
              -66.8613245,
              10.5094731
            ],
            [
              -66.861339,
              10.5091
            ],
            [
              -66.8613019,
              10.5087326
            ],
            [
              -66.8608991,
              10.5086253
            ],
            [
              -66.8605608,
              10.5085227
            ],
            [
              -66.8604865,
              10.5082119
            ],
            [
              -66.8604595,
              10.5071794
            ],
            [
              -66.8603874,
              10.5064484
            ],
            [
              -66.8598295,
              10.5064997
            ],
            [
              -66.8595028,
              10.5065467
            ],
            [
              -66.8595247,
              10.5062494
            ],
            [
              -66.8592537,
              10.5063486
            ],
            [
              -66.859102,
              10.5062307
            ],
            [
              -66.8588386,
              10.5062665
            ],
            [
              -66.8586232,
              10.5062958
            ],
            [
              -66.8582685,
              10.5052458
            ],
            [
              -66.8579418,
              10.5042789
            ],
            [
              -66.8581095,
              10.5042749
            ],
            [
              -66.8582845,
              10.5042709
            ],
            [
              -66.8581116,
              10.5039702
            ],
            [
              -66.8580296,
              10.5038335
            ],
            [
              -66.8579567,
              10.5037442
            ],
            [
              -66.8577897,
              10.503349
            ],
            [
              -66.8576649,
              10.5028859
            ],
            [
              -66.8575576,
              10.5025432
            ],
            [
              -66.8575073,
              10.5024446
            ],
            [
              -66.8574728,
              10.5022823
            ],
            [
              -66.8574745,
              10.5020368
            ],
            [
              -66.8576324,
              10.5019995
            ],
            [
              -66.8576753,
              10.5019013
            ],
            [
              -66.8576556,
              10.5017635
            ],
            [
              -66.8576507,
              10.5016345
            ],
            [
              -66.8576664,
              10.5014869
            ],
            [
              -66.8575126,
              10.5015101
            ],
            [
              -66.8575975,
              10.5012033
            ],
            [
              -66.8576302,
              10.5010853
            ],
            [
              -66.8572254,
              10.5009724
            ],
            [
              -66.8570805,
              10.5009721
            ],
            [
              -66.8571954,
              10.5005174
            ],
            [
              -66.8568056,
              10.5003484
            ],
            [
              -66.8566476,
              10.5002799
            ],
            [
              -66.8563351,
              10.5001445
            ],
            [
              -66.8562556,
              10.50011
            ],
            [
              -66.8558891,
              10.5001079
            ],
            [
              -66.8558095,
              10.5001074
            ],
            [
              -66.8556954,
              10.4997919
            ],
            [
              -66.8555736,
              10.4993974
            ],
            [
              -66.8555101,
              10.4991947
            ],
            [
              -66.8554301,
              10.498943
            ],
            [
              -66.8553826,
              10.4987467
            ],
            [
              -66.8553145,
              10.4983633
            ],
            [
              -66.8552219,
              10.4978137
            ],
            [
              -66.8551458,
              10.4972423
            ],
            [
              -66.8550973,
              10.4968945
            ],
            [
              -66.8546551,
              10.496906
            ],
            [
              -66.8539887,
              10.4969433
            ],
            [
              -66.8537606,
              10.4969751
            ],
            [
              -66.8537242,
              10.4966204
            ],
            [
              -66.8537046,
              10.4964433
            ],
            [
              -66.8534272,
              10.4964365
            ],
            [
              -66.8532308,
              10.4964389
            ],
            [
              -66.8527679,
              10.4964523
            ],
            [
              -66.8525717,
              10.4964592
            ],
            [
              -66.8523135,
              10.4964583
            ],
            [
              -66.852276,
              10.4962461
            ],
            [
              -66.8522182,
              10.4962013
            ],
            [
              -66.8522284,
              10.4960953
            ],
            [
              -66.8522669,
              10.4958342
            ],
            [
              -66.8522499,
              10.4955935
            ],
            [
              -66.8522314,
              10.4953797
            ],
            [
              -66.8522149,
              10.4949516
            ],
            [
              -66.8524212,
              10.49487
            ],
            [
              -66.8523283,
              10.4943984
            ],
            [
              -66.852323,
              10.4942847
            ],
            [
              -66.8522778,
              10.4942189
            ],
            [
              -66.8517229,
              10.4945384
            ],
            [
              -66.8514086,
              10.494698
            ],
            [
              -66.8509142,
              10.4949114
            ],
            [
              -66.8505229,
              10.4950358
            ],
            [
              -66.8499106,
              10.4951627
            ],
            [
              -66.8497094,
              10.4952251
            ],
            [
              -66.8497972,
              10.4955278
            ],
            [
              -66.8499522,
              10.4958786
            ],
            [
              -66.8501076,
              10.4962821
            ],
            [
              -66.8502613,
              10.4964116
            ],
            [
              -66.8504081,
              10.4967846
            ],
            [
              -66.8506044,
              10.4973382
            ],
            [
              -66.8508613,
              10.4981834
            ],
            [
              -66.8509952,
              10.4986439
            ],
            [
              -66.8504055,
              10.4990367
            ],
            [
              -66.8502878,
              10.4992641
            ],
            [
              -66.8500367,
              10.499444
            ],
            [
              -66.8501895,
              10.4996263
            ],
            [
              -66.8503627,
              10.4997099
            ],
            [
              -66.8505426,
              10.4998957
            ],
            [
              -66.8506011,
              10.5000131
            ],
            [
              -66.850611,
              10.5001614
            ],
            [
              -66.85043,
              10.5002777
            ],
            [
              -66.8501901,
              10.5003986
            ],
            [
              -66.8503591,
              10.5004608
            ],
            [
              -66.8505053,
              10.5006248
            ],
            [
              -66.8506955,
              10.5009109
            ],
            [
              -66.8511145,
              10.5009665
            ],
            [
              -66.8510757,
              10.5004821
            ],
            [
              -66.8512405,
              10.5005499
            ],
            [
              -66.8515913,
              10.5006477
            ],
            [
              -66.8517811,
              10.5007764
            ],
            [
              -66.8518759,
              10.5010106
            ],
            [
              -66.8518988,
              10.5012048
            ],
            [
              -66.8517811,
              10.5014384
            ],
            [
              -66.8519546,
              10.5017847
            ],
            [
              -66.8521435,
              10.5020057
            ],
            [
              -66.8523939,
              10.5021835
            ],
            [
              -66.8528423,
              10.5022616
            ],
            [
              -66.8530905,
              10.5022668
            ],
            [
              -66.8533688,
              10.5025128
            ],
            [
              -66.853599,
              10.5030373
            ],
            [
              -66.853709,
              10.5037238
            ],
            [
              -66.8538589,
              10.5039305
            ],
            [
              -66.8538779,
              10.5039688
            ],
            [
              -66.8540699,
              10.5043561
            ],
            [
              -66.8543874,
              10.504873
            ],
            [
              -66.8547211,
              10.5053045
            ],
            [
              -66.8550406,
              10.5056125
            ],
            [
              -66.8552231,
              10.5058777
            ],
            [
              -66.8552086,
              10.5060942
            ],
            [
              -66.85534,
              10.5065143
            ],
            [
              -66.855475,
              10.5069075
            ],
            [
              -66.85553,
              10.507101
            ],
            [
              -66.8555224,
              10.507341
            ],
            [
              -66.8556632,
              10.5077217
            ],
            [
              -66.8556894,
              10.5080625
            ],
            [
              -66.8557585,
              10.5084105
            ],
            [
              -66.8560227,
              10.5088804
            ],
            [
              -66.8562283,
              10.5090508
            ],
            [
              -66.8563823,
              10.5092168
            ],
            [
              -66.8564053,
              10.5092416
            ],
            [
              -66.8565041,
              10.509737
            ],
            [
              -66.856528,
              10.5100269
            ],
            [
              -66.8566222,
              10.5103303
            ],
            [
              -66.8568918,
              10.5105792
            ],
            [
              -66.8569688,
              10.5106504
            ],
            [
              -66.8570902,
              10.5107624
            ],
            [
              -66.8573113,
              10.5112153
            ],
            [
              -66.8575212,
              10.5117571
            ],
            [
              -66.8576039,
              10.5121037
            ],
            [
              -66.8585338,
              10.5132864
            ],
            [
              -66.8588904,
              10.513354
            ],
            [
              -66.8591974,
              10.513416
            ],
            [
              -66.859637,
              10.5135935
            ],
            [
              -66.8601521,
              10.5134106
            ],
            [
              -66.8604086,
              10.5133563
            ],
            [
              -66.8609357,
              10.5132982
            ],
            [
              -66.861153,
              10.5133166
            ],
            [
              -66.861468,
              10.513362
            ],
            [
              -66.8614011,
              10.5124332
            ],
            [
              -66.8615954,
              10.5121001
            ],
            [
              -66.8616215,
              10.5117866
            ],
            [
              -66.8616742,
              10.5114448
            ],
            [
              -66.861788,
              10.511214
            ],
            [
              -66.8617816,
              10.5107854
            ],
            [
              -66.861808,
              10.510489
            ],
            [
              -66.8620607,
              10.5101103
            ]
          ]
        ]
      }
    }
  ]
}
