{
  "type": "FeatureCollection",
  "features": [
    {
      "type": "Feature",
      "properties": {
        "name": "Getsemaní",
        "category": "Residential",
        "osmType": "relation",
        "osmId": 19139197,
        "stroke": "#0f766e",
        "stroke-width": 2,
        "stroke-opacity": 0.95,
        "fill": "#0f766e",
        "fill-opacity": 0.16
      },
      "geometry": {
        "type": "Polygon",
        "coordinates": [
          [
            [
              -75.5497927,
              10.4207143
            ],
            [
              -75.5479739,
              10.4190814
            ],
            [
              -75.5479394,
              10.4186022
            ],
            [
              -75.5471955,
              10.4184167
            ],
            [
              -75.5452883,
              10.4171973
            ],
            [
              -75.5451216,
              10.4175027
            ],
            [
              -75.5452513,
              10.4176219
            ],
            [
              -75.544207,
              10.4193239
            ],
            [
              -75.5438017,
              10.419606
            ],
            [
              -75.5436723,
              10.4219248
            ],
            [
              -75.543351,
              10.4223257
            ],
            [
              -75.5426009,
              10.4223652
            ],
            [
              -75.5425545,
              10.423014
            ],
            [
              -75.5431286,
              10.4231463
            ],
            [
              -75.5435532,
              10.4236574
            ],
            [
              -75.543788,
              10.4245318
            ],
            [
              -75.5443295,
              10.4244873
            ],
            [
              -75.5483366,
              10.4229383
            ],
            [
              -75.5484519,
              10.4225867
            ],
            [
              -75.5476689,
              10.4219213
            ],
            [
              -75.5478774,
              10.42168
            ],
            [
              -75.5483769,
              10.4221286
            ],
            [
              -75.5485509,
              10.4219463
            ],
            [
              -75.5497927,
              10.4207143
            ]
          ]
        ]
      }
    },
    {
      "type": "Feature",
      "properties": {
        "name": "Bocagrande",
        "category": "Hip",
        "osmType": "relation",
        "osmId": 1643328,
        "stroke": "#f43f5e",
        "stroke-width": 2,
        "stroke-opacity": 0.95,
        "fill": "#f43f5e",
        "fill-opacity": 0.16
      },
      "geometry": {
        "type": "Polygon",
        "coordinates": [
          [
            [
              -75.5621933,
              10.4011846
            ],
            [
              -75.5614163,
              10.4001652
            ],
            [
              -75.561674,
              10.399768
            ],
            [
              -75.5600116,
              10.3975544
            ],
            [
              -75.5582904,
              10.3956787
            ],
            [
              -75.555516,
              10.3977642
            ],
            [
              -75.5533388,
              10.3997991
            ],
            [
              -75.5528398,
              10.4004909
            ],
            [
              -75.5527663,
              10.4017508
            ],
            [
              -75.5510419,
              10.4058478
            ],
            [
              -75.5502912,
              10.4065033
            ],
            [
              -75.5496001,
              10.4076372
            ],
            [
              -75.5483343,
              10.4106313
            ],
            [
              -75.5481492,
              10.4105671
            ],
            [
              -75.5480063,
              10.4108852
            ],
            [
              -75.5477568,
              10.410795
            ],
            [
              -75.5479166,
              10.410458
            ],
            [
              -75.5477026,
              10.4108023
            ],
            [
              -75.547647,
              10.4105367
            ],
            [
              -75.5474797,
              10.4107221
            ],
            [
              -75.5475034,
              10.4104669
            ],
            [
              -75.5471729,
              10.4111315
            ],
            [
              -75.546948,
              10.4110989
            ],
            [
              -75.5467734,
              10.411004
            ],
            [
              -75.5470331,
              10.4102221
            ],
            [
              -75.5463561,
              10.4122122
            ],
            [
              -75.5460597,
              10.4119323
            ],
            [
              -75.5461753,
              10.4114696
            ],
            [
              -75.5460219,
              10.4114216
            ],
            [
              -75.5459058,
              10.4119738
            ],
            [
              -75.5466044,
              10.413071
            ],
            [
              -75.5473274,
              10.4130263
            ],
            [
              -75.5480268,
              10.4124673
            ],
            [
              -75.5487751,
              10.4133393
            ],
            [
              -75.548002,
              10.4139222
            ],
            [
              -75.547524,
              10.4134237
            ],
            [
              -75.5470873,
              10.4137588
            ],
            [
              -75.5477486,
              10.4148292
            ],
            [
              -75.5485185,
              10.4153858
            ],
            [
              -75.5486454,
              10.4158464
            ],
            [
              -75.5488509,
              10.4157601
            ],
            [
              -75.5493948,
              10.4163563
            ],
            [
              -75.5516035,
              10.4155283
            ],
            [
              -75.5514079,
              10.4146371
            ],
            [
              -75.5518059,
              10.4116955
            ],
            [
              -75.5532839,
              10.4119046
            ],
            [
              -75.5534616,
              10.4115447
            ],
            [
              -75.553193,
              10.4117334
            ],
            [
              -75.5523935,
              10.4115002
            ],
            [
              -75.5522108,
              10.4107364
            ],
            [
              -75.5524277,
              10.4097607
            ],
            [
              -75.5537748,
              10.4082069
            ],
            [
              -75.5546246,
              10.4087091
            ],
            [
              -75.5536723,
              10.407993
            ],
            [
              -75.5542169,
              10.4069909
            ],
            [
              -75.5554971,
              10.4055628
            ],
            [
              -75.5563901,
              10.4049415
            ],
            [
              -75.5573298,
              10.4056435
            ],
            [
              -75.5561706,
              10.4046348
            ],
            [
              -75.5565706,
              10.4037377
            ],
            [
              -75.5585835,
              10.4020058
            ],
            [
              -75.5595513,
              10.4029763
            ],
            [
              -75.5588193,
              10.402102
            ],
            [
              -75.5591004,
              10.401547
            ],
            [
              -75.5595799,
              10.4009834
            ],
            [
              -75.5610881,
              10.3999458
            ],
            [
              -75.5621905,
              10.4012168
            ],
            [
              -75.5621933,
              10.4011846
            ]
          ]
        ]
      }
    }
  ]
}
