{
  "type": "FeatureCollection",
  "features": [
    {
      "type": "Feature",
      "properties": {
        "name": "La Victoria",
        "category": "Residential",
        "osmType": "relation",
        "osmId": 1969737,
        "stroke": "#0f766e",
        "stroke-width": 2,
        "stroke-opacity": 0.95,
        "fill": "#0f766e",
        "fill-opacity": 0.16
      },
      "geometry": {
        "type": "Polygon",
        "coordinates": [
          [
            [
              -79.911377,
              -6.8503125
            ],
            [
              -79.9064746,
              -6.8530937
            ],
            [
              -79.905373,
              -6.8542676
            ],
            [
              -79.9045371,
              -6.853668
            ],
            [
              -79.9020039,
              -6.8502402
            ],
            [
              -79.9009316,
              -6.8491972
            ],
            [
              -79.8980351,
              -6.8487285
            ],
            [
              -79.8963105,
              -6.8497441
            ],
            [
              -79.891543,
              -6.8505547
            ],
            [
              -79.8900215,
              -6.8512656
            ],
            [
              -79.8879922,
              -6.8510625
            ],
            [
              -79.8863691,
              -6.8519766
            ],
            [
              -79.8840351,
              -6.8513672
            ],
            [
              -79.882209,
              -6.8514687
            ],
            [
              -79.8809902,
              -6.8511641
            ],
            [
              -79.8804844,
              -6.8505547
            ],
            [
              -79.8776426,
              -6.8498457
            ],
            [
              -79.8753086,
              -6.8501503
            ],
            [
              -79.8740917,
              -6.8497441
            ],
            [
              -79.8734824,
              -6.847207
            ],
            [
              -79.8726717,
              -6.8470038
            ],
            [
              -79.8714551,
              -6.8471055
            ],
            [
              -79.8708457,
              -6.8460918
            ],
            [
              -79.8695274,
              -6.8452793
            ],
            [
              -79.8672949,
              -6.8451777
            ],
            [
              -79.8596855,
              -6.8438593
            ],
            [
              -79.8570469,
              -6.8438593
            ],
            [
              -79.8557284,
              -6.8440625
            ],
            [
              -79.8539024,
              -6.8434531
            ],
            [
              -79.852584,
              -6.8436562
            ],
            [
              -79.8513652,
              -6.8430468
            ],
            [
              -79.8497422,
              -6.8428457
            ],
            [
              -79.845582,
              -6.8442656
            ],
            [
              -79.842336,
              -6.8420332
            ],
            [
              -79.8359434,
              -6.8426426
            ],
            [
              -79.8257989,
              -6.8429473
            ],
            [
              -79.8253926,
              -6.8424393
            ],
            [
              -79.8256972,
              -6.8400038
            ],
            [
              -79.8253926,
              -6.8377715
            ],
            [
              -79.8253926,
              -6.8337128
            ],
            [
              -79.8257989,
              -6.8314825
            ],
            [
              -79.8253926,
              -6.8249883
            ],
            [
              -79.8253926,
              -6.819916
            ],
            [
              -79.824582,
              -6.8140313
            ],
            [
              -79.824582,
              -6.8119003
            ],
            [
              -79.8293617,
              -6.8104528
            ],
            [
              -79.82932,
              -6.8038553
            ],
            [
              -79.8335694,
              -6.7842669
            ],
            [
              -79.84385,
              -6.7877805
            ],
            [
              -79.8480604,
              -6.7895739
            ],
            [
              -79.8509667,
              -6.7899375
            ],
            [
              -79.8515371,
              -6.7906992
            ],
            [
              -79.8526777,
              -6.7912695
            ],
            [
              -79.8533437,
              -6.793457
            ],
            [
              -79.8537246,
              -6.7955507
            ],
            [
              -79.8536289,
              -6.7990703
            ],
            [
              -79.8541055,
              -6.8005918
            ],
            [
              -79.8561015,
              -6.8017325
            ],
            [
              -79.8579101,
              -6.8018281
            ],
            [
              -79.8585761,
              -6.8023027
            ],
            [
              -79.8609531,
              -6.8025878
            ],
            [
              -79.863332,
              -6.8031601
            ],
            [
              -79.8649474,
              -6.8021131
            ],
            [
              -79.8686582,
              -6.8024941
            ],
            [
              -79.870084,
              -6.802209
            ],
            [
              -79.8717011,
              -6.8012578
            ],
            [
              -79.8733184,
              -6.8009726
            ],
            [
              -79.8752207,
              -6.8011621
            ],
            [
              -79.8762226,
              -6.801957
            ],
            [
              -79.8763242,
              -6.8041895
            ],
            [
              -79.8761777,
              -6.8062051
            ],
            [
              -79.8764101,
              -6.8103945
            ],
            [
              -79.8765957,
              -6.8110468
            ],
            [
              -79.878127,
              -6.8120312
            ],
            [
              -79.8814844,
              -6.8127227
            ],
            [
              -79.8904862,
              -6.8175178
            ],
            [
              -79.8944297,
              -6.8202656
            ],
            [
              -79.910951,
              -6.849656
            ],
            [
              -79.911377,
              -6.8503125
            ]
          ]
        ]
      }
    },
    {
      "type": "Feature",
      "properties": {
        "name": "Monsefu",
        "category": "Hip",
        "osmType": "relation",
        "osmId": 1969742,
        "stroke": "#f43f5e",
        "stroke-width": 2,
        "stroke-opacity": 0.95,
        "fill": "#f43f5e",
        "fill-opacity": 0.16
      },
      "geometry": {
        "type": "Polygon",
        "coordinates": [
          [
            [
              -79.9077465,
              -6.8774787
            ],
            [
              -79.9073321,
              -6.8781797
            ],
            [
              -79.9023906,
              -6.8839902
            ],
            [
              -79.8949824,
              -6.8914395
            ],
            [
              -79.892168,
              -6.8945294
            ],
            [
              -79.8821797,
              -6.9045039
            ],
            [
              -79.8792754,
              -6.9071231
            ],
            [
              -79.8775176,
              -6.9084277
            ],
            [
              -79.8762187,
              -6.9050294
            ],
            [
              -79.8769031,
              -6.9030706
            ],
            [
              -79.8769404,
              -6.9002451
            ],
            [
              -79.87547,
              -6.8990041
            ],
            [
              -79.8735807,
              -6.8983526
            ],
            [
              -79.8718217,
              -6.8981572
            ],
            [
              -79.868893,
              -6.8988752
            ],
            [
              -79.8671615,
              -6.9002759
            ],
            [
              -79.8630922,
              -6.9005676
            ],
            [
              -79.8603561,
              -6.899395
            ],
            [
              -79.858011,
              -6.8980269
            ],
            [
              -79.8527749,
              -6.8963419
            ],
            [
              -79.8472264,
              -6.8911657
            ],
            [
              -79.8461087,
              -6.8889894
            ],
            [
              -79.8450109,
              -6.8862446
            ],
            [
              -79.8447617,
              -6.8821016
            ],
            [
              -79.8437364,
              -6.8782649
            ],
            [
              -79.8426385,
              -6.8766767
            ],
            [
              -79.8379967,
              -6.8721109
            ],
            [
              -79.8351357,
              -6.8685572
            ],
            [
              -79.8341521,
              -6.8659874
            ],
            [
              -79.831773,
              -6.862474
            ],
            [
              -79.8290425,
              -6.8591011
            ],
            [
              -79.8271051,
              -6.8556177
            ],
            [
              -79.8249266,
              -6.8534196
            ],
            [
              -79.8240225,
              -6.8520871
            ],
            [
              -79.8230469,
              -6.8513018
            ],
            [
              -79.8193111,
              -6.8511352
            ],
            [
              -79.8156944,
              -6.8489462
            ],
            [
              -79.8134339,
              -6.8489223
            ],
            [
              -79.8123155,
              -6.8493982
            ],
            [
              -79.8111792,
              -6.8495255
            ],
            [
              -79.8060337,
              -6.8478516
            ],
            [
              -79.8034401,
              -6.8455911
            ],
            [
              -79.8019649,
              -6.8422361
            ],
            [
              -79.7990602,
              -6.8380771
            ],
            [
              -79.7947739,
              -6.8344833
            ],
            [
              -79.7923245,
              -6.8343026
            ],
            [
              -79.7918627,
              -6.8344833
            ],
            [
              -79.7909894,
              -6.8353667
            ],
            [
              -79.7900357,
              -6.8354872
            ],
            [
              -79.7897045,
              -6.8352161
            ],
            [
              -79.7892829,
              -6.834122
            ],
            [
              -79.7885802,
              -6.8307491
            ],
            [
              -79.7879677,
              -6.8292835
            ],
            [
              -79.786964,
              -6.8276973
            ],
            [
              -79.7860002,
              -6.8268642
            ],
            [
              -79.7848861,
              -6.8263623
            ],
            [
              -79.7823564,
              -6.8247361
            ],
            [
              -79.7817266,
              -6.8246913
            ],
            [
              -79.776233,
              -6.8263422
            ],
            [
              -79.7749381,
              -6.826543
            ],
            [
              -79.7704255,
              -6.8266733
            ],
            [
              -79.770793,
              -6.8259825
            ],
            [
              -79.7725332,
              -6.8240762
            ],
            [
              -79.7743594,
              -6.8232637
            ],
            [
              -79.7754766,
              -6.8218437
            ],
            [
              -79.7801426,
              -6.8212343
            ],
            [
              -79.7819689,
              -6.8200175
            ],
            [
              -79.7831875,
              -6.8200175
            ],
            [
              -79.7843027,
              -6.8208281
            ],
            [
              -79.786332,
              -6.822959
            ],
            [
              -79.7891739,
              -6.8267128
            ],
            [
              -79.7903906,
              -6.8277285
            ],
            [
              -79.7919121,
              -6.8280312
            ],
            [
              -79.7930274,
              -6.8286406
            ],
            [
              -79.7949551,
              -6.8285391
            ],
            [
              -79.7958691,
              -6.8288437
            ],
            [
              -79.7968829,
              -6.8285391
            ],
            [
              -79.7984062,
              -6.8289453
            ],
            [
              -79.8012461,
              -6.8290468
            ],
            [
              -79.801957,
              -6.8305683
            ],
            [
              -79.8031739,
              -6.8310762
            ],
            [
              -79.8065215,
              -6.8318867
            ],
            [
              -79.8162617,
              -6.8318867
            ],
            [
              -79.8167695,
              -6.8314825
            ],
            [
              -79.824582,
              -6.8318867
            ],
            [
              -79.8255957,
              -6.8325976
            ],
            [
              -79.8253926,
              -6.8337128
            ],
            [
              -79.8253926,
              -6.8377715
            ],
            [
              -79.8256972,
              -6.8400038
            ],
            [
              -79.8253926,
              -6.8424393
            ],
            [
              -79.8257989,
              -6.8429473
            ],
            [
              -79.8359434,
              -6.8426426
            ],
            [
              -79.842336,
              -6.8420332
            ],
            [
              -79.845582,
              -6.8442656
            ],
            [
              -79.8497422,
              -6.8428457
            ],
            [
              -79.8513652,
              -6.8430468
            ],
            [
              -79.852584,
              -6.8436562
            ],
            [
              -79.8539024,
              -6.8434531
            ],
            [
              -79.8557284,
              -6.8440625
            ],
            [
              -79.8570469,
              -6.8438593
            ],
            [
              -79.8596855,
              -6.8438593
            ],
            [
              -79.8672949,
              -6.8451777
            ],
            [
              -79.8695274,
              -6.8452793
            ],
            [
              -79.8708457,
              -6.8460918
            ],
            [
              -79.8714551,
              -6.8471055
            ],
            [
              -79.8726717,
              -6.8470038
            ],
            [
              -79.8734824,
              -6.847207
            ],
            [
              -79.8740917,
              -6.8497441
            ],
            [
              -79.8753086,
              -6.8501503
            ],
            [
              -79.8776426,
              -6.8498457
            ],
            [
              -79.8804844,
              -6.8505547
            ],
            [
              -79.8809902,
              -6.8511641
            ],
            [
              -79.882209,
              -6.8514687
            ],
            [
              -79.8830679,
              -6.851421
            ],
            [
              -79.882315,
              -6.8533857
            ],
            [
              -79.88291,
              -6.8551705
            ],
            [
              -79.8846946,
              -6.8577731
            ],
            [
              -79.8863305,
              -6.858368
            ],
            [
              -79.8871485,
              -6.8577731
            ],
            [
              -79.8878921,
              -6.8565833
            ],
            [
              -79.8887845,
              -6.8542037
            ],
            [
              -79.8896025,
              -6.8536088
            ],
            [
              -79.8908665,
              -6.8536832
            ],
            [
              -79.8916845,
              -6.8542781
            ],
            [
              -79.8927441,
              -6.8570566
            ],
            [
              -79.8936094,
              -6.8575253
            ],
            [
              -79.8952364,
              -6.8576523
            ],
            [
              -79.896586,
              -6.8581972
            ],
            [
              -79.8989707,
              -6.8609766
            ],
            [
              -79.8993926,
              -6.8618828
            ],
            [
              -79.9002715,
              -6.8627031
            ],
            [
              -79.9035822,
              -6.8679605
            ],
            [
              -79.9073004,
              -6.8762146
            ],
            [
              -79.9077465,
              -6.8774787
            ]
          ]
        ]
      }
    }
  ]
}
