{
  "type": "FeatureCollection",
  "features": [
    {
      "type": "Feature",
      "properties": {
        "name": "Nuevo Chimbote",
        "category": "Residential",
        "osmType": "relation",
        "osmId": 1953300,
        "stroke": "#0f766e",
        "stroke-width": 2,
        "stroke-opacity": 0.95,
        "fill": "#0f766e",
        "fill-opacity": 0.16
      },
      "geometry": {
        "type": "Polygon",
        "coordinates": [
          [
            [
              -78.6108457,
              -9.1610274
            ],
            [
              -78.6105156,
              -9.1628965
            ],
            [
              -78.609793,
              -9.1635704
            ],
            [
              -78.6074981,
              -9.1640332
            ],
            [
              -78.6066191,
              -9.1634336
            ],
            [
              -78.6064629,
              -9.163666
            ],
            [
              -78.6065292,
              -9.1645059
            ],
            [
              -78.6070039,
              -9.1656231
            ],
            [
              -78.6069687,
              -9.1658222
            ],
            [
              -78.6062812,
              -9.1662226
            ],
            [
              -78.6074336,
              -9.1681797
            ],
            [
              -78.6077051,
              -9.169457
            ],
            [
              -78.6073027,
              -9.1700059
            ],
            [
              -78.6065371,
              -9.1701992
            ],
            [
              -78.6055684,
              -9.170836
            ],
            [
              -78.6054844,
              -9.1711972
            ],
            [
              -78.607916,
              -9.1733985
            ],
            [
              -78.6081582,
              -9.173961
            ],
            [
              -78.6091934,
              -9.1743301
            ],
            [
              -78.6101797,
              -9.1759257
            ],
            [
              -78.6100254,
              -9.1764414
            ],
            [
              -78.6096582,
              -9.1768809
            ],
            [
              -78.6090547,
              -9.1771582
            ],
            [
              -78.608293,
              -9.1769902
            ],
            [
              -78.6078614,
              -9.1762285
            ],
            [
              -78.606461,
              -9.1749082
            ],
            [
              -78.6051367,
              -9.1742031
            ],
            [
              -78.604918,
              -9.1742461
            ],
            [
              -78.6053945,
              -9.1752325
            ],
            [
              -78.6052597,
              -9.1760937
            ],
            [
              -78.6049042,
              -9.1762989
            ],
            [
              -78.6045489,
              -9.1761329
            ],
            [
              -78.6038847,
              -9.1753164
            ],
            [
              -78.6034024,
              -9.1751757
            ],
            [
              -78.603082,
              -9.1754375
            ],
            [
              -78.6032149,
              -9.1765039
            ],
            [
              -78.6029902,
              -9.1771445
            ],
            [
              -78.6025957,
              -9.1774669
            ],
            [
              -78.6025566,
              -9.1780274
            ],
            [
              -78.6020704,
              -9.1786211
            ],
            [
              -78.6008632,
              -9.1794531
            ],
            [
              -78.6008145,
              -9.180131
            ],
            [
              -78.6013281,
              -9.1807305
            ],
            [
              -78.6020117,
              -9.1806172
            ],
            [
              -78.6024922,
              -9.1807735
            ],
            [
              -78.6031329,
              -9.181502
            ],
            [
              -78.6026094,
              -9.1821309
            ],
            [
              -78.601248,
              -9.1819217
            ],
            [
              -78.6010449,
              -9.1822031
            ],
            [
              -78.600959,
              -9.1828419
            ],
            [
              -78.6005079,
              -9.1837891
            ],
            [
              -78.6014649,
              -9.184752
            ],
            [
              -78.6011385,
              -9.1859882
            ],
            [
              -78.6005742,
              -9.1861387
            ],
            [
              -78.6000586,
              -9.1857382
            ],
            [
              -78.5979315,
              -9.1852891
            ],
            [
              -78.5976132,
              -9.1854864
            ],
            [
              -78.5974082,
              -9.1862794
            ],
            [
              -78.5976855,
              -9.186959
            ],
            [
              -78.5968535,
              -9.1877325
            ],
            [
              -78.5958301,
              -9.1881406
            ],
            [
              -78.5947285,
              -9.191125
            ],
            [
              -78.5947226,
              -9.1918027
            ],
            [
              -78.5945235,
              -9.1918829
            ],
            [
              -78.5941172,
              -9.192793
            ],
            [
              -78.5935879,
              -9.1928691
            ],
            [
              -78.5933086,
              -9.1926329
            ],
            [
              -78.592916,
              -9.1913476
            ],
            [
              -78.5921641,
              -9.1909454
            ],
            [
              -78.5918809,
              -9.1911055
            ],
            [
              -78.5915977,
              -9.1914649
            ],
            [
              -78.5912676,
              -9.1927735
            ],
            [
              -78.5906562,
              -9.1932481
            ],
            [
              -78.5900117,
              -9.1945176
            ],
            [
              -78.5901699,
              -9.1952422
            ],
            [
              -78.5900039,
              -9.1956757
            ],
            [
              -78.589002,
              -9.1958672
            ],
            [
              -78.5881231,
              -9.1953457
            ],
            [
              -78.5866757,
              -9.1956172
            ],
            [
              -78.5847579,
              -9.1944004
            ],
            [
              -78.5846536,
              -9.1940287
            ],
            [
              -78.5842069,
              -9.1936618
            ],
            [
              -78.5843074,
              -9.1942219
            ],
            [
              -78.5838442,
              -9.1938867
            ],
            [
              -78.5838884,
              -9.1941611
            ],
            [
              -78.5833474,
              -9.1938976
            ],
            [
              -78.5831378,
              -9.1942396
            ],
            [
              -78.5828833,
              -9.1941676
            ],
            [
              -78.5832282,
              -9.1944747
            ],
            [
              -78.5833744,
              -9.1951777
            ],
            [
              -78.5818078,
              -9.1941835
            ],
            [
              -78.5817498,
              -9.1943624
            ],
            [
              -78.5823773,
              -9.1946783
            ],
            [
              -78.5834702,
              -9.1959156
            ],
            [
              -78.5828054,
              -9.1961312
            ],
            [
              -78.5823009,
              -9.1956763
            ],
            [
              -78.5826848,
              -9.1963229
            ],
            [
              -78.582369,
              -9.1963819
            ],
            [
              -78.5830437,
              -9.1974415
            ],
            [
              -78.5827055,
              -9.1974981
            ],
            [
              -78.5822299,
              -9.1970648
            ],
            [
              -78.5808217,
              -9.1968327
            ],
            [
              -78.5811762,
              -9.1962292
            ],
            [
              -78.5810199,
              -9.1960342
            ],
            [
              -78.5805085,
              -9.1960902
            ],
            [
              -78.580387,
              -9.1957429
            ],
            [
              -78.5806609,
              -9.195543
            ],
            [
              -78.5807728,
              -9.1946348
            ],
            [
              -78.5797599,
              -9.1937513
            ],
            [
              -78.57845,
              -9.1937284
            ],
            [
              -78.5768,
              -9.1947052
            ],
            [
              -78.576462,
              -9.1954102
            ],
            [
              -78.576437,
              -9.196058
            ],
            [
              -78.5771789,
              -9.1974958
            ],
            [
              -78.5780765,
              -9.198546
            ],
            [
              -78.5783772,
              -9.1985622
            ],
            [
              -78.5784669,
              -9.1983791
            ],
            [
              -78.5791305,
              -9.1985948
            ],
            [
              -78.5793465,
              -9.1988215
            ],
            [
              -78.5792623,
              -9.1989705
            ],
            [
              -78.5797304,
              -9.1990118
            ],
            [
              -78.5796071,
              -9.1994895
            ],
            [
              -78.5799877,
              -9.1993448
            ],
            [
              -78.5803584,
              -9.1996153
            ],
            [
              -78.5801822,
              -9.1999578
            ],
            [
              -78.5805501,
              -9.199789
            ],
            [
              -78.5808272,
              -9.2005107
            ],
            [
              -78.5812417,
              -9.2005663
            ],
            [
              -78.5811595,
              -9.2001956
            ],
            [
              -78.5813367,
              -9.1999092
            ],
            [
              -78.583082,
              -9.2011601
            ],
            [
              -78.5837733,
              -9.202026
            ],
            [
              -78.5839291,
              -9.202589
            ],
            [
              -78.5837669,
              -9.2034454
            ],
            [
              -78.5832518,
              -9.2032022
            ],
            [
              -78.5823362,
              -9.2023404
            ],
            [
              -78.5820513,
              -9.2013804
            ],
            [
              -78.5815853,
              -9.2010082
            ],
            [
              -78.5813495,
              -9.2014483
            ],
            [
              -78.5817763,
              -9.2019862
            ],
            [
              -78.5817772,
              -9.2022494
            ],
            [
              -78.5815301,
              -9.2021329
            ],
            [
              -78.5815639,
              -9.2023343
            ],
            [
              -78.58141,
              -9.2023677
            ],
            [
              -78.5811185,
              -9.2020227
            ],
            [
              -78.5810991,
              -9.2022403
            ],
            [
              -78.5813399,
              -9.2027686
            ],
            [
              -78.5813184,
              -9.2032868
            ],
            [
              -78.5811627,
              -9.2033034
            ],
            [
              -78.5814019,
              -9.2042148
            ],
            [
              -78.5812267,
              -9.2045152
            ],
            [
              -78.5807208,
              -9.2046176
            ],
            [
              -78.5805915,
              -9.2048362
            ],
            [
              -78.5810351,
              -9.2053027
            ],
            [
              -78.5810368,
              -9.2057716
            ],
            [
              -78.5798907,
              -9.2066495
            ],
            [
              -78.5798171,
              -9.2069984
            ],
            [
              -78.5791133,
              -9.2064549
            ],
            [
              -78.5784666,
              -9.2066289
            ],
            [
              -78.5775663,
              -9.2058769
            ],
            [
              -78.5767536,
              -9.2046483
            ],
            [
              -78.5757497,
              -9.2049709
            ],
            [
              -78.5755993,
              -9.2054982
            ],
            [
              -78.5753592,
              -9.2053654
            ],
            [
              -78.5750716,
              -9.2056015
            ],
            [
              -78.5748554,
              -9.2060727
            ],
            [
              -78.5755922,
              -9.207032
            ],
            [
              -78.5755028,
              -9.207964
            ],
            [
              -78.5763788,
              -9.2086024
            ],
            [
              -78.5763428,
              -9.2089837
            ],
            [
              -78.5767539,
              -9.2100547
            ],
            [
              -78.576752,
              -9.2104531
            ],
            [
              -78.5760957,
              -9.212039
            ],
            [
              -78.5764902,
              -9.212836
            ],
            [
              -78.5762011,
              -9.213793
            ],
            [
              -78.5755976,
              -9.2140684
            ],
            [
              -78.5754414,
              -9.214627
            ],
            [
              -78.5746074,
              -9.2155527
            ],
            [
              -78.5741055,
              -9.2156132
            ],
            [
              -78.5735449,
              -9.215293
            ],
            [
              -78.5727032,
              -9.2158829
            ],
            [
              -78.5717735,
              -9.2161934
            ],
            [
              -78.5705254,
              -9.2177402
            ],
            [
              -78.5695195,
              -9.2172891
            ],
            [
              -78.5684822,
              -9.217209
            ],
            [
              -78.568086,
              -9.2166114
            ],
            [
              -78.5676855,
              -9.2166544
            ],
            [
              -78.5679511,
              -9.2177207
            ],
            [
              -78.5676719,
              -9.218877
            ],
            [
              -78.5681562,
              -9.2198204
            ],
            [
              -78.5681934,
              -9.2209316
            ],
            [
              -78.5695312,
              -9.2221151
            ],
            [
              -78.5696914,
              -9.2227579
            ],
            [
              -78.5694395,
              -9.2237871
            ],
            [
              -78.5688691,
              -9.2245059
            ],
            [
              -78.5673437,
              -9.2256075
            ],
            [
              -78.5668555,
              -9.2264004
            ],
            [
              -78.5664551,
              -9.2265137
            ],
            [
              -78.566334,
              -9.226875
            ],
            [
              -78.5652031,
              -9.2273457
            ],
            [
              -78.5652402,
              -9.228459
            ],
            [
              -78.5645097,
              -9.2290137
            ],
            [
              -78.5641914,
              -9.2290137
            ],
            [
              -78.5632676,
              -9.228209
            ],
            [
              -78.5628692,
              -9.228207
            ],
            [
              -78.5619785,
              -9.2291582
            ],
            [
              -78.5611757,
              -9.229668
            ],
            [
              -78.5583476,
              -9.230209
            ],
            [
              -78.5576367,
              -9.231
            ],
            [
              -78.556752,
              -9.2314375
            ],
            [
              -78.5565097,
              -9.2321035
            ],
            [
              -78.5538789,
              -9.2351231
            ],
            [
              -78.553082,
              -9.234791
            ],
            [
              -78.5531699,
              -9.233834
            ],
            [
              -78.5534531,
              -9.2335645
            ],
            [
              -78.5535781,
              -9.2326895
            ],
            [
              -78.5527871,
              -9.2313281
            ],
            [
              -78.5528437,
              -9.2283027
            ],
            [
              -78.5532949,
              -9.2275
            ],
            [
              -78.5544199,
              -9.2267579
            ],
            [
              -78.554586,
              -9.2262344
            ],
            [
              -78.5544707,
              -9.2247617
            ],
            [
              -78.5554122,
              -9.2226621
            ],
            [
              -78.5551816,
              -9.220582
            ],
            [
              -78.556166,
              -9.2186816
            ],
            [
              -78.5578632,
              -9.2167226
            ],
            [
              -78.557916,
              -9.2156934
            ],
            [
              -78.5594004,
              -9.212793
            ],
            [
              -78.5593204,
              -9.211041
            ],
            [
              -78.5596934,
              -9.209795
            ],
            [
              -78.5596092,
              -9.2086016
            ],
            [
              -78.5591699,
              -9.2078204
            ],
            [
              -78.5578007,
              -9.2071347
            ],
            [
              -78.5577617,
              -9.2063202
            ],
            [
              -78.5573242,
              -9.2049434
            ],
            [
              -78.5567579,
              -9.2041719
            ],
            [
              -78.5567617,
              -9.2034844
            ],
            [
              -78.5579492,
              -9.2027169
            ],
            [
              -78.5581524,
              -9.2023107
            ],
            [
              -78.558043,
              -9.2011172
            ],
            [
              -78.558291,
              -9.2007656
            ],
            [
              -78.5594689,
              -9.2000773
            ],
            [
              -78.5597138,
              -9.1991636
            ],
            [
              -78.5596879,
              -9.1989297
            ],
            [
              -78.559318,
              -9.1987437
            ],
            [
              -78.5593233,
              -9.1984382
            ],
            [
              -78.5603012,
              -9.1983165
            ],
            [
              -78.5608172,
              -9.1977993
            ],
            [
              -78.5609463,
              -9.1973785
            ],
            [
              -78.5612328,
              -9.1973573
            ],
            [
              -78.561632,
              -9.1969662
            ],
            [
              -78.5620955,
              -9.196913
            ],
            [
              -78.5623826,
              -9.1961852
            ],
            [
              -78.563308,
              -9.1960453
            ],
            [
              -78.5648072,
              -9.1945859
            ],
            [
              -78.565924,
              -9.1944997
            ],
            [
              -78.5662474,
              -9.1937681
            ],
            [
              -78.5659994,
              -9.1920793
            ],
            [
              -78.5652048,
              -9.1900685
            ],
            [
              -78.5644188,
              -9.1895228
            ],
            [
              -78.5642476,
              -9.1891673
            ],
            [
              -78.5643954,
              -9.1884438
            ],
            [
              -78.5654956,
              -9.1883246
            ],
            [
              -78.5655441,
              -9.1878058
            ],
            [
              -78.5651635,
              -9.186567
            ],
            [
              -78.5639973,
              -9.1847508
            ],
            [
              -78.5626017,
              -9.1831214
            ],
            [
              -78.5604517,
              -9.1813095
            ],
            [
              -78.5578052,
              -9.1796363
            ],
            [
              -78.5529626,
              -9.1773019
            ],
            [
              -78.547815,
              -9.1754866
            ],
            [
              -78.5425195,
              -9.1745332
            ],
            [
              -78.5388241,
              -9.1741567
            ],
            [
              -78.5332892,
              -9.1742053
            ],
            [
              -78.5263627,
              -9.1750723
            ],
            [
              -78.5192324,
              -9.1764156
            ],
            [
              -78.5112556,
              -9.1782848
            ],
            [
              -78.5080501,
              -9.1792435
            ],
            [
              -78.5078352,
              -9.1798558
            ],
            [
              -78.5081155,
              -9.1802541
            ],
            [
              -78.507818,
              -9.1801913
            ],
            [
              -78.507908,
              -9.1804587
            ],
            [
              -78.5076236,
              -9.1807448
            ],
            [
              -78.5077409,
              -9.1808936
            ],
            [
              -78.5070314,
              -9.1817646
            ],
            [
              -78.5070008,
              -9.1826379
            ],
            [
              -78.5072243,
              -9.18279
            ],
            [
              -78.5068212,
              -9.1835132
            ],
            [
              -78.5068107,
              -9.1840849
            ],
            [
              -78.5066224,
              -9.1842
            ],
            [
              -78.5065775,
              -9.1839165
            ],
            [
              -78.5060071,
              -9.1839796
            ],
            [
              -78.503971,
              -9.185238
            ],
            [
              -78.5001384,
              -9.1865087
            ],
            [
              -78.4959359,
              -9.1891246
            ],
            [
              -78.4952926,
              -9.1901077
            ],
            [
              -78.4937813,
              -9.1913021
            ],
            [
              -78.4931985,
              -9.192206
            ],
            [
              -78.4932013,
              -9.1931284
            ],
            [
              -78.4938449,
              -9.1933155
            ],
            [
              -78.4940307,
              -9.1939038
            ],
            [
              -78.4938932,
              -9.1941982
            ],
            [
              -78.4941514,
              -9.1941823
            ],
            [
              -78.4942951,
              -9.194533
            ],
            [
              -78.494653,
              -9.1946436
            ],
            [
              -78.49444,
              -9.1947393
            ],
            [
              -78.4945751,
              -9.1949179
            ],
            [
              -78.4942952,
              -9.1950048
            ],
            [
              -78.4943357,
              -9.1955579
            ],
            [
              -78.4941654,
              -9.1954869
            ],
            [
              -78.4943429,
              -9.1957672
            ],
            [
              -78.4942234,
              -9.1965375
            ],
            [
              -78.4938645,
              -9.1964695
            ],
            [
              -78.4939771,
              -9.1968109
            ],
            [
              -78.4935233,
              -9.1972713
            ],
            [
              -78.4929195,
              -9.197324
            ],
            [
              -78.492503,
              -9.1969996
            ],
            [
              -78.4919642,
              -9.1972095
            ],
            [
              -78.4878705,
              -9.2011369
            ],
            [
              -78.4846582,
              -9.1988086
            ],
            [
              -78.4812326,
              -9.1923527
            ],
            [
              -78.4805031,
              -9.1918566
            ],
            [
              -78.4706487,
              -9.1912914
            ],
            [
              -78.467002,
              -9.1896544
            ],
            [
              -78.4660039,
              -9.1887344
            ],
            [
              -78.4640195,
              -9.1850059
            ],
            [
              -78.4635884,
              -9.1836225
            ],
            [
              -78.4625454,
              -9.18236
            ],
            [
              -78.4605144,
              -9.1820855
            ],
            [
              -78.458038,
              -9.1800237
            ],
            [
              -78.4567714,
              -9.1796784
            ],
            [
              -78.4551594,
              -9.1797012
            ],
            [
              -78.4521192,
              -9.1803847
            ],
            [
              -78.4494941,
              -9.1804766
            ],
            [
              -78.4434882,
              -9.1796406
            ],
            [
              -78.4389812,
              -9.1800855
            ],
            [
              -78.4372655,
              -9.1795587
            ],
            [
              -78.4363789,
              -9.1766191
            ],
            [
              -78.4348457,
              -9.1758222
            ],
            [
              -78.4337695,
              -9.1756426
            ],
            [
              -78.4326982,
              -9.1758724
            ],
            [
              -78.4321514,
              -9.176185
            ],
            [
              -78.4312401,
              -9.1775856
            ],
            [
              -78.4296131,
              -9.1790657
            ],
            [
              -78.426408,
              -9.181119
            ],
            [
              -78.4251591,
              -9.1811045
            ],
            [
              -78.4241569,
              -9.181266
            ],
            [
              -78.4231212,
              -9.1817076
            ],
            [
              -78.4227989,
              -9.1815801
            ],
            [
              -78.4208302,
              -9.1765622
            ],
            [
              -78.4202701,
              -9.1761299
            ],
            [
              -78.4142912,
              -9.1762102
            ],
            [
              -78.4114082,
              -9.1718184
            ],
            [
              -78.4102559,
              -9.1706739
            ],
            [
              -78.4094082,
              -9.1703652
            ],
            [
              -78.4072925,
              -9.1703921
            ],
            [
              -78.4047997,
              -9.1657506
            ],
            [
              -78.4046449,
              -9.162567
            ],
            [
              -78.4048892,
              -9.160381
            ],
            [
              -78.4073951,
              -9.1581882
            ],
            [
              -78.4080386,
              -9.1572572
            ],
            [
              -78.4079769,
              -9.1567115
            ],
            [
              -78.4073056,
              -9.1564431
            ],
            [
              -78.4044234,
              -9.1568804
            ],
            [
              -78.399967,
              -9.1567115
            ],
            [
              -78.3987589,
              -9.1569801
            ],
            [
              -78.3976402,
              -9.1569354
            ],
            [
              -78.3967451,
              -9.1563089
            ],
            [
              -78.3958502,
              -9.1534897
            ],
            [
              -78.3924494,
              -9.1525052
            ],
            [
              -78.3917334,
              -9.1518341
            ],
            [
              -78.3909727,
              -9.1503575
            ],
            [
              -78.3897197,
              -9.1462406
            ],
            [
              -78.3891531,
              -9.1451677
            ],
            [
              -78.3870349,
              -9.1436005
            ],
            [
              -78.3843847,
              -9.1423906
            ],
            [
              -78.3810387,
              -9.1382756
            ],
            [
              -78.3791594,
              -9.1354117
            ],
            [
              -78.3771456,
              -9.1335324
            ],
            [
              -78.3755347,
              -9.1329059
            ],
            [
              -78.3739686,
              -9.132548
            ],
            [
              -78.3688226,
              -9.1327716
            ],
            [
              -78.3679664,
              -9.1322559
            ],
            [
              -78.3672277,
              -9.1287222
            ],
            [
              -78.3665852,
              -9.1225691
            ],
            [
              -78.3668985,
              -9.1206002
            ],
            [
              -78.3688674,
              -9.1170651
            ],
            [
              -78.3689902,
              -9.1162774
            ],
            [
              -78.3681514,
              -9.1156332
            ],
            [
              -78.3659587,
              -9.1154095
            ],
            [
              -78.3626806,
              -9.1147201
            ],
            [
              -78.3598731,
              -9.1132169
            ],
            [
              -78.357233,
              -9.1126351
            ],
            [
              -78.3532952,
              -9.1125009
            ],
            [
              -78.3503419,
              -9.1117402
            ],
            [
              -78.3477465,
              -9.1108005
            ],
            [
              -78.3462385,
              -9.1100357
            ],
            [
              -78.3434306,
              -9.1091466
            ],
            [
              -78.3398612,
              -9.107074
            ],
            [
              -78.334245,
              -9.1057216
            ],
            [
              -78.3309629,
              -9.1017794
            ],
            [
              -78.3291987,
              -9.1008564
            ],
            [
              -78.3276292,
              -9.0995966
            ],
            [
              -78.32609,
              -9.0977935
            ],
            [
              -78.3242016,
              -9.0951221
            ],
            [
              -78.3233956,
              -9.0932569
            ],
            [
              -78.3231654,
              -9.0922205
            ],
            [
              -78.3226587,
              -9.0916679
            ],
            [
              -78.3187669,
              -9.0895954
            ],
            [
              -78.3168095,
              -9.0892267
            ],
            [
              -78.3137007,
              -9.0880524
            ],
            [
              -78.3116741,
              -9.0863712
            ],
            [
              -78.3101081,
              -9.0857034
            ],
            [
              -78.3090719,
              -9.0850125
            ],
            [
              -78.3085421,
              -9.083815
            ],
            [
              -78.3083349,
              -9.0823642
            ],
            [
              -78.3084731,
              -9.0812129
            ],
            [
              -78.3080125,
              -9.0804759
            ],
            [
              -78.3052721,
              -9.0778966
            ],
            [
              -78.3045634,
              -9.0759974
            ],
            [
              -78.3030152,
              -9.0729685
            ],
            [
              -78.3013431,
              -9.0716741
            ],
            [
              -78.2983635,
              -9.0683397
            ],
            [
              -78.297212,
              -9.067718
            ],
            [
              -78.296175,
              -9.067606
            ],
            [
              -78.294093,
              -9.0668502
            ],
            [
              -78.2909711,
              -9.0647474
            ],
            [
              -78.2906259,
              -9.0639644
            ],
            [
              -78.2925996,
              -9.0590917
            ],
            [
              -78.295127,
              -9.0512266
            ],
            [
              -78.2950976,
              -9.0482559
            ],
            [
              -78.2955802,
              -9.0454359
            ],
            [
              -78.2960765,
              -9.0447602
            ],
            [
              -78.2985306,
              -9.042513
            ],
            [
              -78.2994454,
              -9.0409649
            ],
            [
              -78.2992154,
              -9.0401606
            ],
            [
              -78.2982949,
              -9.0388887
            ],
            [
              -78.2961875,
              -9.0374726
            ],
            [
              -78.2938592,
              -9.0367352
            ],
            [
              -78.2928162,
              -9.0359037
            ],
            [
              -78.2924685,
              -9.0351176
            ],
            [
              -78.2922715,
              -9.0327106
            ],
            [
              -78.291913,
              -9.0323246
            ],
            [
              -78.2907549,
              -9.0319524
            ],
            [
              -78.2896796,
              -9.0312906
            ],
            [
              -78.288172,
              -9.0301106
            ],
            [
              -78.2865761,
              -9.0284902
            ],
            [
              -78.2862324,
              -9.0278614
            ],
            [
              -78.2871011,
              -9.025836
            ],
            [
              -78.2872302,
              -9.0246742
            ],
            [
              -78.2871027,
              -9.0235877
            ],
            [
              -78.286514,
              -9.0216441
            ],
            [
              -78.2844004,
              -9.0194434
            ],
            [
              -78.284199,
              -9.0186246
            ],
            [
              -78.2844646,
              -9.0170306
            ],
            [
              -78.2860321,
              -9.0153304
            ],
            [
              -78.2922286,
              -9.0123126
            ],
            [
              -78.2950116,
              -9.0104155
            ],
            [
              -78.2991164,
              -9.0095949
            ],
            [
              -78.3030229,
              -9.008432
            ],
            [
              -78.3061584,
              -9.0085124
            ],
            [
              -78.3069112,
              -9.0087201
            ],
            [
              -78.308929,
              -9.0098241
            ],
            [
              -78.3099375,
              -9.0096954
            ],
            [
              -78.310532,
              -9.0087357
            ],
            [
              -78.312207,
              -9.0078295
            ],
            [
              -78.3143702,
              -9.0081411
            ],
            [
              -78.3154107,
              -9.007874
            ],
            [
              -78.3167464,
              -9.0069037
            ],
            [
              -78.3188555,
              -9.0065101
            ],
            [
              -78.3214865,
              -9.0078125
            ],
            [
              -78.3246479,
              -9.0086707
            ],
            [
              -78.3252351,
              -9.0089936
            ],
            [
              -78.3261681,
              -9.0062201
            ],
            [
              -78.3268359,
              -9.0059255
            ],
            [
              -78.328525,
              -9.005788
            ],
            [
              -78.3339066,
              -9.0027044
            ],
            [
              -78.3351636,
              -9.0026259
            ],
            [
              -78.3367349,
              -9.0021151
            ],
            [
              -78.3377759,
              -9.0023509
            ],
            [
              -78.3389346,
              -9.0031561
            ],
            [
              -78.3401524,
              -9.0049827
            ],
            [
              -78.3406041,
              -9.0061415
            ],
            [
              -78.3413111,
              -9.006829
            ],
            [
              -78.3430395,
              -9.0078896
            ],
            [
              -78.3444734,
              -9.0081841
            ],
            [
              -78.3453769,
              -9.0086359
            ],
            [
              -78.3468302,
              -9.0090091
            ],
            [
              -78.3500969,
              -9.0110642
            ],
            [
              -78.3524726,
              -9.0132111
            ],
            [
              -78.3528426,
              -9.013177
            ],
            [
              -78.3544917,
              -9.0119379
            ],
            [
              -78.3554844,
              -9.0114766
            ],
            [
              -78.3588504,
              -9.0112285
            ],
            [
              -78.3612072,
              -9.0103054
            ],
            [
              -78.3631115,
              -9.0092535
            ],
            [
              -78.3641542,
              -9.0080759
            ],
            [
              -78.3649025,
              -9.0075272
            ],
            [
              -78.3666232,
              -9.0072279
            ],
            [
              -78.3698655,
              -9.0072279
            ],
            [
              -78.3729167,
              -9.007848
            ],
            [
              -78.374624,
              -9.0085751
            ],
            [
              -78.3763155,
              -9.0102507
            ],
            [
              -78.377505,
              -9.0148567
            ],
            [
              -78.3779534,
              -9.0154032
            ],
            [
              -78.378556,
              -9.0157536
            ],
            [
              -78.3798592,
              -9.0160619
            ],
            [
              -78.3809804,
              -9.0166505
            ],
            [
              -78.3821014,
              -9.0176034
            ],
            [
              -78.3874686,
              -9.0199296
            ],
            [
              -78.3880011,
              -9.0208826
            ],
            [
              -78.388884,
              -9.0215552
            ],
            [
              -78.3898846,
              -9.0227832
            ],
            [
              -78.3904956,
              -9.0260816
            ],
            [
              -78.3910421,
              -9.0268945
            ],
            [
              -78.3941251,
              -9.0287442
            ],
            [
              -78.3951761,
              -9.0290245
            ],
            [
              -78.3963926,
              -9.0289356
            ],
            [
              -78.3978075,
              -9.0280921
            ],
            [
              -78.3988367,
              -9.0268879
            ],
            [
              -78.3995374,
              -9.0252895
            ],
            [
              -78.4024277,
              -9.021173
            ],
            [
              -78.4046357,
              -9.015469
            ],
            [
              -78.4044401,
              -9.0141542
            ],
            [
              -78.4052422,
              -9.0109472
            ],
            [
              -78.4063932,
              -9.0097002
            ],
            [
              -78.4077925,
              -9.0090472
            ],
            [
              -78.4094706,
              -9.0087272
            ],
            [
              -78.4120369,
              -9.0090939
            ],
            [
              -78.4132496,
              -9.0090006
            ],
            [
              -78.4193574,
              -9.0058889
            ],
            [
              -78.4210777,
              -9.0057717
            ],
            [
              -78.4226579,
              -9.0061487
            ],
            [
              -78.4243086,
              -9.0074844
            ],
            [
              -78.425881,
              -9.009291
            ],
            [
              -78.4261621,
              -9.0099492
            ],
            [
              -78.4261699,
              -9.011295
            ],
            [
              -78.4265456,
              -9.0123782
            ],
            [
              -78.4282849,
              -9.0138519
            ],
            [
              -78.4341067,
              -9.0146249
            ],
            [
              -78.4355801,
              -9.0154704
            ],
            [
              -78.437167,
              -9.0168295
            ],
            [
              -78.4402741,
              -9.0190332
            ],
            [
              -78.4435194,
              -9.0223027
            ],
            [
              -78.446418,
              -9.0235294
            ],
            [
              -78.4512324,
              -9.0242891
            ],
            [
              -78.4529492,
              -9.0248419
            ],
            [
              -78.4537422,
              -9.025709
            ],
            [
              -78.4536895,
              -9.0275879
            ],
            [
              -78.4541465,
              -9.0285684
            ],
            [
              -78.4547481,
              -9.0290865
            ],
            [
              -78.455889,
              -9.0295839
            ],
            [
              -78.4576734,
              -9.0297886
            ],
            [
              -78.4592531,
              -9.03052
            ],
            [
              -78.4613281,
              -9.0323867
            ],
            [
              -78.4652636,
              -9.0380801
            ],
            [
              -78.4671934,
              -9.0430274
            ],
            [
              -78.4685264,
              -9.0453805
            ],
            [
              -78.4696379,
              -9.0462289
            ],
            [
              -78.4732654,
              -9.0483059
            ],
            [
              -78.4766074,
              -9.0513711
            ],
            [
              -78.4781426,
              -9.0523945
            ],
            [
              -78.4802695,
              -9.0535762
            ],
            [
              -78.4822774,
              -9.0543789
            ],
            [
              -78.4833869,
              -9.0544781
            ],
            [
              -78.4901789,
              -9.0534307
            ],
            [
              -78.4916949,
              -9.0535129
            ],
            [
              -78.4926016,
              -9.0539225
            ],
            [
              -78.493567,
              -9.054917
            ],
            [
              -78.4946287,
              -9.0566931
            ],
            [
              -78.4981992,
              -9.0602481
            ],
            [
              -78.5021055,
              -9.0645801
            ],
            [
              -78.503418,
              -9.0655976
            ],
            [
              -78.5064091,
              -9.0670864
            ],
            [
              -78.5083984,
              -9.0674666
            ],
            [
              -78.5099297,
              -9.0674766
            ],
            [
              -78.5105631,
              -9.0677591
            ],
            [
              -78.5116797,
              -9.0700937
            ],
            [
              -78.5126799,
              -9.0710079
            ],
            [
              -78.5142285,
              -9.071832
            ],
            [
              -78.5180976,
              -9.0730762
            ],
            [
              -78.5194395,
              -9.0731271
            ],
            [
              -78.5224687,
              -9.073875
            ],
            [
              -78.5260781,
              -9.0737226
            ],
            [
              -78.5278516,
              -9.0737696
            ],
            [
              -78.5283197,
              -9.0739609
            ],
            [
              -78.5300966,
              -9.0778146
            ],
            [
              -78.5322689,
              -9.0838776
            ],
            [
              -78.5337057,
              -9.0861342
            ],
            [
              -78.5357876,
              -9.0882701
            ],
            [
              -78.5375362,
              -9.0888457
            ],
            [
              -78.5385584,
              -9.0883826
            ],
            [
              -78.5411911,
              -9.0859839
            ],
            [
              -78.5427415,
              -9.0852526
            ],
            [
              -78.5434784,
              -9.0850467
            ],
            [
              -78.5437361,
              -9.0852526
            ],
            [
              -78.5443711,
              -9.0884961
            ],
            [
              -78.5455469,
              -9.0907597
            ],
            [
              -78.5462084,
              -9.0929137
            ],
            [
              -78.5461349,
              -9.0934434
            ],
            [
              -78.5429755,
              -9.0954619
            ],
            [
              -78.5409279,
              -9.0971877
            ],
            [
              -78.5393189,
              -9.0990892
            ],
            [
              -78.5385876,
              -9.1002886
            ],
            [
              -78.5383242,
              -9.10102
            ],
            [
              -78.5395821,
              -9.1071046
            ],
            [
              -78.5411619,
              -9.1111415
            ],
            [
              -78.542449,
              -9.1119314
            ],
            [
              -78.5439701,
              -9.1123116
            ],
            [
              -78.5460179,
              -9.1136281
            ],
            [
              -78.547188,
              -9.1149737
            ],
            [
              -78.5492942,
              -9.118133
            ],
            [
              -78.5505814,
              -9.119625
            ],
            [
              -78.5510201,
              -9.1208536
            ],
            [
              -78.5516052,
              -9.1245687
            ],
            [
              -78.5521777,
              -9.1338867
            ],
            [
              -78.5538184,
              -9.1406777
            ],
            [
              -78.5548399,
              -9.1429434
            ],
            [
              -78.5561972,
              -9.1451152
            ],
            [
              -78.5579902,
              -9.1467656
            ],
            [
              -78.5588312,
              -9.1467337
            ],
            [
              -78.5613656,
              -9.155178
            ],
            [
              -78.5626638,
              -9.1585675
            ],
            [
              -78.564477,
              -9.1621582
            ],
            [
              -78.5665477,
              -9.1650498
            ],
            [
              -78.5703242,
              -9.1694136
            ],
            [
              -78.5717135,
              -9.1706687
            ],
            [
              -78.5725397,
              -9.1710818
            ],
            [
              -78.5734902,
              -9.1712266
            ],
            [
              -78.5741132,
              -9.170418
            ],
            [
              -78.5758614,
              -9.1701582
            ],
            [
              -78.5768672,
              -9.1695332
            ],
            [
              -78.5777461,
              -9.1697754
            ],
            [
              -78.578422,
              -9.1707364
            ],
            [
              -78.5794647,
              -9.1709414
            ],
            [
              -78.5809865,
              -9.1707891
            ],
            [
              -78.5816347,
              -9.1703965
            ],
            [
              -78.5821896,
              -9.1703184
            ],
            [
              -78.5832402,
              -9.1696465
            ],
            [
              -78.5838047,
              -9.1696152
            ],
            [
              -78.5841719,
              -9.1692187
            ],
            [
              -78.5836542,
              -9.1676992
            ],
            [
              -78.5839454,
              -9.1663437
            ],
            [
              -78.5844707,
              -9.1653985
            ],
            [
              -78.5845586,
              -9.1644414
            ],
            [
              -78.5847617,
              -9.164082
            ],
            [
              -78.5854434,
              -9.1638887
            ],
            [
              -78.5888182,
              -9.16391
            ],
            [
              -78.5902149,
              -9.1641544
            ],
            [
              -78.5906504,
              -9.1646816
            ],
            [
              -78.5900899,
              -9.1655097
            ],
            [
              -78.590041,
              -9.1659882
            ],
            [
              -78.5903204,
              -9.1663867
            ],
            [
              -78.5907187,
              -9.1665527
            ],
            [
              -78.5935292,
              -9.1666875
            ],
            [
              -78.5957715,
              -9.1671465
            ],
            [
              -78.5962987,
              -9.1670271
            ],
            [
              -78.5975476,
              -9.1674008
            ],
            [
              -78.5984383,
              -9.1668529
            ],
            [
              -78.5989729,
              -9.1662346
            ],
            [
              -78.598903,
              -9.1658385
            ],
            [
              -78.5985906,
              -9.1656175
            ],
            [
              -78.5987039,
              -9.1649847
            ],
            [
              -78.5983158,
              -9.1636673
            ],
            [
              -78.5984785,
              -9.1635762
            ],
            [
              -78.5992792,
              -9.1633829
            ],
            [
              -78.5995586,
              -9.1638632
            ],
            [
              -78.6012812,
              -9.1650684
            ],
            [
              -78.603041,
              -9.1654414
            ],
            [
              -78.6037636,
              -9.1646875
            ],
            [
              -78.605373,
              -9.164418
            ],
            [
              -78.6056269,
              -9.1623496
            ],
            [
              -78.6063945,
              -9.161795
            ],
            [
              -78.6071191,
              -9.1608419
            ],
            [
              -78.6077655,
              -9.1605294
            ],
            [
              -78.6088027,
              -9.1604551
            ],
            [
              -78.6099336,
              -9.1601094
            ],
            [
              -78.6107676,
              -9.1605489
            ],
            [
              -78.6108457,
              -9.1610274
            ]
          ]
        ]
      }
    }
  ]
}
