{
  "type": "FeatureCollection",
  "features": [
    {
      "type": "Feature",
      "properties": {
        "name": "San Pedro de la Paz",
        "category": "Residential",
        "osmType": "relation",
        "osmId": 1622326,
        "stroke": "#0f766e",
        "stroke-width": 2,
        "stroke-opacity": 0.95,
        "fill": "#0f766e",
        "fill-opacity": 0.16
      },
      "geometry": {
        "type": "Polygon",
        "coordinates": [
          [
            [
              -73.1699953,
              -36.8150804
            ],
            [
              -73.1663114,
              -36.816852
            ],
            [
              -73.1635326,
              -36.8169379
            ],
            [
              -73.1609711,
              -36.8188081
            ],
            [
              -73.1589916,
              -36.8207492
            ],
            [
              -73.1565133,
              -36.8239033
            ],
            [
              -73.1543836,
              -36.8296464
            ],
            [
              -73.1542066,
              -36.8310011
            ],
            [
              -73.1543514,
              -36.8322227
            ],
            [
              -73.1543595,
              -36.8385577
            ],
            [
              -73.1541073,
              -36.8405197
            ],
            [
              -73.1529808,
              -36.8444779
            ],
            [
              -73.1531096,
              -36.8448213
            ],
            [
              -73.1529164,
              -36.8463925
            ],
            [
              -73.1530827,
              -36.8465728
            ],
            [
              -73.1532007,
              -36.8486913
            ],
            [
              -73.153182,
              -36.8545163
            ],
            [
              -73.1522915,
              -36.8717763
            ],
            [
              -73.1523156,
              -36.8829804
            ],
            [
              -73.1527421,
              -36.8916988
            ],
            [
              -73.1537533,
              -36.9046844
            ],
            [
              -73.1491733,
              -36.9051107
            ],
            [
              -73.1425596,
              -36.9060814
            ],
            [
              -73.1348365,
              -36.9072982
            ],
            [
              -73.1308385,
              -36.9082369
            ],
            [
              -73.1268451,
              -36.9097889
            ],
            [
              -73.1212232,
              -36.9110757
            ],
            [
              -73.1201074,
              -36.9118306
            ],
            [
              -73.1177256,
              -36.9140952
            ],
            [
              -73.1166312,
              -36.9147128
            ],
            [
              -73.1155369,
              -36.9150217
            ],
            [
              -73.1117174,
              -36.918367
            ],
            [
              -73.1103227,
              -36.9187444
            ],
            [
              -73.1036493,
              -36.9189503
            ],
            [
              -73.10204,
              -36.9187616
            ],
            [
              -73.1013104,
              -36.9188988
            ],
            [
              -73.0990359,
              -36.9205628
            ],
            [
              -73.0972335,
              -36.921026
            ],
            [
              -73.0944654,
              -36.9212662
            ],
            [
              -73.0934355,
              -36.9219867
            ],
            [
              -73.091397,
              -36.9225185
            ],
            [
              -73.0891439,
              -36.9237879
            ],
            [
              -73.0864832,
              -36.9241824
            ],
            [
              -73.0849168,
              -36.9261551
            ],
            [
              -73.0843803,
              -36.9264295
            ],
            [
              -73.0844447,
              -36.9271157
            ],
            [
              -73.0846807,
              -36.927493
            ],
            [
              -73.0851818,
              -36.9277743
            ],
            [
              -73.0857107,
              -36.9285394
            ],
            [
              -73.0859682,
              -36.9315411
            ],
            [
              -73.0861828,
              -36.9322786
            ],
            [
              -73.0865476,
              -36.9325702
            ],
            [
              -73.0868051,
              -36.9331877
            ],
            [
              -73.0865347,
              -36.933746
            ],
            [
              -73.0866119,
              -36.9341653
            ],
            [
              -73.0871269,
              -36.9348342
            ],
            [
              -73.088876,
              -36.9353659
            ],
            [
              -73.0888653,
              -36.9357861
            ],
            [
              -73.0879426,
              -36.9377756
            ],
            [
              -73.0882967,
              -36.9397737
            ],
            [
              -73.088243,
              -36.940091
            ],
            [
              -73.0874169,
              -36.9410857
            ],
            [
              -73.0875135,
              -36.9430236
            ],
            [
              -73.0871809,
              -36.9433152
            ],
            [
              -73.0856896,
              -36.9436239
            ],
            [
              -73.0847776,
              -36.9441126
            ],
            [
              -73.0845952,
              -36.9463249
            ],
            [
              -73.0842358,
              -36.946998
            ],
            [
              -73.0832648,
              -36.9480312
            ],
            [
              -73.0826318,
              -36.9483913
            ],
            [
              -73.0812907,
              -36.9484428
            ],
            [
              -73.0807918,
              -36.9486657
            ],
            [
              -73.0800086,
              -36.9494159
            ],
            [
              -73.0796385,
              -36.9502905
            ],
            [
              -73.0785012,
              -36.9519067
            ],
            [
              -73.0778146,
              -36.9537329
            ],
            [
              -73.0767363,
              -36.9549546
            ],
            [
              -73.0763769,
              -36.9560391
            ],
            [
              -73.0762911,
              -36.957488
            ],
            [
              -73.0766451,
              -36.9592712
            ],
            [
              -73.076098,
              -36.9624003
            ],
            [
              -73.0761087,
              -36.9634976
            ],
            [
              -73.0749175,
              -36.9639168
            ],
            [
              -73.0735013,
              -36.9638654
            ],
            [
              -73.0726215,
              -36.9644483
            ],
            [
              -73.070111,
              -36.9652713
            ],
            [
              -73.06936,
              -36.9657685
            ],
            [
              -73.068609,
              -36.96666
            ],
            [
              -73.0683729,
              -36.968203
            ],
            [
              -73.0683944,
              -36.9704831
            ],
            [
              -73.068094,
              -36.9719403
            ],
            [
              -73.0675146,
              -36.972506
            ],
            [
              -73.0660555,
              -36.9750603
            ],
            [
              -73.0646825,
              -36.9747868
            ],
            [
              -73.061083,
              -36.9631161
            ],
            [
              -73.0474788,
              -36.9567422
            ],
            [
              -73.0482835,
              -36.954856
            ],
            [
              -73.0466098,
              -36.9544316
            ],
            [
              -73.0446678,
              -36.9585511
            ],
            [
              -73.032496,
              -36.9533556
            ],
            [
              -73.0341268,
              -36.9508521
            ],
            [
              -73.0386115,
              -36.9422433
            ],
            [
              -73.0408321,
              -36.936069
            ],
            [
              -73.043069,
              -36.9289766
            ],
            [
              -73.0436967,
              -36.9204554
            ],
            [
              -73.0444369,
              -36.9160423
            ],
            [
              -73.0452041,
              -36.9142454
            ],
            [
              -73.0458102,
              -36.9103851
            ],
            [
              -73.0460838,
              -36.9046802
            ],
            [
              -73.0466364,
              -36.8999401
            ],
            [
              -73.0476288,
              -36.8959719
            ],
            [
              -73.0485461,
              -36.8896867
            ],
            [
              -73.0503754,
              -36.8836884
            ],
            [
              -73.0512819,
              -36.8787625
            ],
            [
              -73.0550263,
              -36.8718707
            ],
            [
              -73.0594734,
              -36.8622788
            ],
            [
              -73.0648821,
              -36.8459977
            ],
            [
              -73.0661213,
              -36.8435319
            ],
            [
              -73.0676234,
              -36.8415631
            ],
            [
              -73.0725103,
              -36.8371874
            ],
            [
              -73.0855909,
              -36.8273292
            ],
            [
              -73.0878612,
              -36.8258211
            ],
            [
              -73.0983293,
              -36.8195198
            ],
            [
              -73.1005373,
              -36.8184007
            ],
            [
              -73.1055659,
              -36.8165842
            ],
            [
              -73.107967,
              -36.815934
            ],
            [
              -73.1157303,
              -36.8145415
            ],
            [
              -73.1201935,
              -36.8139918
            ],
            [
              -73.1247426,
              -36.8135795
            ],
            [
              -73.1320382,
              -36.8132359
            ],
            [
              -73.1445694,
              -36.8139403
            ],
            [
              -73.1554485,
              -36.8141292
            ],
            [
              -73.1593323,
              -36.8140777
            ],
            [
              -73.1636667,
              -36.8135108
            ],
            [
              -73.1657696,
              -36.8135108
            ],
            [
              -73.168602,
              -36.8142666
            ],
            [
              -73.1699953,
              -36.8150804
            ]
          ]
        ]
      }
    }
  ]
}
