{
  "type": "FeatureCollection",
  "features": [
    {
      "type": "Feature",
      "properties": {
        "name": "Nueva Córdoba",
        "category": "Tourist",
        "osmType": "relation",
        "osmId": 4286244,
        "stroke": "#f59e0b",
        "stroke-width": 2,
        "stroke-opacity": 0.95,
        "fill": "#f59e0b",
        "fill-opacity": 0.16
      },
      "geometry": {
        "type": "Polygon",
        "coordinates": [
          [
            [
              -64.1941572,
              -31.4324898
            ],
            [
              -64.1936441,
              -31.4327133
            ],
            [
              -64.1935305,
              -31.433149
            ],
            [
              -64.1927947,
              -31.432352
            ],
            [
              -64.1913022,
              -31.4328062
            ],
            [
              -64.1911792,
              -31.4330731
            ],
            [
              -64.1907404,
              -31.4329037
            ],
            [
              -64.1884267,
              -31.4335857
            ],
            [
              -64.1876622,
              -31.4317778
            ],
            [
              -64.1862888,
              -31.4322314
            ],
            [
              -64.1857837,
              -31.43103
            ],
            [
              -64.1843066,
              -31.4315732
            ],
            [
              -64.1842446,
              -31.4302709
            ],
            [
              -64.1848297,
              -31.4291033
            ],
            [
              -64.1843016,
              -31.4287688
            ],
            [
              -64.1844588,
              -31.4281911
            ],
            [
              -64.1770376,
              -31.424981
            ],
            [
              -64.1753823,
              -31.4241991
            ],
            [
              -64.1754192,
              -31.4240684
            ],
            [
              -64.1758002,
              -31.4236685
            ],
            [
              -64.1763861,
              -31.4234476
            ],
            [
              -64.1889482,
              -31.4202821
            ],
            [
              -64.1940313,
              -31.4324401
            ],
            [
              -64.1941572,
              -31.4324898
            ]
          ]
        ]
      }
    },
    {
      "type": "Feature",
      "properties": {
        "name": "Güemes",
        "category": "Residential",
        "osmType": "relation",
        "osmId": 4286405,
        "stroke": "#0f766e",
        "stroke-width": 2,
        "stroke-opacity": 0.95,
        "fill": "#0f766e",
        "fill-opacity": 0.16
      },
      "geometry": {
        "type": "Polygon",
        "coordinates": [
          [
            [
              -64.199805,
              -31.4288589
            ],
            [
              -64.1973813,
              -31.4282702
            ],
            [
              -64.1948718,
              -31.4270004
            ],
            [
              -64.1953052,
              -31.4278051
            ],
            [
              -64.1966291,
              -31.428722
            ],
            [
              -64.1981341,
              -31.4303066
            ],
            [
              -64.1985335,
              -31.4312778
            ],
            [
              -64.1968019,
              -31.4318008
            ],
            [
              -64.1971992,
              -31.4325427
            ],
            [
              -64.1981007,
              -31.4333821
            ],
            [
              -64.1985698,
              -31.4334696
            ],
            [
              -64.1982324,
              -31.4355395
            ],
            [
              -64.1984666,
              -31.4358604
            ],
            [
              -64.1990733,
              -31.4358664
            ],
            [
              -64.1993285,
              -31.4369161
            ],
            [
              -64.1981068,
              -31.4371599
            ],
            [
              -64.1981682,
              -31.4376395
            ],
            [
              -64.1959538,
              -31.4383432
            ],
            [
              -64.1946497,
              -31.4343794
            ],
            [
              -64.1935305,
              -31.433149
            ],
            [
              -64.1936441,
              -31.4327133
            ],
            [
              -64.1941572,
              -31.4324898
            ],
            [
              -64.19357,
              -31.4315119
            ],
            [
              -64.188873,
              -31.4199855
            ],
            [
              -64.1966645,
              -31.4179721
            ],
            [
              -64.1975615,
              -31.4204104
            ],
            [
              -64.1976617,
              -31.4214066
            ],
            [
              -64.1980451,
              -31.4214488
            ],
            [
              -64.1988603,
              -31.4235116
            ],
            [
              -64.1988008,
              -31.4242562
            ],
            [
              -64.1996943,
              -31.4283363
            ],
            [
              -64.199805,
              -31.4288589
            ]
          ]
        ]
      }
    },
    {
      "type": "Feature",
      "properties": {
        "name": "General Paz",
        "category": "Hip",
        "osmType": "relation",
        "osmId": 4281105,
        "stroke": "#f43f5e",
        "stroke-width": 2,
        "stroke-opacity": 0.95,
        "fill": "#f43f5e",
        "fill-opacity": 0.16
      },
      "geometry": {
        "type": "Polygon",
        "coordinates": [
          [
            [
              -64.1744746,
              -31.4120941
            ],
            [
              -64.1742395,
              -31.4143321
            ],
            [
              -64.1736627,
              -31.4161277
            ],
            [
              -64.1725267,
              -31.4184793
            ],
            [
              -64.172427,
              -31.4177963
            ],
            [
              -64.161257,
              -31.4146885
            ],
            [
              -64.1601629,
              -31.4133093
            ],
            [
              -64.1595686,
              -31.4131439
            ],
            [
              -64.1561182,
              -31.4153538
            ],
            [
              -64.1556157,
              -31.4154262
            ],
            [
              -64.1571252,
              -31.4113313
            ],
            [
              -64.1611607,
              -31.4124217
            ],
            [
              -64.1631169,
              -31.4071391
            ],
            [
              -64.1718708,
              -31.4095512
            ],
            [
              -64.1736652,
              -31.4112907
            ],
            [
              -64.1744716,
              -31.4114962
            ],
            [
              -64.1744746,
              -31.4120941
            ]
          ]
        ]
      }
    }
  ]
}
