{
  "type": "FeatureCollection",
  "features": [
    {
      "type": "Feature",
      "properties": {
        "name": "Centro Cívico",
        "category": "Tourist",
        "osmType": "R",
        "osmId": 6204419,
        "source": "https://www.openstreetmap.org/relation/6204419",
        "retrievedAt": "2026-09-24",
        "stroke": "#f59e0b",
        "stroke-width": 2,
        "stroke-opacity": 0.95,
        "fill": "#f59e0b",
        "fill-opacity": 0.16
      },
      "geometry": {
        "type": "Polygon",
        "coordinates": [
          [
            [
              -49.2718893,
              -25.4080488
            ],
            [
              -49.2718866,
              -25.4081171
            ],
            [
              -49.2718801,
              -25.4081644
            ],
            [
              -49.2718673,
              -25.408232
            ],
            [
              -49.2716264,
              -25.4090531
            ],
            [
              -49.2714981,
              -25.4095073
            ],
            [
              -49.2714717,
              -25.4096236
            ],
            [
              -49.2714507,
              -25.4097425
            ],
            [
              -49.2714426,
              -25.40985
            ],
            [
              -49.2714433,
              -25.4099572
            ],
            [
              -49.2714479,
              -25.4100748
            ],
            [
              -49.2714581,
              -25.4101713
            ],
            [
              -49.2714733,
              -25.4102614
            ],
            [
              -49.2714934,
              -25.4103503
            ],
            [
              -49.2715912,
              -25.4107351
            ],
            [
              -49.2716556,
              -25.4109882
            ],
            [
              -49.271815,
              -25.4115645
            ],
            [
              -49.2718163,
              -25.4117179
            ],
            [
              -49.2718054,
              -25.4117951
            ],
            [
              -49.2717826,
              -25.4118692
            ],
            [
              -49.271682,
              -25.4121181
            ],
            [
              -49.2715334,
              -25.4124703
            ],
            [
              -49.2714906,
              -25.41258
            ],
            [
              -49.2714524,
              -25.4126848
            ],
            [
              -49.2714219,
              -25.4127784
            ],
            [
              -49.2713821,
              -25.4129311
            ],
            [
              -49.2713373,
              -25.4131127
            ],
            [
              -49.2713153,
              -25.4132335
            ],
            [
              -49.2712932,
              -25.4133543
            ],
            [
              -49.2712682,
              -25.413556
            ],
            [
              -49.2712548,
              -25.4137403
            ],
            [
              -49.2712517,
              -25.4139191
            ],
            [
              -49.271257,
              -25.4140809
            ],
            [
              -49.2712693,
              -25.4142359
            ],
            [
              -49.2713336,
              -25.4148728
            ],
            [
              -49.2713409,
              -25.4149452
            ],
            [
              -49.2713431,
              -25.4149674
            ],
            [
              -49.2713969,
              -25.4155069
            ],
            [
              -49.2714504,
              -25.4160172
            ],
            [
              -49.2714565,
              -25.41614
            ],
            [
              -49.2714561,
              -25.4162794
            ],
            [
              -49.271448,
              -25.4164609
            ],
            [
              -49.2714339,
              -25.4166274
            ],
            [
              -49.2713907,
              -25.4170297
            ],
            [
              -49.2712663,
              -25.4181455
            ],
            [
              -49.2712098,
              -25.4186681
            ],
            [
              -49.2711682,
              -25.4190532
            ],
            [
              -49.2710868,
              -25.4197773
            ],
            [
              -49.2709289,
              -25.4212675
            ],
            [
              -49.2709241,
              -25.4213102
            ],
            [
              -49.2709193,
              -25.4213529
            ],
            [
              -49.2709069,
              -25.4214709
            ],
            [
              -49.2708911,
              -25.4216169
            ],
            [
              -49.2708498,
              -25.4219987
            ],
            [
              -49.2708002,
              -25.4224444
            ],
            [
              -49.2709615,
              -25.4232164
            ],
            [
              -49.2711641,
              -25.4241158
            ],
            [
              -49.2711741,
              -25.4241599
            ],
            [
              -49.2701148,
              -25.4243388
            ],
            [
              -49.2700512,
              -25.4243501
            ],
            [
              -49.2699626,
              -25.4243659
            ],
            [
              -49.2698894,
              -25.4243789
            ],
            [
              -49.2697328,
              -25.4244068
            ],
            [
              -49.2695587,
              -25.424437
            ],
            [
              -49.2694211,
              -25.4244426
            ],
            [
              -49.2692982,
              -25.4244423
            ],
            [
              -49.2691586,
              -25.4244229
            ],
            [
              -49.269026,
              -25.4243946
            ],
            [
              -49.2686419,
              -25.42414
            ],
            [
              -49.2685592,
              -25.4240738
            ],
            [
              -49.268505,
              -25.4240304
            ],
            [
              -49.2683188,
              -25.4238813
            ],
            [
              -49.268012,
              -25.4236356
            ],
            [
              -49.2679173,
              -25.4235597
            ],
            [
              -49.2678667,
              -25.4235192
            ],
            [
              -49.2667983,
              -25.4226693
            ],
            [
              -49.2667626,
              -25.4226383
            ],
            [
              -49.2667366,
              -25.4226105
            ],
            [
              -49.2667086,
              -25.4225706
            ],
            [
              -49.2667968,
              -25.4225342
            ],
            [
              -49.2668228,
              -25.4225184
            ],
            [
              -49.2675296,
              -25.4220889
            ],
            [
              -49.2676097,
              -25.4220319
            ],
            [
              -49.2676824,
              -25.4219594
            ],
            [
              -49.2677449,
              -25.4218814
            ],
            [
              -49.2677892,
              -25.4218094
            ],
            [
              -49.2678054,
              -25.4217699
            ],
            [
              -49.2678286,
              -25.4217134
            ],
            [
              -49.2678358,
              -25.4216559
            ],
            [
              -49.2678268,
              -25.4215837
            ],
            [
              -49.2676172,
              -25.420862
            ],
            [
              -49.2675763,
              -25.4207212
            ],
            [
              -49.267115,
              -25.4191332
            ],
            [
              -49.2670916,
              -25.4190525
            ],
            [
              -49.2655047,
              -25.419158
            ],
            [
              -49.2656295,
              -25.4179097
            ],
            [
              -49.2656354,
              -25.4178511
            ],
            [
              -49.2656843,
              -25.4173627
            ],
            [
              -49.2656951,
              -25.4172544
            ],
            [
              -49.26558,
              -25.4172123
            ],
            [
              -49.2655781,
              -25.4171453
            ],
            [
              -49.2655431,
              -25.4158884
            ],
            [
              -49.2655172,
              -25.4149609
            ],
            [
              -49.2655037,
              -25.4144771
            ],
            [
              -49.2655014,
              -25.4143595
            ],
            [
              -49.2655181,
              -25.4140309
            ],
            [
              -49.265594,
              -25.4133094
            ],
            [
              -49.2656035,
              -25.413271
            ],
            [
              -49.26562,
              -25.4132383
            ],
            [
              -49.2656553,
              -25.4131959
            ],
            [
              -49.2657291,
              -25.4131074
            ],
            [
              -49.2657462,
              -25.4129676
            ],
            [
              -49.2657497,
              -25.4129388
            ],
            [
              -49.2657505,
              -25.4129024
            ],
            [
              -49.265748,
              -25.4128665
            ],
            [
              -49.2657251,
              -25.4127934
            ],
            [
              -49.2657061,
              -25.4127586
            ],
            [
              -49.2656933,
              -25.4127057
            ],
            [
              -49.2656979,
              -25.4126505
            ],
            [
              -49.265716,
              -25.4126069
            ],
            [
              -49.2657463,
              -25.4125693
            ],
            [
              -49.2657866,
              -25.4125404
            ],
            [
              -49.2658341,
              -25.4125224
            ],
            [
              -49.2657901,
              -25.4124683
            ],
            [
              -49.2657742,
              -25.4124396
            ],
            [
              -49.2657644,
              -25.4124068
            ],
            [
              -49.2657634,
              -25.4123718
            ],
            [
              -49.2657966,
              -25.4121115
            ],
            [
              -49.2658031,
              -25.4120609
            ],
            [
              -49.2659071,
              -25.4112477
            ],
            [
              -49.2659283,
              -25.4110817
            ],
            [
              -49.2659503,
              -25.4109098
            ],
            [
              -49.2659559,
              -25.4108652
            ],
            [
              -49.2660368,
              -25.4102329
            ],
            [
              -49.2660633,
              -25.4100251
            ],
            [
              -49.266139,
              -25.4094334
            ],
            [
              -49.2661579,
              -25.4093204
            ],
            [
              -49.2662144,
              -25.4090714
            ],
            [
              -49.2663262,
              -25.4087943
            ],
            [
              -49.2663366,
              -25.4087537
            ],
            [
              -49.2663369,
              -25.408713
            ],
            [
              -49.2663284,
              -25.4086493
            ],
            [
              -49.2663853,
              -25.4086119
            ],
            [
              -49.2664422,
              -25.4085744
            ],
            [
              -49.2664747,
              -25.4085465
            ],
            [
              -49.2664963,
              -25.4085198
            ],
            [
              -49.2665761,
              -25.4083721
            ],
            [
              -49.2667164,
              -25.4081047
            ],
            [
              -49.2668137,
              -25.4079142
            ],
            [
              -49.2668611,
              -25.4078022
            ],
            [
              -49.2668919,
              -25.4076893
            ],
            [
              -49.2669159,
              -25.4075648
            ],
            [
              -49.2669344,
              -25.4074324
            ],
            [
              -49.2669525,
              -25.4072548
            ],
            [
              -49.2670277,
              -25.4072506
            ],
            [
              -49.2686636,
              -25.4071596
            ],
            [
              -49.2695693,
              -25.4071092
            ],
            [
              -49.2701336,
              -25.4070778
            ],
            [
              -49.2703744,
              -25.40712
            ],
            [
              -49.2705703,
              -25.4071543
            ],
            [
              -49.2713096,
              -25.4072838
            ],
            [
              -49.2714903,
              -25.4073154
            ],
            [
              -49.2715411,
              -25.4073248
            ],
            [
              -49.2716195,
              -25.4073394
            ],
            [
              -49.2716505,
              -25.4074093
            ],
            [
              -49.2716681,
              -25.4074491
            ],
            [
              -49.2717264,
              -25.4075807
            ],
            [
              -49.2717676,
              -25.4076736
            ],
            [
              -49.2718555,
              -25.407872
            ],
            [
              -49.2718742,
              -25.4079355
            ],
            [
              -49.2718851,
              -25.4079919
            ],
            [
              -49.2718893,
              -25.4080488
            ]
          ]
        ]
      }
    },
    {
      "type": "Feature",
      "properties": {
        "name": "Batel",
        "category": "Residential",
        "osmType": "R",
        "osmId": 5621946,
        "source": "https://www.openstreetmap.org/relation/5621946",
        "retrievedAt": "2026-09-24",
        "stroke": "#0f766e",
        "stroke-width": 2,
        "stroke-opacity": 0.95,
        "fill": "#0f766e",
        "fill-opacity": 0.16
      },
      "geometry": {
        "type": "Polygon",
        "coordinates": [
          [
            [
              -49.2988727,
              -25.4404966
            ],
            [
              -49.2979404,
              -25.4415734
            ],
            [
              -49.2978585,
              -25.4417742
            ],
            [
              -49.2975318,
              -25.4426181
            ],
            [
              -49.2974886,
              -25.4427199
            ],
            [
              -49.2974515,
              -25.4427928
            ],
            [
              -49.2973908,
              -25.4428948
            ],
            [
              -49.2972795,
              -25.4430521
            ],
            [
              -49.2971693,
              -25.4431947
            ],
            [
              -49.2970698,
              -25.4433159
            ],
            [
              -49.2969695,
              -25.4434291
            ],
            [
              -49.2968893,
              -25.4435146
            ],
            [
              -49.2967805,
              -25.4436195
            ],
            [
              -49.2963436,
              -25.4440206
            ],
            [
              -49.2963062,
              -25.4440624
            ],
            [
              -49.2962684,
              -25.4441203
            ],
            [
              -49.2962003,
              -25.444251
            ],
            [
              -49.2961335,
              -25.4443977
            ],
            [
              -49.2955076,
              -25.4457737
            ],
            [
              -49.2957964,
              -25.4459749
            ],
            [
              -49.2961829,
              -25.446244
            ],
            [
              -49.2961616,
              -25.4462804
            ],
            [
              -49.2956114,
              -25.4472215
            ],
            [
              -49.295456,
              -25.4471559
            ],
            [
              -49.2948735,
              -25.448359
            ],
            [
              -49.2948345,
              -25.4484384
            ],
            [
              -49.2940741,
              -25.4481467
            ],
            [
              -49.2938876,
              -25.4480751
            ],
            [
              -49.2925067,
              -25.4475441
            ],
            [
              -49.2921703,
              -25.447415
            ],
            [
              -49.2913928,
              -25.4471156
            ],
            [
              -49.2904236,
              -25.4467448
            ],
            [
              -49.2892909,
              -25.4462988
            ],
            [
              -49.2883935,
              -25.4459396
            ],
            [
              -49.288259,
              -25.4458754
            ],
            [
              -49.2881706,
              -25.4458131
            ],
            [
              -49.2880539,
              -25.4457309
            ],
            [
              -49.287917,
              -25.4456731
            ],
            [
              -49.2875109,
              -25.4455203
            ],
            [
              -49.2869341,
              -25.4453002
            ],
            [
              -49.2866143,
              -25.4451775
            ],
            [
              -49.2864099,
              -25.4450991
            ],
            [
              -49.2860102,
              -25.4450245
            ],
            [
              -49.2856919,
              -25.4449051
            ],
            [
              -49.2855585,
              -25.4448537
            ],
            [
              -49.2853139,
              -25.4447593
            ],
            [
              -49.2849405,
              -25.4446444
            ],
            [
              -49.2844382,
              -25.4444358
            ],
            [
              -49.2824444,
              -25.4436819
            ],
            [
              -49.2816853,
              -25.4433971
            ],
            [
              -49.2815147,
              -25.4433322
            ],
            [
              -49.2810148,
              -25.4431212
            ],
            [
              -49.2805727,
              -25.4429507
            ],
            [
              -49.280362,
              -25.4428687
            ],
            [
              -49.2777111,
              -25.441869
            ],
            [
              -49.2777421,
              -25.4418029
            ],
            [
              -49.2777544,
              -25.441776
            ],
            [
              -49.2779255,
              -25.4414129
            ],
            [
              -49.2782838,
              -25.4406522
            ],
            [
              -49.2783358,
              -25.4405419
            ],
            [
              -49.2785938,
              -25.4399943
            ],
            [
              -49.279102,
              -25.4389156
            ],
            [
              -49.2793266,
              -25.4387128
            ],
            [
              -49.2799882,
              -25.4381158
            ],
            [
              -49.2802248,
              -25.4379022
            ],
            [
              -49.2807106,
              -25.4374637
            ],
            [
              -49.2816835,
              -25.4365857
            ],
            [
              -49.2819361,
              -25.4363578
            ],
            [
              -49.282016,
              -25.4362856
            ],
            [
              -49.2827734,
              -25.4356021
            ],
            [
              -49.2832172,
              -25.4349523
            ],
            [
              -49.2835448,
              -25.4344732
            ],
            [
              -49.2843591,
              -25.4347933
            ],
            [
              -49.2846063,
              -25.4348905
            ],
            [
              -49.2855505,
              -25.4352616
            ],
            [
              -49.2862347,
              -25.4355306
            ],
            [
              -49.2868091,
              -25.4357564
            ],
            [
              -49.2871416,
              -25.4358871
            ],
            [
              -49.2872069,
              -25.4359127
            ],
            [
              -49.2872985,
              -25.4359487
            ],
            [
              -49.2880572,
              -25.436247
            ],
            [
              -49.2899487,
              -25.4369905
            ],
            [
              -49.2912502,
              -25.4375021
            ],
            [
              -49.2918918,
              -25.4377543
            ],
            [
              -49.2933536,
              -25.4383289
            ],
            [
              -49.2945306,
              -25.4387916
            ],
            [
              -49.2953739,
              -25.4391231
            ],
            [
              -49.2957372,
              -25.4392659
            ],
            [
              -49.2968865,
              -25.4397178
            ],
            [
              -49.2980428,
              -25.4401722
            ],
            [
              -49.2988727,
              -25.4404966
            ]
          ]
        ]
      }
    },
    {
      "type": "Feature",
      "properties": {
        "name": "Bigorrilho",
        "category": "Hip",
        "osmType": "R",
        "osmId": 6228349,
        "source": "https://www.openstreetmap.org/relation/6228349",
        "retrievedAt": "2026-09-24",
        "stroke": "#f43f5e",
        "stroke-width": 2,
        "stroke-opacity": 0.95,
        "fill": "#f43f5e",
        "fill-opacity": 0.16
      },
      "geometry": {
        "type": "Polygon",
        "coordinates": [
          [
            [
              -49.3138489,
              -25.4320213
            ],
            [
              -49.3137037,
              -25.4319773
            ],
            [
              -49.3135155,
              -25.4320598
            ],
            [
              -49.3133233,
              -25.432149
            ],
            [
              -49.3131957,
              -25.4322083
            ],
            [
              -49.3130903,
              -25.4322582
            ],
            [
              -49.3129411,
              -25.4323377
            ],
            [
              -49.3127941,
              -25.4324228
            ],
            [
              -49.3126556,
              -25.432506
            ],
            [
              -49.3124751,
              -25.4326233
            ],
            [
              -49.3122881,
              -25.4327509
            ],
            [
              -49.3121031,
              -25.4328866
            ],
            [
              -49.3116887,
              -25.4332054
            ],
            [
              -49.3113188,
              -25.4334894
            ],
            [
              -49.3111556,
              -25.4336104
            ],
            [
              -49.3110979,
              -25.4336537
            ],
            [
              -49.3109791,
              -25.4337416
            ],
            [
              -49.3108549,
              -25.4338337
            ],
            [
              -49.3105046,
              -25.4340958
            ],
            [
              -49.3104302,
              -25.4341522
            ],
            [
              -49.3101377,
              -25.4343462
            ],
            [
              -49.3100586,
              -25.4342893
            ],
            [
              -49.3100004,
              -25.4342355
            ],
            [
              -49.30994,
              -25.4341987
            ],
            [
              -49.3098691,
              -25.4341687
            ],
            [
              -49.3097796,
              -25.4341285
            ],
            [
              -49.3095135,
              -25.4341275
            ],
            [
              -49.3089911,
              -25.4341512
            ],
            [
              -49.3085489,
              -25.4341539
            ],
            [
              -49.3082635,
              -25.4341557
            ],
            [
              -49.3081892,
              -25.434164
            ],
            [
              -49.3081354,
              -25.4341728
            ],
            [
              -49.308076,
              -25.4341866
            ],
            [
              -49.3080268,
              -25.4342099
            ],
            [
              -49.3076081,
              -25.4345488
            ],
            [
              -49.3073158,
              -25.4347755
            ],
            [
              -49.3068505,
              -25.4352087
            ],
            [
              -49.3065919,
              -25.4354494
            ],
            [
              -49.306463,
              -25.4355708
            ],
            [
              -49.3063959,
              -25.4356339
            ],
            [
              -49.3063708,
              -25.4356576
            ],
            [
              -49.3062956,
              -25.435729
            ],
            [
              -49.3062161,
              -25.4358015
            ],
            [
              -49.3061955,
              -25.4358218
            ],
            [
              -49.3057512,
              -25.436259
            ],
            [
              -49.3056693,
              -25.4363243
            ],
            [
              -49.3055921,
              -25.4363711
            ],
            [
              -49.305502,
              -25.4364106
            ],
            [
              -49.3052881,
              -25.4364895
            ],
            [
              -49.3044675,
              -25.4367227
            ],
            [
              -49.3043625,
              -25.4367606
            ],
            [
              -49.3042652,
              -25.4368012
            ],
            [
              -49.3041776,
              -25.436847
            ],
            [
              -49.3040903,
              -25.4369044
            ],
            [
              -49.3036726,
              -25.4372072
            ],
            [
              -49.3034585,
              -25.437355
            ],
            [
              -49.3028009,
              -25.437825
            ],
            [
              -49.3024803,
              -25.4380588
            ],
            [
              -49.3023298,
              -25.4381708
            ],
            [
              -49.3022319,
              -25.4382467
            ],
            [
              -49.3021354,
              -25.4383243
            ],
            [
              -49.3020501,
              -25.4383979
            ],
            [
              -49.3017124,
              -25.4387087
            ],
            [
              -49.3015792,
              -25.4388314
            ],
            [
              -49.3015036,
              -25.4388976
            ],
            [
              -49.3014068,
              -25.4389766
            ],
            [
              -49.3013123,
              -25.4390505
            ],
            [
              -49.3011963,
              -25.4391303
            ],
            [
              -49.301114,
              -25.4391829
            ],
            [
              -49.3010211,
              -25.4392355
            ],
            [
              -49.3009472,
              -25.4392718
            ],
            [
              -49.3008602,
              -25.4393102
            ],
            [
              -49.3001204,
              -25.4396184
            ],
            [
              -49.2995395,
              -25.4398605
            ],
            [
              -49.2994519,
              -25.4398999
            ],
            [
              -49.2993874,
              -25.4399392
            ],
            [
              -49.2993256,
              -25.4399841
            ],
            [
              -49.2992618,
              -25.4400367
            ],
            [
              -49.2992076,
              -25.4400957
            ],
            [
              -49.2988727,
              -25.4404966
            ],
            [
              -49.2980428,
              -25.4401722
            ],
            [
              -49.2968865,
              -25.4397178
            ],
            [
              -49.2957372,
              -25.4392659
            ],
            [
              -49.2953739,
              -25.4391231
            ],
            [
              -49.2945306,
              -25.4387916
            ],
            [
              -49.2933536,
              -25.4383289
            ],
            [
              -49.2918918,
              -25.4377543
            ],
            [
              -49.2912502,
              -25.4375021
            ],
            [
              -49.2899487,
              -25.4369905
            ],
            [
              -49.2880572,
              -25.436247
            ],
            [
              -49.2872985,
              -25.4359487
            ],
            [
              -49.2872069,
              -25.4359127
            ],
            [
              -49.2871416,
              -25.4358871
            ],
            [
              -49.2868091,
              -25.4357564
            ],
            [
              -49.2862347,
              -25.4355306
            ],
            [
              -49.2855505,
              -25.4352616
            ],
            [
              -49.2846063,
              -25.4348905
            ],
            [
              -49.2843591,
              -25.4347933
            ],
            [
              -49.2835448,
              -25.4344732
            ],
            [
              -49.2840946,
              -25.4332978
            ],
            [
              -49.2846589,
              -25.4320915
            ],
            [
              -49.2847948,
              -25.431801
            ],
            [
              -49.285103,
              -25.4311421
            ],
            [
              -49.2852108,
              -25.4309116
            ],
            [
              -49.2853945,
              -25.4305189
            ],
            [
              -49.2855757,
              -25.4301315
            ],
            [
              -49.2858234,
              -25.4296041
            ],
            [
              -49.2859645,
              -25.4293038
            ],
            [
              -49.2859955,
              -25.429234
            ],
            [
              -49.2882035,
              -25.4288279
            ],
            [
              -49.2883396,
              -25.428807
            ],
            [
              -49.2885315,
              -25.4287899
            ],
            [
              -49.2886431,
              -25.4288321
            ],
            [
              -49.2898625,
              -25.4293126
            ],
            [
              -49.2910253,
              -25.4297707
            ],
            [
              -49.2920854,
              -25.4301884
            ],
            [
              -49.2923449,
              -25.4302906
            ],
            [
              -49.2924462,
              -25.4302358
            ],
            [
              -49.2924986,
              -25.4302082
            ],
            [
              -49.294006,
              -25.4294148
            ],
            [
              -49.2942351,
              -25.4293326
            ],
            [
              -49.2943334,
              -25.4292384
            ],
            [
              -49.2944118,
              -25.4291804
            ],
            [
              -49.294509,
              -25.4291277
            ],
            [
              -49.2946408,
              -25.4290665
            ],
            [
              -49.2949711,
              -25.4289351
            ],
            [
              -49.2950791,
              -25.4288903
            ],
            [
              -49.2951784,
              -25.4288417
            ],
            [
              -49.2954511,
              -25.4286935
            ],
            [
              -49.295934,
              -25.4284192
            ],
            [
              -49.296264,
              -25.4282312
            ],
            [
              -49.2963743,
              -25.4281659
            ],
            [
              -49.2964975,
              -25.4280892
            ],
            [
              -49.2968164,
              -25.4278833
            ],
            [
              -49.2969277,
              -25.4278144
            ],
            [
              -49.2970229,
              -25.4277668
            ],
            [
              -49.297507,
              -25.4275457
            ],
            [
              -49.2976717,
              -25.4274728
            ],
            [
              -49.298121,
              -25.4272592
            ],
            [
              -49.2983142,
              -25.4271636
            ],
            [
              -49.2984962,
              -25.4270674
            ],
            [
              -49.2985991,
              -25.4270088
            ],
            [
              -49.2987439,
              -25.4269211
            ],
            [
              -49.2988614,
              -25.4268439
            ],
            [
              -49.2989718,
              -25.4267647
            ],
            [
              -49.2990703,
              -25.4266846
            ],
            [
              -49.2991901,
              -25.4265753
            ],
            [
              -49.2993375,
              -25.4264207
            ],
            [
              -49.2995227,
              -25.4262184
            ],
            [
              -49.2996354,
              -25.4260954
            ],
            [
              -49.2999118,
              -25.4258788
            ],
            [
              -49.3000562,
              -25.4257656
            ],
            [
              -49.3006393,
              -25.4253067
            ],
            [
              -49.3009593,
              -25.4250579
            ],
            [
              -49.301011,
              -25.4250089
            ],
            [
              -49.3010504,
              -25.4249667
            ],
            [
              -49.3010863,
              -25.4249226
            ],
            [
              -49.3011197,
              -25.4248738
            ],
            [
              -49.3012019,
              -25.4247296
            ],
            [
              -49.3012492,
              -25.4246638
            ],
            [
              -49.3013017,
              -25.424608
            ],
            [
              -49.3013564,
              -25.4245695
            ],
            [
              -49.3014271,
              -25.4245383
            ],
            [
              -49.3016013,
              -25.4244774
            ],
            [
              -49.3016764,
              -25.424443
            ],
            [
              -49.301738,
              -25.424405
            ],
            [
              -49.301789,
              -25.4243591
            ],
            [
              -49.3018262,
              -25.424313
            ],
            [
              -49.3018549,
              -25.4242672
            ],
            [
              -49.3018971,
              -25.4241649
            ],
            [
              -49.3019277,
              -25.4241063
            ],
            [
              -49.3019719,
              -25.4240456
            ],
            [
              -49.3020295,
              -25.4239861
            ],
            [
              -49.3020954,
              -25.4239379
            ],
            [
              -49.3021602,
              -25.4239046
            ],
            [
              -49.3022452,
              -25.4238754
            ],
            [
              -49.302768,
              -25.4237164
            ],
            [
              -49.3028972,
              -25.4236746
            ],
            [
              -49.3029725,
              -25.4236455
            ],
            [
              -49.3030475,
              -25.4236078
            ],
            [
              -49.3031147,
              -25.4235607
            ],
            [
              -49.3034146,
              -25.4233405
            ],
            [
              -49.3035082,
              -25.4232767
            ],
            [
              -49.303593,
              -25.4232284
            ],
            [
              -49.3036887,
              -25.4231855
            ],
            [
              -49.3037933,
              -25.423147
            ],
            [
              -49.3042323,
              -25.4230118
            ],
            [
              -49.3043725,
              -25.4229755
            ],
            [
              -49.3044549,
              -25.4229575
            ],
            [
              -49.3046128,
              -25.4229369
            ],
            [
              -49.3047614,
              -25.4229278
            ],
            [
              -49.3049074,
              -25.4229292
            ],
            [
              -49.3050478,
              -25.4229404
            ],
            [
              -49.3052568,
              -25.4229647
            ],
            [
              -49.305507,
              -25.4229936
            ],
            [
              -49.3055584,
              -25.4229995
            ],
            [
              -49.3055951,
              -25.4230033
            ],
            [
              -49.3056379,
              -25.4230082
            ],
            [
              -49.3064568,
              -25.4231104
            ],
            [
              -49.306656,
              -25.4231374
            ],
            [
              -49.3067587,
              -25.4231392
            ],
            [
              -49.3067323,
              -25.4234491
            ],
            [
              -49.3067165,
              -25.4239399
            ],
            [
              -49.3068084,
              -25.4243651
            ],
            [
              -49.3069696,
              -25.4251113
            ],
            [
              -49.3068431,
              -25.4263755
            ],
            [
              -49.3068668,
              -25.4281683
            ],
            [
              -49.3067929,
              -25.4287743
            ],
            [
              -49.3069347,
              -25.4291018
            ],
            [
              -49.307452,
              -25.4296182
            ],
            [
              -49.308648,
              -25.4306436
            ],
            [
              -49.3090628,
              -25.430897
            ],
            [
              -49.3103466,
              -25.4312181
            ],
            [
              -49.3111521,
              -25.4314718
            ],
            [
              -49.3113598,
              -25.4315306
            ],
            [
              -49.3116383,
              -25.4316045
            ],
            [
              -49.3121478,
              -25.4316041
            ],
            [
              -49.3126669,
              -25.4315053
            ],
            [
              -49.3129382,
              -25.4313298
            ],
            [
              -49.3130497,
              -25.4312403
            ],
            [
              -49.3130993,
              -25.4312051
            ],
            [
              -49.3131805,
              -25.4312588
            ],
            [
              -49.313551,
              -25.4316104
            ],
            [
              -49.3136599,
              -25.4317117
            ],
            [
              -49.3137062,
              -25.4317913
            ],
            [
              -49.3138489,
              -25.4320213
            ]
          ]
        ]
      }
    }
  ]
}
