{
  "type": "FeatureCollection",
  "features": [
    {
      "type": "Feature",
      "properties": {
        "name": "San Sebastián",
        "category": "Hip",
        "osmType": "relation",
        "osmId": 1925291,
        "stroke": "#f43f5e",
        "stroke-width": 2,
        "stroke-opacity": 0.95,
        "fill": "#f43f5e",
        "fill-opacity": 0.16
      },
      "geometry": {
        "type": "Polygon",
        "coordinates": [
          [
            [
              -71.9684959,
              -13.5600945
            ],
            [
              -71.9678775,
              -13.5612135
            ],
            [
              -71.9682309,
              -13.5626565
            ],
            [
              -71.9681719,
              -13.5631571
            ],
            [
              -71.9654067,
              -13.5656961
            ],
            [
              -71.963899,
              -13.5665254
            ],
            [
              -71.9618447,
              -13.570012
            ],
            [
              -71.9590179,
              -13.5732912
            ],
            [
              -71.9569447,
              -13.5742525
            ],
            [
              -71.95604,
              -13.5755151
            ],
            [
              -71.9542872,
              -13.577136
            ],
            [
              -71.949406,
              -13.5799819
            ],
            [
              -71.9475306,
              -13.5835279
            ],
            [
              -71.9445796,
              -13.5860574
            ],
            [
              -71.9427784,
              -13.5870155
            ],
            [
              -71.9413604,
              -13.5888167
            ],
            [
              -71.9364547,
              -13.5920744
            ],
            [
              -71.9346535,
              -13.5928791
            ],
            [
              -71.931396,
              -13.5948337
            ],
            [
              -71.9285599,
              -13.5970566
            ],
            [
              -71.9268735,
              -13.5977847
            ],
            [
              -71.9265286,
              -13.5980914
            ],
            [
              -71.9260687,
              -13.5992794
            ],
            [
              -71.9243824,
              -13.6004675
            ],
            [
              -71.9191664,
              -13.6018127
            ],
            [
              -71.9180014,
              -13.6019354
            ],
            [
              -71.9175107,
              -13.6016287
            ],
            [
              -71.9170509,
              -13.6011687
            ],
            [
              -71.9162844,
              -13.5996359
            ],
            [
              -71.9159165,
              -13.5970604
            ],
            [
              -71.9164377,
              -13.5944236
            ],
            [
              -71.916407,
              -13.5939945
            ],
            [
              -71.9161311,
              -13.5936879
            ],
            [
              -71.9146901,
              -13.5937491
            ],
            [
              -71.9126971,
              -13.5943317
            ],
            [
              -71.9088034,
              -13.5944544
            ],
            [
              -71.9077916,
              -13.5946996
            ],
            [
              -71.906044,
              -13.5943624
            ],
            [
              -71.9059669,
              -13.593619
            ],
            [
              -71.9090353,
              -13.591429
            ],
            [
              -71.9156056,
              -13.5847018
            ],
            [
              -71.9176851,
              -13.5711168
            ],
            [
              -71.9178124,
              -13.5633494
            ],
            [
              -71.9173928,
              -13.5603364
            ],
            [
              -71.9171989,
              -13.559856
            ],
            [
              -71.9164846,
              -13.5591749
            ],
            [
              -71.9163395,
              -13.5579768
            ],
            [
              -71.9161292,
              -13.5577625
            ],
            [
              -71.9161829,
              -13.557276
            ],
            [
              -71.9153737,
              -13.5548082
            ],
            [
              -71.9123658,
              -13.5499575
            ],
            [
              -71.9116373,
              -13.5493946
            ],
            [
              -71.9127207,
              -13.5464163
            ],
            [
              -71.9122646,
              -13.5440584
            ],
            [
              -71.9118585,
              -13.5429306
            ],
            [
              -71.9113984,
              -13.5423732
            ],
            [
              -71.9054877,
              -13.5429578
            ],
            [
              -71.90373,
              -13.5416517
            ],
            [
              -71.9048803,
              -13.5407975
            ],
            [
              -71.9063686,
              -13.5369966
            ],
            [
              -71.9040343,
              -13.5317218
            ],
            [
              -71.9024859,
              -13.5289239
            ],
            [
              -71.9005437,
              -13.5277647
            ],
            [
              -71.897,
              -13.5249989
            ],
            [
              -71.895962,
              -13.523469
            ],
            [
              -71.8940117,
              -13.5213449
            ],
            [
              -71.8921389,
              -13.5208082
            ],
            [
              -71.8903432,
              -13.5169104
            ],
            [
              -71.8891881,
              -13.5133064
            ],
            [
              -71.8890957,
              -13.5097486
            ],
            [
              -71.8884489,
              -13.5082239
            ],
            [
              -71.8861051,
              -13.5064504
            ],
            [
              -71.8852537,
              -13.5053346
            ],
            [
              -71.8850644,
              -13.50421
            ],
            [
              -71.8851215,
              -13.5023105
            ],
            [
              -71.8834334,
              -13.5000056
            ],
            [
              -71.8829489,
              -13.4980972
            ],
            [
              -71.8851789,
              -13.4970724
            ],
            [
              -71.8868626,
              -13.4959931
            ],
            [
              -71.8885679,
              -13.4933812
            ],
            [
              -71.8911082,
              -13.492001
            ],
            [
              -71.8934806,
              -13.4894677
            ],
            [
              -71.8955915,
              -13.4882011
            ],
            [
              -71.8975416,
              -13.4856077
            ],
            [
              -71.9038545,
              -13.4812651
            ],
            [
              -71.9047592,
              -13.4807424
            ],
            [
              -71.9059252,
              -13.4806217
            ],
            [
              -71.9073727,
              -13.4799382
            ],
            [
              -71.9121037,
              -13.4768821
            ],
            [
              -71.9148217,
              -13.4761295
            ],
            [
              -71.9187941,
              -13.474206
            ],
            [
              -71.9208145,
              -13.472627
            ],
            [
              -71.9218467,
              -13.4720734
            ],
            [
              -71.9279517,
              -13.4710699
            ],
            [
              -71.9294571,
              -13.4700245
            ],
            [
              -71.9304189,
              -13.46831
            ],
            [
              -71.9316732,
              -13.4675991
            ],
            [
              -71.9337989,
              -13.4685225
            ],
            [
              -71.9367976,
              -13.4717711
            ],
            [
              -71.9378685,
              -13.4746985
            ],
            [
              -71.9387254,
              -13.4762692
            ],
            [
              -71.9393679,
              -13.4779827
            ],
            [
              -71.9397606,
              -13.4783397
            ],
            [
              -71.9419382,
              -13.4783397
            ],
            [
              -71.9446157,
              -13.4788395
            ],
            [
              -71.9463292,
              -13.478728
            ],
            [
              -71.9466862,
              -13.480156
            ],
            [
              -71.9463292,
              -13.4812269
            ],
            [
              -71.9453475,
              -13.4878312
            ],
            [
              -71.9448566,
              -13.4921151
            ],
            [
              -71.9450351,
              -13.4951942
            ],
            [
              -71.9445889,
              -13.4980055
            ],
            [
              -71.9463739,
              -13.5012184
            ],
            [
              -71.9462846,
              -13.5018877
            ],
            [
              -71.9457045,
              -13.5035835
            ],
            [
              -71.943741,
              -13.5067517
            ],
            [
              -71.9429379,
              -13.5084921
            ],
            [
              -71.941956,
              -13.5096524
            ],
            [
              -71.940903,
              -13.5103509
            ],
            [
              -71.940373,
              -13.5110958
            ],
            [
              -71.9410636,
              -13.5130884
            ],
            [
              -71.945258,
              -13.5205429
            ],
            [
              -71.9445254,
              -13.5216816
            ],
            [
              -71.9442036,
              -13.5227917
            ],
            [
              -71.9437891,
              -13.5234412
            ],
            [
              -71.9414728,
              -13.5260831
            ],
            [
              -71.9412597,
              -13.5271387
            ],
            [
              -71.9409882,
              -13.5275829
            ],
            [
              -71.9410248,
              -13.5284393
            ],
            [
              -71.9402396,
              -13.5302035
            ],
            [
              -71.9390994,
              -13.5349905
            ],
            [
              -71.9385407,
              -13.5363243
            ],
            [
              -71.939138,
              -13.5397059
            ],
            [
              -71.9401191,
              -13.5402031
            ],
            [
              -71.9406075,
              -13.5401154
            ],
            [
              -71.9413644,
              -13.5405852
            ],
            [
              -71.9464716,
              -13.5395489
            ],
            [
              -71.9475812,
              -13.5390498
            ],
            [
              -71.9500939,
              -13.5384785
            ],
            [
              -71.9525274,
              -13.5373555
            ],
            [
              -71.9533829,
              -13.537166
            ],
            [
              -71.9546473,
              -13.5374162
            ],
            [
              -71.9586202,
              -13.5481799
            ],
            [
              -71.9667676,
              -13.5558368
            ],
            [
              -71.9677302,
              -13.5575915
            ],
            [
              -71.9678775,
              -13.5587105
            ],
            [
              -71.9684075,
              -13.5597411
            ],
            [
              -71.9684959,
              -13.5600945
            ]
          ]
        ]
      }
    }
  ]
}
