{
  "type": "FeatureCollection",
  "features": [
    {
      "type": "Feature",
      "properties": {
        "name": "Trindade",
        "category": "Tourist",
        "osmType": "relation",
        "osmId": 20579078,
        "stroke": "#f59e0b",
        "stroke-width": 2,
        "stroke-opacity": 0.95,
        "fill": "#f59e0b",
        "fill-opacity": 0.16
      },
      "geometry": {
        "type": "Polygon",
        "coordinates": [
          [
            [
              -48.5337255,
              -27.5877773
            ],
            [
              -48.5335381,
              -27.5887201
            ],
            [
              -48.532632,
              -27.5903499
            ],
            [
              -48.5331759,
              -27.5919791
            ],
            [
              -48.5335263,
              -27.5921526
            ],
            [
              -48.5327496,
              -27.5936278
            ],
            [
              -48.532275,
              -27.5957731
            ],
            [
              -48.5326987,
              -27.5977285
            ],
            [
              -48.5327877,
              -27.5995317
            ],
            [
              -48.5334747,
              -27.6025675
            ],
            [
              -48.5326153,
              -27.6047961
            ],
            [
              -48.5327775,
              -27.6053868
            ],
            [
              -48.5299653,
              -27.6069565
            ],
            [
              -48.5301155,
              -27.6071133
            ],
            [
              -48.5300028,
              -27.6074081
            ],
            [
              -48.5295093,
              -27.6078192
            ],
            [
              -48.5293484,
              -27.6077361
            ],
            [
              -48.5289943,
              -27.6082163
            ],
            [
              -48.5292301,
              -27.608418
            ],
            [
              -48.5289565,
              -27.6090264
            ],
            [
              -48.529627,
              -27.6091122
            ],
            [
              -48.5302386,
              -27.6097299
            ],
            [
              -48.5284579,
              -27.6110279
            ],
            [
              -48.5265727,
              -27.6087557
            ],
            [
              -48.526157,
              -27.6089704
            ],
            [
              -48.5255314,
              -27.6096722
            ],
            [
              -48.5256426,
              -27.6097507
            ],
            [
              -48.5254419,
              -27.6099729
            ],
            [
              -48.5256206,
              -27.6100978
            ],
            [
              -48.5247186,
              -27.6110752
            ],
            [
              -48.5244358,
              -27.6108593
            ],
            [
              -48.5222613,
              -27.6130571
            ],
            [
              -48.5208542,
              -27.6139687
            ],
            [
              -48.5201864,
              -27.6151214
            ],
            [
              -48.5193512,
              -27.6160666
            ],
            [
              -48.5195197,
              -27.6171528
            ],
            [
              -48.5183275,
              -27.6187187
            ],
            [
              -48.517437,
              -27.6184306
            ],
            [
              -48.517024,
              -27.6185813
            ],
            [
              -48.516796,
              -27.6192746
            ],
            [
              -48.5163105,
              -27.6191883
            ],
            [
              -48.5153213,
              -27.6200581
            ],
            [
              -48.514256,
              -27.6246476
            ],
            [
              -48.5128634,
              -27.6270753
            ],
            [
              -48.509871,
              -27.6302785
            ],
            [
              -48.5091865,
              -27.6324571
            ],
            [
              -48.5060944,
              -27.6314192
            ],
            [
              -48.5046353,
              -27.6295181
            ],
            [
              -48.5017171,
              -27.6268186
            ],
            [
              -48.5006442,
              -27.6267425
            ],
            [
              -48.498846,
              -27.6275315
            ],
            [
              -48.497683,
              -27.6251456
            ],
            [
              -48.4973826,
              -27.6224839
            ],
            [
              -48.4963526,
              -27.6191378
            ],
            [
              -48.4959235,
              -27.6141944
            ],
            [
              -48.4934344,
              -27.6079198
            ],
            [
              -48.4907736,
              -27.6049535
            ],
            [
              -48.4881684,
              -27.6052363
            ],
            [
              -48.4878055,
              -27.605103
            ],
            [
              -48.4844039,
              -27.6016745
            ],
            [
              -48.4807776,
              -27.5996208
            ],
            [
              -48.4798334,
              -27.5988221
            ],
            [
              -48.479533,
              -27.5957795
            ],
            [
              -48.4790075,
              -27.5950422
            ],
            [
              -48.4727638,
              -27.5899362
            ],
            [
              -48.4732517,
              -27.5879075
            ],
            [
              -48.4729298,
              -27.5872133
            ],
            [
              -48.4737302,
              -27.5848347
            ],
            [
              -48.4745606,
              -27.5796629
            ],
            [
              -48.4737452,
              -27.5775517
            ],
            [
              -48.4742125,
              -27.5765371
            ],
            [
              -48.479527,
              -27.5760529
            ],
            [
              -48.4843825,
              -27.5703704
            ],
            [
              -48.4857987,
              -27.5698378
            ],
            [
              -48.4903477,
              -27.5689628
            ],
            [
              -48.492193,
              -27.5688487
            ],
            [
              -48.4940384,
              -27.569115
            ],
            [
              -48.4967421,
              -27.570066
            ],
            [
              -48.4973429,
              -27.5697997
            ],
            [
              -48.4983548,
              -27.5684772
            ],
            [
              -48.5032222,
              -27.5663858
            ],
            [
              -48.5046639,
              -27.5663537
            ],
            [
              -48.5048075,
              -27.5654196
            ],
            [
              -48.5045486,
              -27.5644076
            ],
            [
              -48.5049455,
              -27.5643309
            ],
            [
              -48.5053636,
              -27.5663778
            ],
            [
              -48.5057923,
              -27.5669592
            ],
            [
              -48.51005,
              -27.5678282
            ],
            [
              -48.5119252,
              -27.568943
            ],
            [
              -48.5123024,
              -27.5695422
            ],
            [
              -48.5132219,
              -27.5730159
            ],
            [
              -48.5170818,
              -27.5729441
            ],
            [
              -48.5175402,
              -27.5736738
            ],
            [
              -48.5181732,
              -27.5740875
            ],
            [
              -48.5192807,
              -27.5732948
            ],
            [
              -48.5204181,
              -27.573084
            ],
            [
              -48.5231028,
              -27.5737299
            ],
            [
              -48.5246305,
              -27.5739696
            ],
            [
              -48.5254258,
              -27.5738959
            ],
            [
              -48.525757,
              -27.5738056
            ],
            [
              -48.5262195,
              -27.5730333
            ],
            [
              -48.5265816,
              -27.5728407
            ],
            [
              -48.5272575,
              -27.5739321
            ],
            [
              -48.526382,
              -27.5745984
            ],
            [
              -48.5254474,
              -27.5756688
            ],
            [
              -48.523743,
              -27.5791179
            ],
            [
              -48.5261098,
              -27.5794464
            ],
            [
              -48.5305212,
              -27.5825115
            ],
            [
              -48.5323402,
              -27.5842598
            ],
            [
              -48.5331851,
              -27.5857138
            ],
            [
              -48.5336358,
              -27.5872136
            ],
            [
              -48.5337255,
              -27.5877773
            ]
          ]
        ]
      }
    },
    {
      "type": "Feature",
      "properties": {
        "name": "João Paulo",
        "category": "Residential",
        "osmType": "relation",
        "osmId": 21261639,
        "stroke": "#0f766e",
        "stroke-width": 2,
        "stroke-opacity": 0.95,
        "fill": "#0f766e",
        "fill-opacity": 0.16
      },
      "geometry": {
        "type": "Polygon",
        "coordinates": [
          [
            [
              -48.523587,
              -27.5619176
            ],
            [
              -48.523154,
              -27.5623416
            ],
            [
              -48.5228992,
              -27.5631407
            ],
            [
              -48.5220742,
              -27.5634203
            ],
            [
              -48.5219805,
              -27.56405
            ],
            [
              -48.5215324,
              -27.5645807
            ],
            [
              -48.5206045,
              -27.5647384
            ],
            [
              -48.5199434,
              -27.5654186
            ],
            [
              -48.5190057,
              -27.5658456
            ],
            [
              -48.5175402,
              -27.5669166
            ],
            [
              -48.5170574,
              -27.5675585
            ],
            [
              -48.5160929,
              -27.5701492
            ],
            [
              -48.5168911,
              -27.5720285
            ],
            [
              -48.5170818,
              -27.5729441
            ],
            [
              -48.5132219,
              -27.5730159
            ],
            [
              -48.5123024,
              -27.5695422
            ],
            [
              -48.5117932,
              -27.5688267
            ],
            [
              -48.5102217,
              -27.5678853
            ],
            [
              -48.5062929,
              -27.5671747
            ],
            [
              -48.5054525,
              -27.5665916
            ],
            [
              -48.5050681,
              -27.564696
            ],
            [
              -48.50271,
              -27.5579608
            ],
            [
              -48.499649,
              -27.5524943
            ],
            [
              -48.5013505,
              -27.5517678
            ],
            [
              -48.5042398,
              -27.5510544
            ],
            [
              -48.5047469,
              -27.5505141
            ],
            [
              -48.5058275,
              -27.5506763
            ],
            [
              -48.5086385,
              -27.5491119
            ],
            [
              -48.509354,
              -27.5492689
            ],
            [
              -48.5099709,
              -27.551094
            ],
            [
              -48.5110196,
              -27.5528752
            ],
            [
              -48.5127363,
              -27.5536575
            ],
            [
              -48.5132834,
              -27.5540975
            ],
            [
              -48.5142893,
              -27.5562186
            ],
            [
              -48.5155526,
              -27.5575336
            ],
            [
              -48.5168923,
              -27.5578713
            ],
            [
              -48.5167609,
              -27.5588129
            ],
            [
              -48.5173295,
              -27.5597914
            ],
            [
              -48.5183032,
              -27.5606866
            ],
            [
              -48.5191065,
              -27.5611931
            ],
            [
              -48.5199004,
              -27.5613798
            ],
            [
              -48.5206904,
              -27.5608697
            ],
            [
              -48.521723,
              -27.5609149
            ],
            [
              -48.5219999,
              -27.5606629
            ],
            [
              -48.5228857,
              -27.5609934
            ],
            [
              -48.523162,
              -27.5606117
            ],
            [
              -48.5235778,
              -27.5611254
            ],
            [
              -48.523587,
              -27.5617606
            ],
            [
              -48.523587,
              -27.5619176
            ]
          ]
        ]
      }
    },
    {
      "type": "Feature",
      "properties": {
        "name": "Lagoa da Conceição",
        "category": "Hip",
        "osmType": "relation",
        "osmId": 4218892,
        "stroke": "#f43f5e",
        "stroke-width": 2,
        "stroke-opacity": 0.95,
        "fill": "#f43f5e",
        "fill-opacity": 0.16
      },
      "geometry": {
        "type": "Polygon",
        "coordinates": [
          [
            [
              -48.498846,
              -27.6275315
            ],
            [
              -48.4976254,
              -27.6289887
            ],
            [
              -48.4971317,
              -27.6300912
            ],
            [
              -48.4956301,
              -27.6312849
            ],
            [
              -48.4946428,
              -27.6310024
            ],
            [
              -48.4883417,
              -27.6311237
            ],
            [
              -48.4865763,
              -27.6313769
            ],
            [
              -48.4843855,
              -27.6325927
            ],
            [
              -48.4828728,
              -27.6328247
            ],
            [
              -48.4790811,
              -27.6360305
            ],
            [
              -48.4795632,
              -27.6363425
            ],
            [
              -48.4796576,
              -27.6367462
            ],
            [
              -48.478942,
              -27.6370702
            ],
            [
              -48.4780487,
              -27.6371578
            ],
            [
              -48.475647,
              -27.6388636
            ],
            [
              -48.475923,
              -27.639703
            ],
            [
              -48.4748716,
              -27.6403445
            ],
            [
              -48.4743459,
              -27.6395271
            ],
            [
              -48.4741503,
              -27.6396574
            ],
            [
              -48.4736907,
              -27.6390846
            ],
            [
              -48.4633402,
              -27.6458891
            ],
            [
              -48.4577321,
              -27.6386138
            ],
            [
              -48.4534943,
              -27.6335574
            ],
            [
              -48.4515739,
              -27.6317466
            ],
            [
              -48.448524,
              -27.6293902
            ],
            [
              -48.4478511,
              -27.6290898
            ],
            [
              -48.4471591,
              -27.6292562
            ],
            [
              -48.4471093,
              -27.6294345
            ],
            [
              -48.4474191,
              -27.6295509
            ],
            [
              -48.4473923,
              -27.6298171
            ],
            [
              -48.4465688,
              -27.6302686
            ],
            [
              -48.4461746,
              -27.6302294
            ],
            [
              -48.4459896,
              -27.6297552
            ],
            [
              -48.4453781,
              -27.6294843
            ],
            [
              -48.4448764,
              -27.6297648
            ],
            [
              -48.4446645,
              -27.62964
            ],
            [
              -48.4445666,
              -27.6293525
            ],
            [
              -48.4453834,
              -27.6290471
            ],
            [
              -48.445162,
              -27.6280003
            ],
            [
              -48.4454907,
              -27.6270937
            ],
            [
              -48.4448147,
              -27.6263452
            ],
            [
              -48.4449567,
              -27.6251745
            ],
            [
              -48.4443612,
              -27.6237486
            ],
            [
              -48.4423417,
              -27.6230015
            ],
            [
              -48.4421271,
              -27.6224217
            ],
            [
              -48.4424329,
              -27.6217943
            ],
            [
              -48.4421539,
              -27.6214615
            ],
            [
              -48.4406626,
              -27.6213094
            ],
            [
              -48.4396219,
              -27.6209197
            ],
            [
              -48.4386456,
              -27.620183
            ],
            [
              -48.43849,
              -27.6195128
            ],
            [
              -48.4392481,
              -27.6180514
            ],
            [
              -48.4388523,
              -27.6174576
            ],
            [
              -48.4365401,
              -27.6174095
            ],
            [
              -48.4355155,
              -27.6169057
            ],
            [
              -48.4339262,
              -27.6157344
            ],
            [
              -48.4321922,
              -27.6165872
            ],
            [
              -48.4314755,
              -27.6162114
            ],
            [
              -48.4340113,
              -27.614416
            ],
            [
              -48.4348911,
              -27.6143447
            ],
            [
              -48.4361941,
              -27.6146027
            ],
            [
              -48.4375459,
              -27.6143365
            ],
            [
              -48.438651,
              -27.6137994
            ],
            [
              -48.4398101,
              -27.6139365
            ],
            [
              -48.43885,
              -27.6116353
            ],
            [
              -48.4387106,
              -27.6103423
            ],
            [
              -48.4380766,
              -27.608325
            ],
            [
              -48.4380615,
              -27.6074426
            ],
            [
              -48.4390646,
              -27.6060545
            ],
            [
              -48.4399605,
              -27.6051894
            ],
            [
              -48.4414311,
              -27.6047284
            ],
            [
              -48.4406164,
              -27.6044105
            ],
            [
              -48.4404578,
              -27.6041184
            ],
            [
              -48.4399047,
              -27.6038641
            ],
            [
              -48.4394137,
              -27.6030464
            ],
            [
              -48.4396229,
              -27.6018232
            ],
            [
              -48.4404729,
              -27.6013074
            ],
            [
              -48.4402341,
              -27.6011529
            ],
            [
              -48.4402113,
              -27.6007292
            ],
            [
              -48.4392719,
              -27.5992555
            ],
            [
              -48.4402952,
              -27.5982054
            ],
            [
              -48.439748,
              -27.5977354
            ],
            [
              -48.4392377,
              -27.5960685
            ],
            [
              -48.4372864,
              -27.5940824
            ],
            [
              -48.4370752,
              -27.5935969
            ],
            [
              -48.4369069,
              -27.5926663
            ],
            [
              -48.4371556,
              -27.5921492
            ],
            [
              -48.4369853,
              -27.5918387
            ],
            [
              -48.436694,
              -27.5918137
            ],
            [
              -48.4365981,
              -27.5913951
            ],
            [
              -48.4360921,
              -27.5907592
            ],
            [
              -48.4363087,
              -27.5884776
            ],
            [
              -48.4361086,
              -27.5882476
            ],
            [
              -48.4373469,
              -27.587759
            ],
            [
              -48.4378714,
              -27.5877612
            ],
            [
              -48.4380193,
              -27.5874976
            ],
            [
              -48.439815,
              -27.5864986
            ],
            [
              -48.442748,
              -27.5843994
            ],
            [
              -48.4430689,
              -27.5838607
            ],
            [
              -48.4432181,
              -27.5825784
            ],
            [
              -48.4442682,
              -27.5814129
            ],
            [
              -48.4450306,
              -27.5800542
            ],
            [
              -48.4457987,
              -27.5791698
            ],
            [
              -48.4484471,
              -27.5768761
            ],
            [
              -48.4491619,
              -27.5749783
            ],
            [
              -48.4491129,
              -27.5739916
            ],
            [
              -48.4477423,
              -27.5743435
            ],
            [
              -48.4472495,
              -27.5753908
            ],
            [
              -48.4459231,
              -27.5755394
            ],
            [
              -48.44492,
              -27.5751144
            ],
            [
              -48.444924,
              -27.5746401
            ],
            [
              -48.4437291,
              -27.5735785
            ],
            [
              -48.443483,
              -27.5718762
            ],
            [
              -48.4431725,
              -27.5710832
            ],
            [
              -48.4435105,
              -27.570433
            ],
            [
              -48.4438095,
              -27.5687199
            ],
            [
              -48.4436828,
              -27.5683983
            ],
            [
              -48.4429552,
              -27.567795
            ],
            [
              -48.4425725,
              -27.5679673
            ],
            [
              -48.4428675,
              -27.5680054
            ],
            [
              -48.442771,
              -27.5683572
            ],
            [
              -48.4432484,
              -27.5685332
            ],
            [
              -48.4427334,
              -27.568557
            ],
            [
              -48.442433,
              -27.5688042
            ],
            [
              -48.4431894,
              -27.5686521
            ],
            [
              -48.4432913,
              -27.5698029
            ],
            [
              -48.4407754,
              -27.5692037
            ],
            [
              -48.4401907,
              -27.5692703
            ],
            [
              -48.4403623,
              -27.5694652
            ],
            [
              -48.4400643,
              -27.5696918
            ],
            [
              -48.4397049,
              -27.569611
            ],
            [
              -48.439662,
              -27.569435
            ],
            [
              -48.4401102,
              -27.5692465
            ],
            [
              -48.4402306,
              -27.5689262
            ],
            [
              -48.4403999,
              -27.5691466
            ],
            [
              -48.4403945,
              -27.5689754
            ],
            [
              -48.4406198,
              -27.5691038
            ],
            [
              -48.4404482,
              -27.5687187
            ],
            [
              -48.4401156,
              -27.5687329
            ],
            [
              -48.4397347,
              -27.5684238
            ],
            [
              -48.4396727,
              -27.56788
            ],
            [
              -48.4399171,
              -27.5678817
            ],
            [
              -48.4396757,
              -27.5676297
            ],
            [
              -48.4397186,
              -27.5672778
            ],
            [
              -48.4402121,
              -27.5664171
            ],
            [
              -48.4400297,
              -27.5664313
            ],
            [
              -48.4397562,
              -27.5660081
            ],
            [
              -48.4402229,
              -27.5653138
            ],
            [
              -48.440724,
              -27.565345
            ],
            [
              -48.4401235,
              -27.5647634
            ],
            [
              -48.440208,
              -27.5643226
            ],
            [
              -48.4404541,
              -27.5643161
            ],
            [
              -48.4400595,
              -27.5639187
            ],
            [
              -48.4405211,
              -27.5630492
            ],
            [
              -48.440436,
              -27.5627319
            ],
            [
              -48.4412071,
              -27.5617026
            ],
            [
              -48.4406378,
              -27.5608641
            ],
            [
              -48.4396397,
              -27.5606507
            ],
            [
              -48.4401726,
              -27.5600802
            ],
            [
              -48.4398546,
              -27.5596065
            ],
            [
              -48.440092,
              -27.5592938
            ],
            [
              -48.4405097,
              -27.559279
            ],
            [
              -48.4407042,
              -27.5590828
            ],
            [
              -48.4405962,
              -27.5587818
            ],
            [
              -48.4412453,
              -27.5580589
            ],
            [
              -48.4410683,
              -27.5579352
            ],
            [
              -48.4411722,
              -27.5571008
            ],
            [
              -48.4433824,
              -27.5537146
            ],
            [
              -48.4448147,
              -27.5528585
            ],
            [
              -48.4461343,
              -27.5525304
            ],
            [
              -48.4466547,
              -27.5520167
            ],
            [
              -48.4468585,
              -27.5513556
            ],
            [
              -48.4474701,
              -27.5509418
            ],
            [
              -48.447175,
              -27.55049
            ],
            [
              -48.4471911,
              -27.549886
            ],
            [
              -48.4479529,
              -27.5488967
            ],
            [
              -48.4485108,
              -27.5471987
            ],
            [
              -48.4496695,
              -27.5461095
            ],
            [
              -48.4500825,
              -27.5445828
            ],
            [
              -48.4506533,
              -27.5444682
            ],
            [
              -48.4510139,
              -27.5433705
            ],
            [
              -48.4528479,
              -27.5412455
            ],
            [
              -48.4492967,
              -27.5407967
            ],
            [
              -48.4468773,
              -27.5399238
            ],
            [
              -48.4454128,
              -27.5385396
            ],
            [
              -48.4451513,
              -27.5377393
            ],
            [
              -48.445335,
              -27.537291
            ],
            [
              -48.445107,
              -27.5371245
            ],
            [
              -48.44377,
              -27.5343169
            ],
            [
              -48.439925,
              -27.5332935
            ],
            [
              -48.438203,
              -27.5319467
            ],
            [
              -48.4378946,
              -27.5308006
            ],
            [
              -48.4353907,
              -27.5318754
            ],
            [
              -48.4348422,
              -27.5319444
            ],
            [
              -48.4339383,
              -27.5317374
            ],
            [
              -48.4329781,
              -27.5305209
            ],
            [
              -48.4328628,
              -27.5294374
            ],
            [
              -48.4330398,
              -27.5289296
            ],
            [
              -48.4328748,
              -27.5287239
            ],
            [
              -48.4319897,
              -27.5282315
            ],
            [
              -48.4306084,
              -27.5278093
            ],
            [
              -48.4293558,
              -27.5263216
            ],
            [
              -48.4272992,
              -27.5262472
            ],
            [
              -48.4261867,
              -27.5258589
            ],
            [
              -48.4257334,
              -27.525495
            ],
            [
              -48.425535,
              -27.5248837
            ],
            [
              -48.4257053,
              -27.5243913
            ],
            [
              -48.4260647,
              -27.5239394
            ],
            [
              -48.4264972,
              -27.5240072
            ],
            [
              -48.4267513,
              -27.5237919
            ],
            [
              -48.4260432,
              -27.5228737
            ],
            [
              -48.4261505,
              -27.5221221
            ],
            [
              -48.4258327,
              -27.5223225
            ],
            [
              -48.4256412,
              -27.5222265
            ],
            [
              -48.4256651,
              -27.5219993
            ],
            [
              -48.4258134,
              -27.5216337
            ],
            [
              -48.4267487,
              -27.5208543
            ],
            [
              -48.4270022,
              -27.5203354
            ],
            [
              -48.426697,
              -27.5196887
            ],
            [
              -48.4256503,
              -27.5194484
            ],
            [
              -48.4244299,
              -27.5184262
            ],
            [
              -48.4240443,
              -27.5176905
            ],
            [
              -48.4243333,
              -27.5170746
            ],
            [
              -48.423876,
              -27.5165797
            ],
            [
              -48.4237876,
              -27.5160742
            ],
            [
              -48.4238988,
              -27.5151779
            ],
            [
              -48.4241597,
              -27.5150186
            ],
            [
              -48.4243065,
              -27.5145672
            ],
            [
              -48.4243873,
              -27.5138847
            ],
            [
              -48.4242016,
              -27.5130349
            ],
            [
              -48.4245352,
              -27.5126201
            ],
            [
              -48.4243159,
              -27.5123715
            ],
            [
              -48.4243682,
              -27.5118684
            ],
            [
              -48.4246981,
              -27.5118098
            ],
            [
              -48.4245831,
              -27.5102765
            ],
            [
              -48.4263549,
              -27.5085294
            ],
            [
              -48.4271086,
              -27.5066345
            ],
            [
              -48.4286309,
              -27.5069554
            ],
            [
              -48.4300523,
              -27.5076759
            ],
            [
              -48.4313099,
              -27.5087366
            ],
            [
              -48.4319554,
              -27.5100417
            ],
            [
              -48.4336894,
              -27.5104771
            ],
            [
              -48.4344382,
              -27.5100095
            ],
            [
              -48.4352945,
              -27.5099181
            ],
            [
              -48.4354258,
              -27.5087105
            ],
            [
              -48.43578,
              -27.5083189
            ],
            [
              -48.4356347,
              -27.5068007
            ],
            [
              -48.4365831,
              -27.5055902
            ],
            [
              -48.4371012,
              -27.5057329
            ],
            [
              -48.4376697,
              -27.5054197
            ],
            [
              -48.4378875,
              -27.5055522
            ],
            [
              -48.4381788,
              -27.5051102
            ],
            [
              -48.4399125,
              -27.5054426
            ],
            [
              -48.4409206,
              -27.5039853
            ],
            [
              -48.4422094,
              -27.5034385
            ],
            [
              -48.4427569,
              -27.5028403
            ],
            [
              -48.4430131,
              -27.5036462
            ],
            [
              -48.444044,
              -27.5044803
            ],
            [
              -48.4449238,
              -27.5057364
            ],
            [
              -48.4450311,
              -27.5073351
            ],
            [
              -48.4444946,
              -27.5084199
            ],
            [
              -48.4436354,
              -27.5085374
            ],
            [
              -48.4441289,
              -27.5102122
            ],
            [
              -48.4446331,
              -27.5112161
            ],
            [
              -48.4469291,
              -27.5150413
            ],
            [
              -48.4475299,
              -27.5156884
            ],
            [
              -48.4488281,
              -27.516226
            ],
            [
              -48.4512099,
              -27.5168159
            ],
            [
              -48.4558757,
              -27.5187461
            ],
            [
              -48.4564349,
              -27.5220634
            ],
            [
              -48.4573575,
              -27.5247275
            ],
            [
              -48.4600934,
              -27.52791
            ],
            [
              -48.4613809,
              -27.5307262
            ],
            [
              -48.4628185,
              -27.5321723
            ],
            [
              -48.4661015,
              -27.5343224
            ],
            [
              -48.4671101,
              -27.5360919
            ],
            [
              -48.4686121,
              -27.5379375
            ],
            [
              -48.4708008,
              -27.5393835
            ],
            [
              -48.4727963,
              -27.5412481
            ],
            [
              -48.4734615,
              -27.5423135
            ],
            [
              -48.4738765,
              -27.542477
            ],
            [
              -48.4732122,
              -27.5438542
            ],
            [
              -48.4729908,
              -27.5483026
            ],
            [
              -48.4724381,
              -27.5500152
            ],
            [
              -48.4765676,
              -27.5523184
            ],
            [
              -48.4765935,
              -27.5539191
            ],
            [
              -48.4761958,
              -27.554527
            ],
            [
              -48.4743764,
              -27.5559609
            ],
            [
              -48.4736394,
              -27.5570247
            ],
            [
              -48.4734307,
              -27.5582966
            ],
            [
              -48.4736981,
              -27.5592621
            ],
            [
              -48.4759035,
              -27.5626301
            ],
            [
              -48.4761064,
              -27.5637339
            ],
            [
              -48.4760175,
              -27.5647078
            ],
            [
              -48.4752243,
              -27.5668008
            ],
            [
              -48.474505,
              -27.5680762
            ],
            [
              -48.4745787,
              -27.569744
            ],
            [
              -48.4754826,
              -27.5718369
            ],
            [
              -48.4721778,
              -27.5739011
            ],
            [
              -48.4716967,
              -27.5756387
            ],
            [
              -48.4742125,
              -27.5765371
            ],
            [
              -48.4737452,
              -27.5775517
            ],
            [
              -48.4745606,
              -27.5796629
            ],
            [
              -48.4737302,
              -27.5848347
            ],
            [
              -48.4729298,
              -27.5872133
            ],
            [
              -48.4732517,
              -27.5879075
            ],
            [
              -48.4727638,
              -27.5899362
            ],
            [
              -48.4790075,
              -27.5950422
            ],
            [
              -48.479533,
              -27.5957795
            ],
            [
              -48.4798334,
              -27.5988221
            ],
            [
              -48.4807776,
              -27.5996208
            ],
            [
              -48.4844039,
              -27.6016745
            ],
            [
              -48.4878055,
              -27.605103
            ],
            [
              -48.4881684,
              -27.6052363
            ],
            [
              -48.4907736,
              -27.6049535
            ],
            [
              -48.4934344,
              -27.6079198
            ],
            [
              -48.4959235,
              -27.6141944
            ],
            [
              -48.4963526,
              -27.6191378
            ],
            [
              -48.4973826,
              -27.6224839
            ],
            [
              -48.497683,
              -27.6251456
            ],
            [
              -48.498846,
              -27.6275315
            ]
          ]
        ]
      }
    }
  ]
}
