{
  "type": "FeatureCollection",
  "features": [
    {
      "type": "Feature",
      "properties": {
        "name": "Meireles",
        "category": "Tourist",
        "osmType": "relation",
        "osmId": 5522152,
        "stroke": "#f59e0b",
        "stroke-width": 2,
        "stroke-opacity": 0.95,
        "fill": "#f59e0b",
        "fill-opacity": 0.16
      },
      "geometry": {
        "type": "Polygon",
        "coordinates": [
          [
            [
              -38.5138993,
              -3.7280336
            ],
            [
              -38.5013711,
              -3.7320899
            ],
            [
              -38.5012768,
              -3.7319589
            ],
            [
              -38.4978632,
              -3.733065
            ],
            [
              -38.4977179,
              -3.7326128
            ],
            [
              -38.4967613,
              -3.7329227
            ],
            [
              -38.4969026,
              -3.7333708
            ],
            [
              -38.4890471,
              -3.7359608
            ],
            [
              -38.4885745,
              -3.7359556
            ],
            [
              -38.4889243,
              -3.7284651
            ],
            [
              -38.4898368,
              -3.7235126
            ],
            [
              -38.4901618,
              -3.7233159
            ],
            [
              -38.4904283,
              -3.7233138
            ],
            [
              -38.490665,
              -3.7243736
            ],
            [
              -38.4930387,
              -3.7247269
            ],
            [
              -38.4945006,
              -3.7244377
            ],
            [
              -38.493976,
              -3.722713
            ],
            [
              -38.494127,
              -3.7225974
            ],
            [
              -38.4942179,
              -3.7227356
            ],
            [
              -38.4946301,
              -3.7226427
            ],
            [
              -38.494202,
              -3.7229124
            ],
            [
              -38.4945122,
              -3.7239529
            ],
            [
              -38.4953942,
              -3.7241201
            ],
            [
              -38.4996767,
              -3.7236134
            ],
            [
              -38.5032816,
              -3.722786
            ],
            [
              -38.5041719,
              -3.7222891
            ],
            [
              -38.5040536,
              -3.721713
            ],
            [
              -38.5044976,
              -3.7226186
            ],
            [
              -38.504692,
              -3.7224865
            ],
            [
              -38.5040162,
              -3.7205249
            ],
            [
              -38.5044501,
              -3.721513
            ],
            [
              -38.5048048,
              -3.7215943
            ],
            [
              -38.5078492,
              -3.7203959
            ],
            [
              -38.5097398,
              -3.719485
            ],
            [
              -38.5109089,
              -3.718679
            ],
            [
              -38.5137772,
              -3.727672
            ],
            [
              -38.5138993,
              -3.7280336
            ]
          ]
        ]
      }
    },
    {
      "type": "Feature",
      "properties": {
        "name": "Aldeota",
        "category": "Residential",
        "osmType": "relation",
        "osmId": 5522086,
        "stroke": "#0f766e",
        "stroke-width": 2,
        "stroke-opacity": 0.95,
        "fill": "#0f766e",
        "fill-opacity": 0.16
      },
      "geometry": {
        "type": "Polygon",
        "coordinates": [
          [
            [
              -38.5175485,
              -3.7389137
            ],
            [
              -38.4921287,
              -3.7469288
            ],
            [
              -38.4904452,
              -3.7447564
            ],
            [
              -38.4872974,
              -3.7397989
            ],
            [
              -38.4884329,
              -3.7394282
            ],
            [
              -38.4885745,
              -3.7359556
            ],
            [
              -38.4890471,
              -3.7359608
            ],
            [
              -38.4969026,
              -3.7333708
            ],
            [
              -38.4967613,
              -3.7329227
            ],
            [
              -38.4977179,
              -3.7326128
            ],
            [
              -38.4978632,
              -3.733065
            ],
            [
              -38.5012768,
              -3.7319589
            ],
            [
              -38.5013711,
              -3.7320899
            ],
            [
              -38.5138993,
              -3.7280336
            ],
            [
              -38.5164034,
              -3.7361189
            ],
            [
              -38.5166712,
              -3.7360309
            ],
            [
              -38.5175056,
              -3.7387699
            ],
            [
              -38.5175485,
              -3.7389137
            ]
          ]
        ]
      }
    },
    {
      "type": "Feature",
      "properties": {
        "name": "Cocó",
        "category": "Hip",
        "osmType": "relation",
        "osmId": 7032930,
        "stroke": "#f43f5e",
        "stroke-width": 2,
        "stroke-opacity": 0.95,
        "fill": "#f43f5e",
        "fill-opacity": 0.16
      },
      "geometry": {
        "type": "Polygon",
        "coordinates": [
          [
            [
              -38.4939026,
              -3.7491994
            ],
            [
              -38.4902804,
              -3.7503631
            ],
            [
              -38.4907283,
              -3.752377
            ],
            [
              -38.4898249,
              -3.7525137
            ],
            [
              -38.4887448,
              -3.7524101
            ],
            [
              -38.4866288,
              -3.7516769
            ],
            [
              -38.4853019,
              -3.7522413
            ],
            [
              -38.4811444,
              -3.7553317
            ],
            [
              -38.475089,
              -3.7594518
            ],
            [
              -38.4732899,
              -3.7609599
            ],
            [
              -38.4717912,
              -3.7625732
            ],
            [
              -38.4691877,
              -3.7548816
            ],
            [
              -38.4762846,
              -3.7525872
            ],
            [
              -38.4746126,
              -3.7474236
            ],
            [
              -38.4676549,
              -3.7496812
            ],
            [
              -38.4667039,
              -3.7464423
            ],
            [
              -38.4872974,
              -3.7397989
            ],
            [
              -38.4904452,
              -3.7447564
            ],
            [
              -38.4937373,
              -3.7489887
            ],
            [
              -38.4939026,
              -3.7491994
            ]
          ]
        ]
      }
    }
  ]
}
