{
  "type": "FeatureCollection",
  "features": [
    {
      "type": "Feature",
      "properties": {
        "name": "Zona 10",
        "category": "Tourist",
        "osmType": "relation",
        "osmId": 13733477,
        "stroke": "#f59e0b",
        "stroke-width": 2,
        "stroke-opacity": 0.95,
        "fill": "#f59e0b",
        "fill-opacity": 0.16
      },
      "geometry": {
        "type": "Polygon",
        "coordinates": [
          [
            [
              -90.5179392,
              14.5934457
            ],
            [
              -90.5134684,
              14.590204
            ],
            [
              -90.5106866,
              14.5888259
            ],
            [
              -90.5062978,
              14.5873305
            ],
            [
              -90.501168,
              14.5843623
            ],
            [
              -90.5003681,
              14.5837663
            ],
            [
              -90.4977892,
              14.5806081
            ],
            [
              -90.4974501,
              14.580825
            ],
            [
              -90.4954096,
              14.5790705
            ],
            [
              -90.4926829,
              14.5775744
            ],
            [
              -90.4899872,
              14.5749546
            ],
            [
              -90.4897801,
              14.5751219
            ],
            [
              -90.4899303,
              14.5769442
            ],
            [
              -90.4891095,
              14.5774063
            ],
            [
              -90.488777,
              14.5786679
            ],
            [
              -90.4882535,
              14.5791306
            ],
            [
              -90.4877451,
              14.5792618
            ],
            [
              -90.4871751,
              14.5791068
            ],
            [
              -90.4861707,
              14.5778842
            ],
            [
              -90.4856284,
              14.5776665
            ],
            [
              -90.4860204,
              14.5789584
            ],
            [
              -90.4869466,
              14.5798317
            ],
            [
              -90.4875022,
              14.5799395
            ],
            [
              -90.4881326,
              14.5806129
            ],
            [
              -90.490094,
              14.5817428
            ],
            [
              -90.4916333,
              14.583069
            ],
            [
              -90.4934418,
              14.5839718
            ],
            [
              -90.4940492,
              14.5848377
            ],
            [
              -90.4937428,
              14.58518
            ],
            [
              -90.4936858,
              14.5859294
            ],
            [
              -90.4939211,
              14.5861926
            ],
            [
              -90.4949273,
              14.5862777
            ],
            [
              -90.4954314,
              14.5865099
            ],
            [
              -90.495716,
              14.58734
            ],
            [
              -90.4966267,
              14.5881702
            ],
            [
              -90.4964153,
              14.5888823
            ],
            [
              -90.4970048,
              14.589264
            ],
            [
              -90.4970291,
              14.5896849
            ],
            [
              -90.497452,
              14.5900233
            ],
            [
              -90.4973544,
              14.5903695
            ],
            [
              -90.4976186,
              14.5908849
            ],
            [
              -90.4983016,
              14.591121
            ],
            [
              -90.4981512,
              14.5915183
            ],
            [
              -90.4985961,
              14.5922839
            ],
            [
              -90.4980552,
              14.5932835
            ],
            [
              -90.500555,
              14.5953203
            ],
            [
              -90.5010017,
              14.596741
            ],
            [
              -90.5010361,
              14.5979702
            ],
            [
              -90.5007282,
              14.5993812
            ],
            [
              -90.5008946,
              14.5999224
            ],
            [
              -90.5016944,
              14.6002649
            ],
            [
              -90.5024964,
              14.6003034
            ],
            [
              -90.5029443,
              14.60097
            ],
            [
              -90.5028289,
              14.6031401
            ],
            [
              -90.5031494,
              14.6038557
            ],
            [
              -90.5023948,
              14.6053929
            ],
            [
              -90.5028909,
              14.6077691
            ],
            [
              -90.5039834,
              14.6088423
            ],
            [
              -90.5041251,
              14.6095161
            ],
            [
              -90.5035792,
              14.6105628
            ],
            [
              -90.5038076,
              14.6114678
            ],
            [
              -90.503323,
              14.6118861
            ],
            [
              -90.5032313,
              14.612374
            ],
            [
              -90.5027991,
              14.6125071
            ],
            [
              -90.5027371,
              14.6127453
            ],
            [
              -90.5036911,
              14.6129559
            ],
            [
              -90.5041252,
              14.6133615
            ],
            [
              -90.5136345,
              14.6152732
            ],
            [
              -90.5140443,
              14.6140433
            ],
            [
              -90.5177193,
              14.5945108
            ],
            [
              -90.5179392,
              14.5934457
            ]
          ]
        ]
      }
    },
    {
      "type": "Feature",
      "properties": {
        "name": "Zona 14",
        "category": "Residential",
        "osmType": "relation",
        "osmId": 13733478,
        "stroke": "#0f766e",
        "stroke-width": 2,
        "stroke-opacity": 0.95,
        "fill": "#0f766e",
        "fill-opacity": 0.16
      },
      "geometry": {
        "type": "Polygon",
        "coordinates": [
          [
            [
              -90.525309,
              14.5677942
            ],
            [
              -90.5249639,
              14.5662197
            ],
            [
              -90.5237561,
              14.5645497
            ],
            [
              -90.5237874,
              14.5622113
            ],
            [
              -90.5221593,
              14.5634085
            ],
            [
              -90.5214307,
              14.5644507
            ],
            [
              -90.5220073,
              14.5651252
            ],
            [
              -90.5215124,
              14.5661032
            ],
            [
              -90.520614,
              14.5670891
            ],
            [
              -90.5198141,
              14.5674801
            ],
            [
              -90.5195908,
              14.5683881
            ],
            [
              -90.5193727,
              14.5683406
            ],
            [
              -90.5185198,
              14.5692895
            ],
            [
              -90.518134,
              14.5693725
            ],
            [
              -90.5183021,
              14.5696744
            ],
            [
              -90.5182865,
              14.5705717
            ],
            [
              -90.517829,
              14.5708871
            ],
            [
              -90.5178838,
              14.5711847
            ],
            [
              -90.5172645,
              14.5721994
            ],
            [
              -90.5164246,
              14.5730934
            ],
            [
              -90.5164835,
              14.5734088
            ],
            [
              -90.5162825,
              14.573392
            ],
            [
              -90.5151071,
              14.5743727
            ],
            [
              -90.5119454,
              14.573939
            ],
            [
              -90.5113074,
              14.5742457
            ],
            [
              -90.5101987,
              14.5760183
            ],
            [
              -90.5097814,
              14.5759369
            ],
            [
              -90.5068419,
              14.5773358
            ],
            [
              -90.5060846,
              14.5768956
            ],
            [
              -90.505494,
              14.5768718
            ],
            [
              -90.5052415,
              14.5763334
            ],
            [
              -90.503523,
              14.5760918
            ],
            [
              -90.5028796,
              14.5763456
            ],
            [
              -90.5018055,
              14.5757247
            ],
            [
              -90.4997714,
              14.5759323
            ],
            [
              -90.4994111,
              14.5757734
            ],
            [
              -90.4987102,
              14.575937
            ],
            [
              -90.4980836,
              14.5763571
            ],
            [
              -90.4967388,
              14.5762681
            ],
            [
              -90.4959035,
              14.5758365
            ],
            [
              -90.4956699,
              14.57609
            ],
            [
              -90.4948842,
              14.5760831
            ],
            [
              -90.4926083,
              14.5753228
            ],
            [
              -90.4930582,
              14.5746757
            ],
            [
              -90.4923372,
              14.5746012
            ],
            [
              -90.4918627,
              14.5742195
            ],
            [
              -90.491875,
              14.5739988
            ],
            [
              -90.4912538,
              14.5738052
            ],
            [
              -90.4905164,
              14.5742731
            ],
            [
              -90.4899872,
              14.5749546
            ],
            [
              -90.4926829,
              14.5775744
            ],
            [
              -90.4954096,
              14.5790705
            ],
            [
              -90.4974501,
              14.580825
            ],
            [
              -90.4977892,
              14.5806081
            ],
            [
              -90.5003681,
              14.5837663
            ],
            [
              -90.501168,
              14.5843623
            ],
            [
              -90.5062978,
              14.5873305
            ],
            [
              -90.5106866,
              14.5888259
            ],
            [
              -90.5134684,
              14.590204
            ],
            [
              -90.5179392,
              14.5934457
            ],
            [
              -90.5190455,
              14.5914284
            ],
            [
              -90.5230661,
              14.5773373
            ],
            [
              -90.5250007,
              14.5729997
            ],
            [
              -90.5250993,
              14.5707095
            ],
            [
              -90.5242631,
              14.570104
            ],
            [
              -90.524824,
              14.5693418
            ],
            [
              -90.525309,
              14.5677942
            ]
          ]
        ]
      }
    },
    {
      "type": "Feature",
      "properties": {
        "name": "Zona 15",
        "category": "Hip",
        "osmType": "relation",
        "osmId": 13733479,
        "stroke": "#f43f5e",
        "stroke-width": 2,
        "stroke-opacity": 0.95,
        "fill": "#f43f5e",
        "fill-opacity": 0.16
      },
      "geometry": {
        "type": "Polygon",
        "coordinates": [
          [
            [
              -90.5041251,
              14.6095161
            ],
            [
              -90.5039834,
              14.6088423
            ],
            [
              -90.5028909,
              14.6077691
            ],
            [
              -90.5023948,
              14.6053929
            ],
            [
              -90.5031494,
              14.6038557
            ],
            [
              -90.5028289,
              14.6031401
            ],
            [
              -90.5029443,
              14.60097
            ],
            [
              -90.5024964,
              14.6003034
            ],
            [
              -90.5016944,
              14.6002649
            ],
            [
              -90.5008946,
              14.5999224
            ],
            [
              -90.5007282,
              14.5993812
            ],
            [
              -90.5010361,
              14.5979702
            ],
            [
              -90.5009285,
              14.5962807
            ],
            [
              -90.5006277,
              14.5959306
            ],
            [
              -90.500555,
              14.5953203
            ],
            [
              -90.4980552,
              14.5932835
            ],
            [
              -90.4985961,
              14.5922839
            ],
            [
              -90.4981512,
              14.5915183
            ],
            [
              -90.4983016,
              14.591121
            ],
            [
              -90.4976186,
              14.5908849
            ],
            [
              -90.4973544,
              14.5903695
            ],
            [
              -90.497452,
              14.5900233
            ],
            [
              -90.4970291,
              14.5896849
            ],
            [
              -90.4970048,
              14.589264
            ],
            [
              -90.4964153,
              14.5888823
            ],
            [
              -90.4966267,
              14.5881702
            ],
            [
              -90.495716,
              14.58734
            ],
            [
              -90.4954314,
              14.5865099
            ],
            [
              -90.4949273,
              14.5862777
            ],
            [
              -90.4939211,
              14.5861926
            ],
            [
              -90.4936858,
              14.5859294
            ],
            [
              -90.4937428,
              14.58518
            ],
            [
              -90.4940492,
              14.5848377
            ],
            [
              -90.4934418,
              14.5839718
            ],
            [
              -90.4916333,
              14.583069
            ],
            [
              -90.490094,
              14.5817428
            ],
            [
              -90.4881326,
              14.5806129
            ],
            [
              -90.4875022,
              14.5799395
            ],
            [
              -90.4869466,
              14.5798317
            ],
            [
              -90.4860204,
              14.5789584
            ],
            [
              -90.4856284,
              14.5776665
            ],
            [
              -90.4849606,
              14.5777628
            ],
            [
              -90.4844656,
              14.5780927
            ],
            [
              -90.484019,
              14.5798036
            ],
            [
              -90.4836907,
              14.5801095
            ],
            [
              -90.4830041,
              14.5802056
            ],
            [
              -90.4822381,
              14.580787
            ],
            [
              -90.4818561,
              14.5812205
            ],
            [
              -90.4818353,
              14.5817811
            ],
            [
              -90.4815448,
              14.5819765
            ],
            [
              -90.4800458,
              14.5821377
            ],
            [
              -90.4795083,
              14.5824853
            ],
            [
              -90.479018,
              14.5833158
            ],
            [
              -90.4786478,
              14.5835899
            ],
            [
              -90.4785028,
              14.5840497
            ],
            [
              -90.4782322,
              14.5841821
            ],
            [
              -90.4773752,
              14.5838989
            ],
            [
              -90.4759335,
              14.5837578
            ],
            [
              -90.4748415,
              14.5833415
            ],
            [
              -90.4726573,
              14.5832608
            ],
            [
              -90.471475,
              14.5838772
            ],
            [
              -90.476584,
              14.5870555
            ],
            [
              -90.477519,
              14.5872128
            ],
            [
              -90.4783565,
              14.5870476
            ],
            [
              -90.4790639,
              14.587205
            ],
            [
              -90.4794217,
              14.5875669
            ],
            [
              -90.4810316,
              14.5877715
            ],
            [
              -90.4815194,
              14.5874253
            ],
            [
              -90.4818609,
              14.5876142
            ],
            [
              -90.4820154,
              14.5882122
            ],
            [
              -90.4824951,
              14.5886922
            ],
            [
              -90.4830318,
              14.5889125
            ],
            [
              -90.4834139,
              14.5895105
            ],
            [
              -90.4844954,
              14.5912967
            ],
            [
              -90.4848206,
              14.5924062
            ],
            [
              -90.4862403,
              14.5947989
            ],
            [
              -90.4874204,
              14.595671
            ],
            [
              -90.4875551,
              14.5967403
            ],
            [
              -90.4854023,
              14.5973089
            ],
            [
              -90.4860868,
              14.5998759
            ],
            [
              -90.4849926,
              14.6000138
            ],
            [
              -90.4860034,
              14.6028126
            ],
            [
              -90.4872958,
              14.604372
            ],
            [
              -90.4860431,
              14.6058853
            ],
            [
              -90.4864273,
              14.6075797
            ],
            [
              -90.4929061,
              14.6092626
            ],
            [
              -90.494261,
              14.6088578
            ],
            [
              -90.4949381,
              14.6081329
            ],
            [
              -90.4952355,
              14.6073804
            ],
            [
              -90.4956538,
              14.6074429
            ],
            [
              -90.4954847,
              14.6080223
            ],
            [
              -90.4957078,
              14.6083768
            ],
            [
              -90.4952616,
              14.6085442
            ],
            [
              -90.4954401,
              14.6093112
            ],
            [
              -90.4950591,
              14.6093471
            ],
            [
              -90.4953844,
              14.6096709
            ],
            [
              -90.4955517,
              14.6102735
            ],
            [
              -90.4958274,
              14.6103035
            ],
            [
              -90.4954649,
              14.6109421
            ],
            [
              -90.4959482,
              14.611023
            ],
            [
              -90.4958677,
              14.6115357
            ],
            [
              -90.495499,
              14.6113228
            ],
            [
              -90.495152,
              14.6117006
            ],
            [
              -90.4956703,
              14.6121273
            ],
            [
              -90.4957266,
              14.6124272
            ],
            [
              -90.4952899,
              14.6126181
            ],
            [
              -90.4952711,
              14.613545
            ],
            [
              -90.4949847,
              14.6140949
            ],
            [
              -90.494886,
              14.6149401
            ],
            [
              -90.4937172,
              14.6155526
            ],
            [
              -90.4919101,
              14.6181259
            ],
            [
              -90.4917591,
              14.6185226
            ],
            [
              -90.4919047,
              14.6190602
            ],
            [
              -90.4918076,
              14.6195613
            ],
            [
              -90.4920396,
              14.6200154
            ],
            [
              -90.4919357,
              14.6206445
            ],
            [
              -90.4940088,
              14.6197213
            ],
            [
              -90.4948485,
              14.6196545
            ],
            [
              -90.4953214,
              14.6186041
            ],
            [
              -90.4957211,
              14.6183878
            ],
            [
              -90.4961228,
              14.61842
            ],
            [
              -90.4965133,
              14.6177799
            ],
            [
              -90.4972322,
              14.6175676
            ],
            [
              -90.4974938,
              14.6173836
            ],
            [
              -90.4974327,
              14.617155
            ],
            [
              -90.497893,
              14.6172469
            ],
            [
              -90.4981356,
              14.617028
            ],
            [
              -90.4981405,
              14.616676
            ],
            [
              -90.4987833,
              14.6165569
            ],
            [
              -90.4997881,
              14.6158107
            ],
            [
              -90.4997986,
              14.6155569
            ],
            [
              -90.5002114,
              14.6156879
            ],
            [
              -90.5008278,
              14.6150672
            ],
            [
              -90.5019144,
              14.6147892
            ],
            [
              -90.5023033,
              14.6137433
            ],
            [
              -90.5023184,
              14.6131895
            ],
            [
              -90.5025906,
              14.6130783
            ],
            [
              -90.5027991,
              14.6125071
            ],
            [
              -90.5032313,
              14.612374
            ],
            [
              -90.503323,
              14.6118861
            ],
            [
              -90.5038076,
              14.6114678
            ],
            [
              -90.5035792,
              14.6105628
            ],
            [
              -90.5039464,
              14.6098262
            ],
            [
              -90.5041251,
              14.6095161
            ]
          ]
        ]
      }
    }
  ]
}
