{
  "type": "FeatureCollection",
  "features": [
    {
      "type": "Feature",
      "properties": {
        "name": "Samborondón",
        "category": "Residential",
        "osmType": "relation",
        "osmId": 2674241,
        "stroke": "#0f766e",
        "stroke-width": 2,
        "stroke-opacity": 0.95,
        "fill": "#0f766e",
        "fill-opacity": 0.16
      },
      "geometry": {
        "type": "Polygon",
        "coordinates": [
          [
            [
              -79.8935168,
              -2.0753199
            ],
            [
              -79.8924868,
              -2.0835542
            ],
            [
              -79.8895686,
              -2.0912738
            ],
            [
              -79.8839037,
              -2.0989934
            ],
            [
              -79.8758357,
              -2.1166626
            ],
            [
              -79.8760073,
              -2.1224951
            ],
            [
              -79.8770373,
              -2.1303861
            ],
            [
              -79.8760073,
              -2.138277
            ],
            [
              -79.8734324,
              -2.148741
            ],
            [
              -79.8710291,
              -2.1598911
            ],
            [
              -79.8624461,
              -2.1670958
            ],
            [
              -79.8519747,
              -2.1544019
            ],
            [
              -79.8483698,
              -2.1478833
            ],
            [
              -79.8480265,
              -2.1403355
            ],
            [
              -79.8499148,
              -2.1206081
            ],
            [
              -79.8495715,
              -2.106713
            ],
            [
              -79.8497431,
              -2.095734
            ],
            [
              -79.852763,
              -2.0880815
            ],
            [
              -79.8488759,
              -2.0846202
            ],
            [
              -79.8428093,
              -2.0851629
            ],
            [
              -79.8385053,
              -2.087467
            ],
            [
              -79.8355686,
              -2.0900509
            ],
            [
              -79.8280835,
              -2.0945472
            ],
            [
              -79.8192159,
              -2.0962895
            ],
            [
              -79.812321,
              -2.0953909
            ],
            [
              -79.8059695,
              -2.0955625
            ],
            [
              -79.8009913,
              -2.0950479
            ],
            [
              -79.7966998,
              -2.0943617
            ],
            [
              -79.7930949,
              -2.0921316
            ],
            [
              -79.7912308,
              -2.0887337
            ],
            [
              -79.7920891,
              -2.0859889
            ],
            [
              -79.795694,
              -2.0817002
            ],
            [
              -79.8011871,
              -2.0744952
            ],
            [
              -79.8035904,
              -2.0696918
            ],
            [
              -79.8056503,
              -2.0624867
            ],
            [
              -79.8065086,
              -2.0551101
            ],
            [
              -79.805822,
              -2.0499635
            ],
            [
              -79.8032471,
              -2.0431015
            ],
            [
              -79.7980972,
              -2.0357247
            ],
            [
              -79.793634,
              -2.0329798
            ],
            [
              -79.7807594,
              -2.0331514
            ],
            [
              -79.7726913,
              -2.0341807
            ],
            [
              -79.7675415,
              -2.0343523
            ],
            [
              -79.76119,
              -2.0331514
            ],
            [
              -79.7551819,
              -2.0314359
            ],
            [
              -79.7508904,
              -2.0314359
            ],
            [
              -79.7450539,
              -2.0300634
            ],
            [
              -79.7419747,
              -2.0283693
            ],
            [
              -79.7405092,
              -2.0316422
            ],
            [
              -79.7397067,
              -2.0321654
            ],
            [
              -79.7359993,
              -2.0317827
            ],
            [
              -79.7349557,
              -2.0313701
            ],
            [
              -79.7337018,
              -2.0304687
            ],
            [
              -79.7311826,
              -2.029926
            ],
            [
              -79.7270884,
              -2.0316739
            ],
            [
              -79.7249439,
              -2.032012
            ],
            [
              -79.7220309,
              -2.0314389
            ],
            [
              -79.7213543,
              -2.0318687
            ],
            [
              -79.7204803,
              -2.0320409
            ],
            [
              -79.7199494,
              -2.0319604
            ],
            [
              -79.7195595,
              -2.0316509
            ],
            [
              -79.7190778,
              -2.0303444
            ],
            [
              -79.7185446,
              -2.0302298
            ],
            [
              -79.7179253,
              -2.0296739
            ],
            [
              -79.7170021,
              -2.0295364
            ],
            [
              -79.7164745,
              -2.0297312
            ],
            [
              -79.7159814,
              -2.0296624
            ],
            [
              -79.7155284,
              -2.0294619
            ],
            [
              -79.714588,
              -2.0284533
            ],
            [
              -79.7123475,
              -2.0282999
            ],
            [
              -79.7112909,
              -2.028694
            ],
            [
              -79.709886,
              -2.0287914
            ],
            [
              -79.708699,
              -2.0285507
            ],
            [
              -79.7068871,
              -2.0286882
            ],
            [
              -79.7062219,
              -2.0290836
            ],
            [
              -79.7057976,
              -2.0288143
            ],
            [
              -79.705551,
              -2.0274504
            ],
            [
              -79.7051324,
              -2.0273817
            ],
            [
              -79.7038709,
              -2.0276052
            ],
            [
              -79.7024832,
              -2.0290321
            ],
            [
              -79.7002355,
              -2.0287054
            ],
            [
              -79.6991402,
              -2.0288372
            ],
            [
              -79.6958718,
              -2.0299604
            ],
            [
              -79.6933717,
              -2.0296567
            ],
            [
              -79.6924905,
              -2.0297703
            ],
            [
              -79.6906511,
              -2.0305676
            ],
            [
              -79.6889801,
              -2.0302697
            ],
            [
              -79.6873045,
              -2.0294458
            ],
            [
              -79.6828734,
              -2.0304884
            ],
            [
              -79.6794337,
              -2.031033
            ],
            [
              -79.6779629,
              -2.0306002
            ],
            [
              -79.6752633,
              -2.0306002
            ],
            [
              -79.6750585,
              -2.0301533
            ],
            [
              -79.6741508,
              -2.0300602
            ],
            [
              -79.6727079,
              -2.0295389
            ],
            [
              -79.6714838,
              -2.0285289
            ],
            [
              -79.6709811,
              -2.0284405
            ],
            [
              -79.6699059,
              -2.0286173
            ],
            [
              -79.6690216,
              -2.0290735
            ],
            [
              -79.6678491,
              -2.0291649
            ],
            [
              -79.6671975,
              -2.0281688
            ],
            [
              -79.6668111,
              -2.0262
            ],
            [
              -79.6669508,
              -2.0250876
            ],
            [
              -79.6658011,
              -2.0218666
            ],
            [
              -79.665946,
              -2.0183303
            ],
            [
              -79.6652483,
              -2.016774
            ],
            [
              -79.6635166,
              -2.0145329
            ],
            [
              -79.662387,
              -2.0109679
            ],
            [
              -79.6618887,
              -2.0076976
            ],
            [
              -79.6627857,
              -2.0067596
            ],
            [
              -79.6637367,
              -2.0048422
            ],
            [
              -79.6654435,
              -2.0039582
            ],
            [
              -79.666328,
              -2.0037466
            ],
            [
              -79.6672208,
              -2.0031655
            ],
            [
              -79.6689442,
              -2.0007294
            ],
            [
              -79.6732501,
              -1.9972537
            ],
            [
              -79.6757755,
              -1.9923117
            ],
            [
              -79.679769,
              -1.9901049
            ],
            [
              -79.6694662,
              -1.9791822
            ],
            [
              -79.666498,
              -1.9728982
            ],
            [
              -79.6666272,
              -1.9718534
            ],
            [
              -79.6799413,
              -1.94997
            ],
            [
              -79.6521744,
              -1.9333476
            ],
            [
              -79.6507884,
              -1.9333241
            ],
            [
              -79.6502716,
              -1.9324319
            ],
            [
              -79.6486037,
              -1.9309293
            ],
            [
              -79.6480559,
              -1.9276423
            ],
            [
              -79.6483738,
              -1.9269724
            ],
            [
              -79.6477882,
              -1.9263482
            ],
            [
              -79.6476999,
              -1.9259094
            ],
            [
              -79.6477154,
              -1.9254096
            ],
            [
              -79.6479795,
              -1.9249621
            ],
            [
              -79.6489612,
              -1.9245088
            ],
            [
              -79.6488905,
              -1.924204
            ],
            [
              -79.6479841,
              -1.9238321
            ],
            [
              -79.6478297,
              -1.92343
            ],
            [
              -79.6483392,
              -1.9218473
            ],
            [
              -79.6526235,
              -1.9207318
            ],
            [
              -79.6551804,
              -1.9223012
            ],
            [
              -79.6564774,
              -1.9237142
            ],
            [
              -79.6581774,
              -1.9218252
            ],
            [
              -79.6596732,
              -1.92078
            ],
            [
              -79.6609591,
              -1.9201613
            ],
            [
              -79.6619725,
              -1.9185688
            ],
            [
              -79.6618362,
              -1.9175661
            ],
            [
              -79.6609265,
              -1.9170193
            ],
            [
              -79.6605617,
              -1.9164886
            ],
            [
              -79.6601551,
              -1.9152106
            ],
            [
              -79.6604307,
              -1.9143319
            ],
            [
              -79.6617955,
              -1.9147836
            ],
            [
              -79.6622729,
              -1.9139258
            ],
            [
              -79.662568,
              -1.9138132
            ],
            [
              -79.6629596,
              -1.9141724
            ],
            [
              -79.6631581,
              -1.9136685
            ],
            [
              -79.6640593,
              -1.9135773
            ],
            [
              -79.6644405,
              -1.9132316
            ],
            [
              -79.6646923,
              -1.9136202
            ],
            [
              -79.6661877,
              -1.9133502
            ],
            [
              -79.6670151,
              -1.9128589
            ],
            [
              -79.6672565,
              -1.9124139
            ],
            [
              -79.667412,
              -1.9120868
            ],
            [
              -79.6673209,
              -1.9111593
            ],
            [
              -79.6681953,
              -1.9110253
            ],
            [
              -79.6690429,
              -1.9100206
            ],
            [
              -79.6708181,
              -1.9094905
            ],
            [
              -79.6713096,
              -1.9117132
            ],
            [
              -79.6718743,
              -1.9128319
            ],
            [
              -79.6737484,
              -1.9153342
            ],
            [
              -79.6801734,
              -1.9189402
            ],
            [
              -79.6818994,
              -1.9202232
            ],
            [
              -79.6843244,
              -1.9215112
            ],
            [
              -79.6891834,
              -1.9237122
            ],
            [
              -79.6915714,
              -1.9245372
            ],
            [
              -79.6938374,
              -1.9257412
            ],
            [
              -79.6960954,
              -1.9274092
            ],
            [
              -79.6994754,
              -1.9286492
            ],
            [
              -79.7037104,
              -1.9315912
            ],
            [
              -79.7110724,
              -1.9400901
            ],
            [
              -79.7122414,
              -1.9418021
            ],
            [
              -79.7147341,
              -1.9465576
            ],
            [
              -79.7171033,
              -1.9425242
            ],
            [
              -79.7176424,
              -1.9403436
            ],
            [
              -79.7177046,
              -1.9381942
            ],
            [
              -79.7174605,
              -1.9365904
            ],
            [
              -79.7166765,
              -1.9358886
            ],
            [
              -79.715266,
              -1.9357731
            ],
            [
              -79.7149304,
              -1.9353495
            ],
            [
              -79.7156418,
              -1.9342957
            ],
            [
              -79.7192185,
              -1.932913
            ],
            [
              -79.7202228,
              -1.9321429
            ],
            [
              -79.7220585,
              -1.9280061
            ],
            [
              -79.7228923,
              -1.9263854
            ],
            [
              -79.723477,
              -1.9256486
            ],
            [
              -79.7242197,
              -1.9251851
            ],
            [
              -79.7250761,
              -1.9251545
            ],
            [
              -79.7259564,
              -1.925645
            ],
            [
              -79.7277358,
              -1.9274154
            ],
            [
              -79.7286655,
              -1.9279783
            ],
            [
              -79.7293897,
              -1.9281397
            ],
            [
              -79.7320112,
              -1.9281386
            ],
            [
              -79.7324125,
              -1.9278722
            ],
            [
              -79.732552,
              -1.9273398
            ],
            [
              -79.7317017,
              -1.9257046
            ],
            [
              -79.731868,
              -1.9250081
            ],
            [
              -79.7332499,
              -1.9232485
            ],
            [
              -79.7333518,
              -1.9227611
            ],
            [
              -79.7330632,
              -1.9220286
            ],
            [
              -79.73204,
              -1.9211134
            ],
            [
              -79.7318584,
              -1.9203596
            ],
            [
              -79.7322819,
              -1.9195391
            ],
            [
              -79.7340192,
              -1.9186313
            ],
            [
              -79.7365417,
              -1.9182622
            ],
            [
              -79.7385343,
              -1.9166838
            ],
            [
              -79.7389796,
              -1.9166438
            ],
            [
              -79.7397869,
              -1.9174184
            ],
            [
              -79.7406147,
              -1.9174787
            ],
            [
              -79.7411368,
              -1.9172323
            ],
            [
              -79.7428281,
              -1.9151394
            ],
            [
              -79.7444516,
              -1.9141869
            ],
            [
              -79.7473578,
              -1.9134436
            ],
            [
              -79.7500134,
              -1.9111042
            ],
            [
              -79.7516684,
              -1.9106342
            ],
            [
              -79.7530054,
              -1.9106615
            ],
            [
              -79.7544717,
              -1.9101583
            ],
            [
              -79.757393,
              -1.9083362
            ],
            [
              -79.7587714,
              -1.9077752
            ],
            [
              -79.7601026,
              -1.9081291
            ],
            [
              -79.7611867,
              -1.908059
            ],
            [
              -79.7616215,
              -1.9076943
            ],
            [
              -79.7624499,
              -1.906212
            ],
            [
              -79.764135,
              -1.9057432
            ],
            [
              -79.7645903,
              -1.9053756
            ],
            [
              -79.7677095,
              -1.9006664
            ],
            [
              -79.7683401,
              -1.8966757
            ],
            [
              -79.7691794,
              -1.8935388
            ],
            [
              -79.7685709,
              -1.8912038
            ],
            [
              -79.7686165,
              -1.8907132
            ],
            [
              -79.768837,
              -1.8902485
            ],
            [
              -79.7710755,
              -1.8886812
            ],
            [
              -79.7723081,
              -1.8863823
            ],
            [
              -79.773154,
              -1.8857733
            ],
            [
              -79.7753964,
              -1.8849653
            ],
            [
              -79.7768544,
              -1.8847573
            ],
            [
              -79.7777642,
              -1.8843256
            ],
            [
              -79.7794693,
              -1.8827772
            ],
            [
              -79.7806811,
              -1.8822039
            ],
            [
              -79.7811467,
              -1.8814544
            ],
            [
              -79.7811367,
              -1.880621
            ],
            [
              -79.7805751,
              -1.8787815
            ],
            [
              -79.782224,
              -1.8786017
            ],
            [
              -79.783107,
              -1.8769073
            ],
            [
              -79.7842689,
              -1.8756716
            ],
            [
              -79.7848796,
              -1.875493
            ],
            [
              -79.7853563,
              -1.8758801
            ],
            [
              -79.7884348,
              -1.8761269
            ],
            [
              -79.7900932,
              -1.8750463
            ],
            [
              -79.7915977,
              -1.8749719
            ],
            [
              -79.7932616,
              -1.8740061
            ],
            [
              -79.7953668,
              -1.8708163
            ],
            [
              -79.7991741,
              -1.8679255
            ],
            [
              -79.7999936,
              -1.8667017
            ],
            [
              -79.8010712,
              -1.8656242
            ],
            [
              -79.8031499,
              -1.8646557
            ],
            [
              -79.8039752,
              -1.863685
            ],
            [
              -79.8054734,
              -1.8652648
            ],
            [
              -79.8078337,
              -1.8691144
            ],
            [
              -79.8081824,
              -1.8698141
            ],
            [
              -79.8081996,
              -1.8702796
            ],
            [
              -79.8088033,
              -1.8702609
            ],
            [
              -79.823781,
              -1.894096
            ],
            [
              -79.8236742,
              -1.8964113
            ],
            [
              -79.8222904,
              -1.897748
            ],
            [
              -79.8223617,
              -1.8992848
            ],
            [
              -79.8245915,
              -1.9031375
            ],
            [
              -79.8218556,
              -1.9081287
            ],
            [
              -79.8215853,
              -1.9093068
            ],
            [
              -79.8221214,
              -1.9102626
            ],
            [
              -79.8221694,
              -1.9118157
            ],
            [
              -79.821842,
              -1.9127453
            ],
            [
              -79.8213102,
              -1.9133029
            ],
            [
              -79.8203586,
              -1.9135213
            ],
            [
              -79.8199399,
              -1.9142055
            ],
            [
              -79.8199909,
              -1.9169783
            ],
            [
              -79.819574,
              -1.9178428
            ],
            [
              -79.8186656,
              -1.9184916
            ],
            [
              -79.8171828,
              -1.9183472
            ],
            [
              -79.8167663,
              -1.9184859
            ],
            [
              -79.8165772,
              -1.9188211
            ],
            [
              -79.8165158,
              -1.9203416
            ],
            [
              -79.8152208,
              -1.9210885
            ],
            [
              -79.8146473,
              -1.9225106
            ],
            [
              -79.8142221,
              -1.9229269
            ],
            [
              -79.8119775,
              -1.9237912
            ],
            [
              -79.8106099,
              -1.9247368
            ],
            [
              -79.8093495,
              -1.9211608
            ],
            [
              -79.8081101,
              -1.9215445
            ],
            [
              -79.8069305,
              -1.9207285
            ],
            [
              -79.803475,
              -1.9197997
            ],
            [
              -79.8018854,
              -1.918626
            ],
            [
              -79.8019797,
              -1.9262333
            ],
            [
              -79.7958731,
              -1.9267584
            ],
            [
              -79.7909283,
              -1.9289425
            ],
            [
              -79.7857493,
              -1.9299577
            ],
            [
              -79.7833911,
              -1.9287626
            ],
            [
              -79.7826265,
              -1.9286598
            ],
            [
              -79.7770334,
              -1.9304206
            ],
            [
              -79.7746442,
              -1.9304154
            ],
            [
              -79.774462,
              -1.9305142
            ],
            [
              -79.7742069,
              -1.9319605
            ],
            [
              -79.7722029,
              -1.932309
            ],
            [
              -79.7709692,
              -1.9339998
            ],
            [
              -79.7691161,
              -1.9356229
            ],
            [
              -79.7671642,
              -1.9365697
            ],
            [
              -79.7664146,
              -1.9365801
            ],
            [
              -79.7650456,
              -1.9369859
            ],
            [
              -79.7636922,
              -1.9368454
            ],
            [
              -79.7626616,
              -1.9371784
            ],
            [
              -79.7618912,
              -1.9377246
            ],
            [
              -79.7612458,
              -1.939046
            ],
            [
              -79.7598976,
              -1.9391605
            ],
            [
              -79.7588617,
              -1.939483
            ],
            [
              -79.7581642,
              -1.941257
            ],
            [
              -79.7570607,
              -1.9421518
            ],
            [
              -79.7556865,
              -1.9418084
            ],
            [
              -79.7550046,
              -1.9421466
            ],
            [
              -79.7546975,
              -1.942105
            ],
            [
              -79.7540885,
              -1.9417148
            ],
            [
              -79.7533337,
              -1.9423599
            ],
            [
              -79.7529694,
              -1.9438945
            ],
            [
              -79.7521053,
              -1.9456633
            ],
            [
              -79.7514911,
              -1.9461731
            ],
            [
              -79.7512776,
              -1.9474581
            ],
            [
              -79.7510174,
              -1.9479471
            ],
            [
              -79.7493569,
              -1.9492165
            ],
            [
              -79.7490081,
              -1.9492321
            ],
            [
              -79.7482221,
              -1.9488471
            ],
            [
              -79.7479931,
              -1.9490292
            ],
            [
              -79.7477641,
              -1.9498563
            ],
            [
              -79.7479266,
              -1.9511494
            ],
            [
              -79.7465721,
              -1.9515062
            ],
            [
              -79.7456335,
              -1.9523008
            ],
            [
              -79.7438742,
              -1.9530254
            ],
            [
              -79.7427479,
              -1.954346
            ],
            [
              -79.7411482,
              -1.9544245
            ],
            [
              -79.7402744,
              -1.9546734
            ],
            [
              -79.7396929,
              -1.9550744
            ],
            [
              -79.7395162,
              -1.9555894
            ],
            [
              -79.7397113,
              -1.9560051
            ],
            [
              -79.7403885,
              -1.9565752
            ],
            [
              -79.7407934,
              -1.9572411
            ],
            [
              -79.7398217,
              -1.9581423
            ],
            [
              -79.7391813,
              -1.9584292
            ],
            [
              -79.7386181,
              -1.9597167
            ],
            [
              -79.7386954,
              -1.9601066
            ],
            [
              -79.7390009,
              -1.9603789
            ],
            [
              -79.7394868,
              -1.9606952
            ],
            [
              -79.7399542,
              -1.9604855
            ],
            [
              -79.7401935,
              -1.9609821
            ],
            [
              -79.7381912,
              -1.9645503
            ],
            [
              -79.7370502,
              -1.9652713
            ],
            [
              -79.7364944,
              -1.9652713
            ],
            [
              -79.7361926,
              -1.9655214
            ],
            [
              -79.735692,
              -1.9654589
            ],
            [
              -79.7350589,
              -1.9661431
            ],
            [
              -79.7349742,
              -1.966614
            ],
            [
              -79.7357361,
              -1.9673717
            ],
            [
              -79.7372894,
              -1.9677727
            ],
            [
              -79.738574,
              -1.9685268
            ],
            [
              -79.7390672,
              -1.96849
            ],
            [
              -79.7390635,
              -1.9678352
            ],
            [
              -79.7398512,
              -1.9676292
            ],
            [
              -79.7410621,
              -1.9682362
            ],
            [
              -79.740958,
              -1.9688183
            ],
            [
              -79.7411298,
              -1.9692241
            ],
            [
              -79.7405572,
              -1.9702801
            ],
            [
              -79.7419418,
              -1.9714454
            ],
            [
              -79.7419106,
              -1.9727147
            ],
            [
              -79.7422906,
              -1.9732662
            ],
            [
              -79.7423229,
              -1.9737213
            ],
            [
              -79.7422994,
              -1.9745419
            ],
            [
              -79.7418401,
              -1.9758582
            ],
            [
              -79.7425546,
              -1.9767853
            ],
            [
              -79.7433818,
              -1.9784082
            ],
            [
              -79.7432652,
              -1.9826995
            ],
            [
              -79.7455467,
              -1.9843727
            ],
            [
              -79.7468365,
              -1.9897303
            ],
            [
              -79.745849,
              -1.9935974
            ],
            [
              -79.7428461,
              -1.9969006
            ],
            [
              -79.7578789,
              -1.9969714
            ],
            [
              -79.7587482,
              -1.9968005
            ],
            [
              -79.7616553,
              -1.9956184
            ],
            [
              -79.7648816,
              -1.9925659
            ],
            [
              -79.7640251,
              -1.9916092
            ],
            [
              -79.7698144,
              -1.9901024
            ],
            [
              -79.7726931,
              -1.9877382
            ],
            [
              -79.7865162,
              -2.0025215
            ],
            [
              -79.7997069,
              -2.0148113
            ],
            [
              -79.8079296,
              -2.0157781
            ],
            [
              -79.8109324,
              -2.0165535
            ],
            [
              -79.8158297,
              -2.0197458
            ],
            [
              -79.8225913,
              -2.0261708
            ],
            [
              -79.8283148,
              -2.027349
            ],
            [
              -79.8608503,
              -2.0331955
            ],
            [
              -79.8608147,
              -2.0370265
            ],
            [
              -79.8606722,
              -2.0372971
            ],
            [
              -79.8608432,
              -2.0390417
            ],
            [
              -79.8615415,
              -2.0401668
            ],
            [
              -79.8618336,
              -2.0413702
            ],
            [
              -79.8623253,
              -2.0422817
            ],
            [
              -79.8621814,
              -2.0453831
            ],
            [
              -79.8623628,
              -2.0458458
            ],
            [
              -79.8631796,
              -2.0467492
            ],
            [
              -79.8630037,
              -2.0477652
            ],
            [
              -79.8631308,
              -2.0488984
            ],
            [
              -79.863991,
              -2.0508815
            ],
            [
              -79.863903,
              -2.0530893
            ],
            [
              -79.8653094,
              -2.0546988
            ],
            [
              -79.8657098,
              -2.0560555
            ],
            [
              -79.8667358,
              -2.0582812
            ],
            [
              -79.8680934,
              -2.059094
            ],
            [
              -79.8682999,
              -2.0593941
            ],
            [
              -79.8688942,
              -2.0593066
            ],
            [
              -79.8691006,
              -2.0594441
            ],
            [
              -79.86967,
              -2.0601131
            ],
            [
              -79.8697701,
              -2.060632
            ],
            [
              -79.8703831,
              -2.0609071
            ],
            [
              -79.8708211,
              -2.0608196
            ],
            [
              -79.8718846,
              -2.0618074
            ],
            [
              -79.8728168,
              -2.06202
            ],
            [
              -79.8730858,
              -2.0625764
            ],
            [
              -79.8729544,
              -2.0633954
            ],
            [
              -79.8731087,
              -2.0638178
            ],
            [
              -79.8741848,
              -2.0640959
            ],
            [
              -79.8746858,
              -2.064517
            ],
            [
              -79.8751006,
              -2.0644006
            ],
            [
              -79.8757532,
              -2.063283
            ],
            [
              -79.8766802,
              -2.0627281
            ],
            [
              -79.8767143,
              -2.0624221
            ],
            [
              -79.8771221,
              -2.0622183
            ],
            [
              -79.8776988,
              -2.0624578
            ],
            [
              -79.8782482,
              -2.0624129
            ],
            [
              -79.8789409,
              -2.0618854
            ],
            [
              -79.8804706,
              -2.0618161
            ],
            [
              -79.8810054,
              -2.0620292
            ],
            [
              -79.8814034,
              -2.0617966
            ],
            [
              -79.8816363,
              -2.0612937
            ],
            [
              -79.8833782,
              -2.0608357
            ],
            [
              -79.8861353,
              -2.0648554
            ],
            [
              -79.8876803,
              -2.0663993
            ],
            [
              -79.8911135,
              -2.0684579
            ],
            [
              -79.8930018,
              -2.0708596
            ],
            [
              -79.8935168,
              -2.0753199
            ]
          ]
        ]
      }
    },
    {
      "type": "Feature",
      "properties": {
        "name": "Malecón",
        "category": "Hip",
        "osmType": "way",
        "osmId": 490166880,
        "stroke": "#f43f5e",
        "stroke-width": 2,
        "stroke-opacity": 0.95,
        "fill": "#f43f5e",
        "fill-opacity": 0.16
      },
      "geometry": {
        "type": "Polygon",
        "coordinates": [
          [
            [
              -79.8985039,
              -2.1844697
            ],
            [
              -79.897797,
              -2.1853311
            ],
            [
              -79.8955573,
              -2.1842259
            ],
            [
              -79.8972307,
              -2.1848755
            ],
            [
              -79.8974687,
              -2.1844672
            ],
            [
              -79.8980275,
              -2.1844598
            ],
            [
              -79.8980248,
              -2.1847003
            ],
            [
              -79.8982188,
              -2.1845535
            ],
            [
              -79.8985039,
              -2.1844697
            ]
          ]
        ]
      }
    }
  ]
}
