{
  "type": "FeatureCollection",
  "features": [
    {
      "type": "Feature",
      "properties": {
        "name": "Ambala",
        "category": "Tourist",
        "osmType": "relation",
        "osmId": 4656491,
        "stroke": "#f59e0b",
        "stroke-width": 2,
        "stroke-opacity": 0.95,
        "fill": "#f59e0b",
        "fill-opacity": 0.16
      },
      "geometry": {
        "type": "Polygon",
        "coordinates": [
          [
            [
              -75.2241155,
              4.4939876
            ],
            [
              -75.2237775,
              4.4920923
            ],
            [
              -75.2185724,
              4.4878607
            ],
            [
              -75.2164345,
              4.4856331
            ],
            [
              -75.2146452,
              4.4827099
            ],
            [
              -75.2145137,
              4.479614
            ],
            [
              -75.2116701,
              4.4779147
            ],
            [
              -75.2111785,
              4.4771266
            ],
            [
              -75.2109846,
              4.475578
            ],
            [
              -75.2088799,
              4.4728937
            ],
            [
              -75.2072025,
              4.4720928
            ],
            [
              -75.2041083,
              4.4718331
            ],
            [
              -75.2031855,
              4.4709079
            ],
            [
              -75.2029194,
              4.4712167
            ],
            [
              -75.2022867,
              4.4734797
            ],
            [
              -75.2021197,
              4.4736749
            ],
            [
              -75.2014288,
              4.4736246
            ],
            [
              -75.2010115,
              4.4732037
            ],
            [
              -75.2007474,
              4.4713133
            ],
            [
              -75.1988931,
              4.4696706
            ],
            [
              -75.1993475,
              4.4711454
            ],
            [
              -75.1987089,
              4.475476
            ],
            [
              -75.198687,
              4.4770131
            ],
            [
              -75.2002916,
              4.4839821
            ],
            [
              -75.1996461,
              4.4860637
            ],
            [
              -75.1993764,
              4.4882612
            ],
            [
              -75.1998257,
              4.4893714
            ],
            [
              -75.2016246,
              4.4919324
            ],
            [
              -75.2016013,
              4.4925428
            ],
            [
              -75.2012943,
              4.4931665
            ],
            [
              -75.2008682,
              4.4935808
            ],
            [
              -75.1993162,
              4.4938256
            ],
            [
              -75.1979596,
              4.4951319
            ],
            [
              -75.196149,
              4.4948539
            ],
            [
              -75.1928131,
              4.4956428
            ],
            [
              -75.1923015,
              4.4954446
            ],
            [
              -75.190961,
              4.4940413
            ],
            [
              -75.1892225,
              4.4934015
            ],
            [
              -75.1873529,
              4.4913163
            ],
            [
              -75.1856999,
              4.4906362
            ],
            [
              -75.183092,
              4.4914664
            ],
            [
              -75.1810278,
              4.4929105
            ],
            [
              -75.1804331,
              4.4935606
            ],
            [
              -75.180306,
              4.4947769
            ],
            [
              -75.181409,
              4.4977612
            ],
            [
              -75.1828444,
              4.4993955
            ],
            [
              -75.184639,
              4.5006365
            ],
            [
              -75.1913963,
              4.5014676
            ],
            [
              -75.1933136,
              4.5026406
            ],
            [
              -75.1941422,
              4.5028857
            ],
            [
              -75.1950085,
              4.5027273
            ],
            [
              -75.1979627,
              4.5015456
            ],
            [
              -75.1997939,
              4.501653
            ],
            [
              -75.2015622,
              4.50229
            ],
            [
              -75.2027586,
              4.5032906
            ],
            [
              -75.2156586,
              4.5066208
            ],
            [
              -75.2158723,
              4.5067962
            ],
            [
              -75.2161606,
              4.5079039
            ],
            [
              -75.218015,
              4.5077394
            ],
            [
              -75.2200209,
              4.5068434
            ],
            [
              -75.2211975,
              4.5057193
            ],
            [
              -75.2221177,
              4.5043826
            ],
            [
              -75.2230065,
              4.5027509
            ],
            [
              -75.2233347,
              4.5013241
            ],
            [
              -75.2221691,
              4.4994233
            ],
            [
              -75.2218503,
              4.4982937
            ],
            [
              -75.2223524,
              4.4971113
            ],
            [
              -75.2235871,
              4.4956424
            ],
            [
              -75.224104,
              4.494586
            ],
            [
              -75.2241155,
              4.4939876
            ]
          ]
        ]
      }
    },
    {
      "type": "Feature",
      "properties": {
        "name": "Picaleña",
        "category": "Hip",
        "osmType": "relation",
        "osmId": 13473931,
        "stroke": "#f43f5e",
        "stroke-width": 2,
        "stroke-opacity": 0.95,
        "fill": "#f43f5e",
        "fill-opacity": 0.16
      },
      "geometry": {
        "type": "Polygon",
        "coordinates": [
          [
            [
              -75.2090379,
              4.4308807
            ],
            [
              -75.2079665,
              4.4287506
            ],
            [
              -75.2075316,
              4.4284523
            ],
            [
              -75.207333,
              4.4274363
            ],
            [
              -75.2072592,
              4.4237657
            ],
            [
              -75.2052261,
              4.4243327
            ],
            [
              -75.2027196,
              4.4239075
            ],
            [
              -75.2010968,
              4.4242671
            ],
            [
              -75.2007012,
              4.4239021
            ],
            [
              -75.2000374,
              4.4239329
            ],
            [
              -75.1994553,
              4.4243955
            ],
            [
              -75.1988961,
              4.4253114
            ],
            [
              -75.1983985,
              4.425754
            ],
            [
              -75.1970574,
              4.4263263
            ],
            [
              -75.1964086,
              4.4259527
            ],
            [
              -75.1958335,
              4.4250969
            ],
            [
              -75.196091,
              4.4235394
            ],
            [
              -75.1959194,
              4.4232827
            ],
            [
              -75.1947435,
              4.4232143
            ],
            [
              -75.1939195,
              4.4229404
            ],
            [
              -75.1930612,
              4.4235223
            ],
            [
              -75.1921686,
              4.4235394
            ],
            [
              -75.1919012,
              4.4240344
            ],
            [
              -75.1907086,
              4.4250074
            ],
            [
              -75.1904005,
              4.4247546
            ],
            [
              -75.1902464,
              4.423853
            ],
            [
              -75.1904961,
              4.423657
            ],
            [
              -75.1905386,
              4.4232174
            ],
            [
              -75.1900571,
              4.4228976
            ],
            [
              -75.1900228,
              4.4225981
            ],
            [
              -75.1893007,
              4.4223328
            ],
            [
              -75.1882967,
              4.4208285
            ],
            [
              -75.1867294,
              4.4203995
            ],
            [
              -75.1863735,
              4.4200605
            ],
            [
              -75.1863947,
              4.4196261
            ],
            [
              -75.1861025,
              4.4190541
            ],
            [
              -75.1865638,
              4.4179599
            ],
            [
              -75.1856722,
              4.4168029
            ],
            [
              -75.1854738,
              4.4155381
            ],
            [
              -75.1852611,
              4.4152201
            ],
            [
              -75.1766094,
              4.4114553
            ],
            [
              -75.1760545,
              4.4109016
            ],
            [
              -75.1742815,
              4.4101658
            ],
            [
              -75.1736864,
              4.4088611
            ],
            [
              -75.1714012,
              4.4065933
            ],
            [
              -75.1708862,
              4.4064542
            ],
            [
              -75.1699206,
              4.4065612
            ],
            [
              -75.1692554,
              4.4054487
            ],
            [
              -75.1678714,
              4.4047106
            ],
            [
              -75.1673779,
              4.4040474
            ],
            [
              -75.1662942,
              4.4032665
            ],
            [
              -75.1658866,
              4.4023572
            ],
            [
              -75.1666161,
              4.4012554
            ],
            [
              -75.1658222,
              4.4006136
            ],
            [
              -75.1656505,
              4.3994369
            ],
            [
              -75.1669487,
              4.3980141
            ],
            [
              -75.1635906,
              4.3942594
            ],
            [
              -75.163022,
              4.3944305
            ],
            [
              -75.1612302,
              4.3939492
            ],
            [
              -75.1594385,
              4.3956714
            ],
            [
              -75.1580652,
              4.3961635
            ],
            [
              -75.1559624,
              4.3965272
            ],
            [
              -75.152851,
              4.3977895
            ],
            [
              -75.1505336,
              4.397169
            ],
            [
              -75.1423743,
              4.3929463
            ],
            [
              -75.1359692,
              4.3874933
            ],
            [
              -75.1302615,
              4.3928206
            ],
            [
              -75.1345959,
              4.3970032
            ],
            [
              -75.1420892,
              4.4019825
            ],
            [
              -75.1401307,
              4.40932
            ],
            [
              -75.1392059,
              4.4099745
            ],
            [
              -75.1453358,
              4.4106403
            ],
            [
              -75.146013,
              4.410658
            ],
            [
              -75.1475034,
              4.4102006
            ],
            [
              -75.147851,
              4.4104106
            ],
            [
              -75.1494737,
              4.409923
            ],
            [
              -75.1526425,
              4.4101257
            ],
            [
              -75.1536687,
              4.4105006
            ],
            [
              -75.1553317,
              4.4106076
            ],
            [
              -75.15658,
              4.4103717
            ],
            [
              -75.1597766,
              4.4102519
            ],
            [
              -75.1652596,
              4.410821
            ],
            [
              -75.1665433,
              4.4113671
            ],
            [
              -75.1690898,
              4.4133241
            ],
            [
              -75.1707526,
              4.4138293
            ],
            [
              -75.1751037,
              4.41758
            ],
            [
              -75.1858316,
              4.4245501
            ],
            [
              -75.1860675,
              4.4247835
            ],
            [
              -75.1866078,
              4.4321083
            ],
            [
              -75.186741,
              4.4397584
            ],
            [
              -75.2041355,
              4.4353789
            ],
            [
              -75.2051467,
              4.4346034
            ],
            [
              -75.2055678,
              4.4335525
            ],
            [
              -75.2069258,
              4.432555
            ],
            [
              -75.2074561,
              4.4311639
            ],
            [
              -75.2080089,
              4.4308669
            ],
            [
              -75.2090075,
              4.431022
            ],
            [
              -75.2090379,
              4.4308807
            ]
          ]
        ]
      }
    }
  ]
}
