{
  "type": "FeatureCollection",
  "features": [
    {
      "type": "Feature",
      "properties": {
        "name": "Belen",
        "category": "Tourist",
        "osmType": "relation",
        "osmId": 1994092,
        "stroke": "#f59e0b",
        "stroke-width": 2,
        "stroke-opacity": 0.95,
        "fill": "#f59e0b",
        "fill-opacity": 0.16
      },
      "geometry": {
        "type": "Polygon",
        "coordinates": [
          [
            [
              -73.3908951,
              -4.1022566
            ],
            [
              -73.3908641,
              -4.1026989
            ],
            [
              -73.3900598,
              -4.1044469
            ],
            [
              -73.3889916,
              -4.1050284
            ],
            [
              -73.3857149,
              -4.1057627
            ],
            [
              -73.3830904,
              -4.1020468
            ],
            [
              -73.3525097,
              -4.0797402
            ],
            [
              -73.3270469,
              -4.0622012
            ],
            [
              -73.3233859,
              -4.0604328
            ],
            [
              -73.3172369,
              -4.0602968
            ],
            [
              -73.3107114,
              -4.0593632
            ],
            [
              -73.3061586,
              -4.0595763
            ],
            [
              -73.3004004,
              -4.0594453
            ],
            [
              -73.2945747,
              -4.0571445
            ],
            [
              -73.288528,
              -4.0523438
            ],
            [
              -73.2856156,
              -4.0493171
            ],
            [
              -73.2828174,
              -4.0450341
            ],
            [
              -73.2803047,
              -4.0402656
            ],
            [
              -73.2796509,
              -4.0234336
            ],
            [
              -73.2792016,
              -4.0198672
            ],
            [
              -73.2790942,
              -4.0138887
            ],
            [
              -73.279559,
              -4.0105566
            ],
            [
              -73.2807114,
              -4.0074551
            ],
            [
              -73.282756,
              -3.9999615
            ],
            [
              -73.2828829,
              -3.9933183
            ],
            [
              -73.2767559,
              -3.976125
            ],
            [
              -73.2749224,
              -3.9689121
            ],
            [
              -73.2660137,
              -3.9463262
            ],
            [
              -73.264264,
              -3.9402127
            ],
            [
              -73.26375,
              -3.9303047
            ],
            [
              -73.264186,
              -3.9228985
            ],
            [
              -73.2622641,
              -3.9132578
            ],
            [
              -73.2585102,
              -3.906715
            ],
            [
              -73.2550922,
              -3.9024628
            ],
            [
              -73.2473404,
              -3.8951075
            ],
            [
              -73.2401626,
              -3.8888985
            ],
            [
              -73.2374301,
              -3.8853378
            ],
            [
              -73.234813,
              -3.8810877
            ],
            [
              -73.231395,
              -3.8779843
            ],
            [
              -73.2274047,
              -3.8737325
            ],
            [
              -73.2238735,
              -3.8682207
            ],
            [
              -73.2202407,
              -3.8598398
            ],
            [
              -73.2168227,
              -3.8535253
            ],
            [
              -73.2105669,
              -3.8451387
            ],
            [
              -73.2036176,
              -3.8375528
            ],
            [
              -73.1905122,
              -3.8259433
            ],
            [
              -73.1751457,
              -3.811629
            ],
            [
              -73.1715312,
              -3.8094731
            ],
            [
              -73.1428617,
              -3.81475
            ],
            [
              -73.1170237,
              -3.8162382
            ],
            [
              -73.0852617,
              -3.8126016
            ],
            [
              -73.085793,
              -3.8087441
            ],
            [
              -73.0853419,
              -3.8043847
            ],
            [
              -73.0830919,
              -3.7911913
            ],
            [
              -73.078209,
              -3.7798262
            ],
            [
              -73.0743965,
              -3.7734551
            ],
            [
              -73.0733457,
              -3.7630137
            ],
            [
              -73.0645254,
              -3.7346953
            ],
            [
              -73.0580227,
              -3.7167661
            ],
            [
              -73.0555242,
              -3.7106985
            ],
            [
              -73.0550139,
              -3.7040103
            ],
            [
              -73.0550781,
              -3.688168
            ],
            [
              -73.0556261,
              -3.6764348
            ],
            [
              -73.0556035,
              -3.6736972
            ],
            [
              -73.055961,
              -3.6688828
            ],
            [
              -73.058282,
              -3.6647282
            ],
            [
              -73.0631931,
              -3.6588461
            ],
            [
              -73.0666055,
              -3.6560586
            ],
            [
              -73.073457,
              -3.6530918
            ],
            [
              -73.0933457,
              -3.641457
            ],
            [
              -73.106724,
              -3.6355461
            ],
            [
              -73.1155182,
              -3.6304065
            ],
            [
              -73.11983,
              -3.62633
            ],
            [
              -73.12504,
              -3.61754
            ],
            [
              -73.12693,
              -3.61553
            ],
            [
              -73.1279899,
              -3.6139
            ],
            [
              -73.13002,
              -3.61183
            ],
            [
              -73.1367681,
              -3.602645
            ],
            [
              -73.1401132,
              -3.5994453
            ],
            [
              -73.144791,
              -3.6041582
            ],
            [
              -73.1480937,
              -3.606916
            ],
            [
              -73.1519707,
              -3.6094472
            ],
            [
              -73.1696431,
              -3.6170755
            ],
            [
              -73.1823047,
              -3.6232715
            ],
            [
              -73.1934085,
              -3.6306887
            ],
            [
              -73.2002792,
              -3.6384516
            ],
            [
              -73.2042945,
              -3.6438056
            ],
            [
              -73.2102129,
              -3.6544082
            ],
            [
              -73.2192989,
              -3.6756445
            ],
            [
              -73.2245332,
              -3.6860918
            ],
            [
              -73.2287285,
              -3.6979141
            ],
            [
              -73.2328106,
              -3.7124882
            ],
            [
              -73.2351914,
              -3.7232735
            ],
            [
              -73.2364277,
              -3.7322226
            ],
            [
              -73.238785,
              -3.7522988
            ],
            [
              -73.2387418,
              -3.7550088
            ],
            [
              -73.2447875,
              -3.7582098
            ],
            [
              -73.2471022,
              -3.7583543
            ],
            [
              -73.2478318,
              -3.7579556
            ],
            [
              -73.248336,
              -3.758618
            ],
            [
              -73.250349,
              -3.7573969
            ],
            [
              -73.2536146,
              -3.7627872
            ],
            [
              -73.2546348,
              -3.7649685
            ],
            [
              -73.2558194,
              -3.7643123
            ],
            [
              -73.2562404,
              -3.7649167
            ],
            [
              -73.2567483,
              -3.7651394
            ],
            [
              -73.2601753,
              -3.7649718
            ],
            [
              -73.2666904,
              -3.7658216
            ],
            [
              -73.2711026,
              -3.7656369
            ],
            [
              -73.2717678,
              -3.7657707
            ],
            [
              -73.2727548,
              -3.7663261
            ],
            [
              -73.274513,
              -3.7728378
            ],
            [
              -73.2744527,
              -3.773808
            ],
            [
              -73.2737339,
              -3.7756279
            ],
            [
              -73.2719743,
              -3.7780367
            ],
            [
              -73.2667092,
              -3.7776513
            ],
            [
              -73.2597515,
              -3.7767707
            ],
            [
              -73.2584989,
              -3.7795354
            ],
            [
              -73.2577586,
              -3.7802955
            ],
            [
              -73.2568252,
              -3.7805632
            ],
            [
              -73.2562888,
              -3.7814089
            ],
            [
              -73.2562673,
              -3.7824473
            ],
            [
              -73.2566857,
              -3.7837106
            ],
            [
              -73.2563317,
              -3.784674
            ],
            [
              -73.2549584,
              -3.785584
            ],
            [
              -73.2533813,
              -3.7850702
            ],
            [
              -73.2515681,
              -3.7828541
            ],
            [
              -73.2502163,
              -3.7826186
            ],
            [
              -73.2483816,
              -3.7830468
            ],
            [
              -73.2476199,
              -3.7842887
            ],
            [
              -73.2478023,
              -3.7864726
            ],
            [
              -73.2497871,
              -3.7884317
            ],
            [
              -73.2524693,
              -3.7890633
            ],
            [
              -73.2601941,
              -3.7899839
            ],
            [
              -73.2670069,
              -3.7911615
            ],
            [
              -73.2692921,
              -3.7926068
            ],
            [
              -73.2732511,
              -3.7941162
            ],
            [
              -73.2787335,
              -3.7971565
            ],
            [
              -73.2852352,
              -3.8013744
            ],
            [
              -73.2895482,
              -3.8056458
            ],
            [
              -73.2946873,
              -3.8126041
            ],
            [
              -73.2970047,
              -3.8174535
            ],
            [
              -73.3011675,
              -3.8313699
            ],
            [
              -73.3052016,
              -3.8418178
            ],
            [
              -73.3132697,
              -3.8543208
            ],
            [
              -73.3168316,
              -3.8637408
            ],
            [
              -73.3189345,
              -3.8738029
            ],
            [
              -73.3209086,
              -3.888746
            ],
            [
              -73.3218956,
              -3.9015909
            ],
            [
              -73.3205653,
              -3.908998
            ],
            [
              -73.317132,
              -3.9169616
            ],
            [
              -73.3173466,
              -3.9206009
            ],
            [
              -73.317132,
              -3.9223991
            ],
            [
              -73.3178187,
              -3.9280935
            ],
            [
              -73.3184195,
              -3.9306195
            ],
            [
              -73.320458,
              -3.9340447
            ],
            [
              -73.3281183,
              -3.9439347
            ],
            [
              -73.32932,
              -3.9466534
            ],
            [
              -73.3319056,
              -3.9497145
            ],
            [
              -73.3344162,
              -3.9516625
            ],
            [
              -73.338579,
              -3.9560509
            ],
            [
              -73.340272,
              -3.9591046
            ],
            [
              -73.342142,
              -3.9605322
            ],
            [
              -73.342592,
              -3.9610984
            ],
            [
              -73.3432767,
              -3.9623901
            ],
            [
              -73.3434844,
              -3.9648542
            ],
            [
              -73.3451294,
              -3.9660415
            ],
            [
              -73.3453313,
              -3.9665769
            ],
            [
              -73.3451319,
              -3.9670101
            ],
            [
              -73.3428482,
              -3.9684779
            ],
            [
              -73.3425378,
              -3.9688815
            ],
            [
              -73.3426542,
              -3.9699135
            ],
            [
              -73.3432283,
              -3.9703711
            ],
            [
              -73.3442799,
              -3.9703342
            ],
            [
              -73.3460684,
              -3.9682917
            ],
            [
              -73.3466192,
              -3.9684779
            ],
            [
              -73.3470149,
              -3.9696651
            ],
            [
              -73.346751,
              -3.9727146
            ],
            [
              -73.346464,
              -3.9735215
            ],
            [
              -73.3450052,
              -3.9750966
            ],
            [
              -73.3449664,
              -3.9762761
            ],
            [
              -73.345719,
              -3.9769356
            ],
            [
              -73.3465882,
              -3.9768734
            ],
            [
              -73.3482564,
              -3.9763071
            ],
            [
              -73.3490323,
              -3.9767184
            ],
            [
              -73.3492185,
              -3.9776727
            ],
            [
              -73.3490712,
              -3.9807997
            ],
            [
              -73.349234,
              -3.9813196
            ],
            [
              -73.3495522,
              -3.9815835
            ],
            [
              -73.3498937,
              -3.9816921
            ],
            [
              -73.3504135,
              -3.9814826
            ],
            [
              -73.3506385,
              -3.9790074
            ],
            [
              -73.3511507,
              -3.9787047
            ],
            [
              -73.3515697,
              -3.9789609
            ],
            [
              -73.3523223,
              -3.9803265
            ],
            [
              -73.3531992,
              -3.9809706
            ],
            [
              -73.353618,
              -3.9811257
            ],
            [
              -73.3555023,
              -3.9810132
            ],
            [
              -73.3567167,
              -3.9812934
            ],
            [
              -73.3582039,
              -3.981987
            ],
            [
              -73.3591972,
              -3.9831199
            ],
            [
              -73.3592592,
              -3.9839811
            ],
            [
              -73.3589933,
              -3.9842539
            ],
            [
              -73.3569698,
              -3.9844455
            ],
            [
              -73.3565047,
              -3.9850054
            ],
            [
              -73.3565047,
              -3.9854244
            ],
            [
              -73.3570323,
              -3.9861847
            ],
            [
              -73.3597558,
              -3.987566
            ],
            [
              -73.35981,
              -3.988342
            ],
            [
              -73.358878,
              -3.9893147
            ],
            [
              -73.358072,
              -3.9907009
            ],
            [
              -73.357598,
              -3.9910709
            ],
            [
              -73.3571099,
              -3.991275
            ],
            [
              -73.355353,
              -3.9909057
            ],
            [
              -73.3548284,
              -3.9909646
            ],
            [
              -73.3543087,
              -3.9913914
            ],
            [
              -73.3540992,
              -3.9920509
            ],
            [
              -73.3541613,
              -3.9927802
            ],
            [
              -73.3546734,
              -3.9935717
            ],
            [
              -73.3557287,
              -3.9938976
            ],
            [
              -73.356264,
              -3.9938276
            ],
            [
              -73.3572107,
              -3.9931992
            ],
            [
              -73.3578934,
              -3.9930984
            ],
            [
              -73.3585842,
              -3.9934554
            ],
            [
              -73.3591895,
              -3.9940606
            ],
            [
              -73.3594222,
              -3.9948055
            ],
            [
              -73.3592127,
              -3.9951081
            ],
            [
              -73.3564892,
              -3.9952322
            ],
            [
              -73.3559124,
              -3.9954495
            ],
            [
              -73.3557364,
              -3.9960004
            ],
            [
              -73.3567374,
              -3.9966987
            ],
            [
              -73.3594082,
              -3.9975661
            ],
            [
              -73.3596704,
              -3.9982197
            ],
            [
              -73.3596859,
              -3.999756
            ],
            [
              -73.3598179,
              -4.0002604
            ],
            [
              -73.360198,
              -4.0006017
            ],
            [
              -73.3625879,
              -3.999756
            ],
            [
              -73.3645355,
              -3.9986076
            ],
            [
              -73.365102,
              -3.9986383
            ],
            [
              -73.3653517,
              -3.9988552
            ],
            [
              -73.3655365,
              -3.9997094
            ],
            [
              -73.364877,
              -4.0028675
            ],
            [
              -73.3646598,
              -4.0032011
            ],
            [
              -73.3643495,
              -4.003302
            ],
            [
              -73.3640079,
              -4.0031156
            ],
            [
              -73.3633175,
              -4.0014397
            ],
            [
              -73.3626733,
              -4.0013776
            ],
            [
              -73.3614473,
              -4.0030692
            ],
            [
              -73.360974,
              -4.0044659
            ],
            [
              -73.361168,
              -4.0046676
            ],
            [
              -73.3619983,
              -4.0048461
            ],
            [
              -73.3645899,
              -4.004947
            ],
            [
              -73.366297,
              -4.0056219
            ],
            [
              -73.3665995,
              -4.0055056
            ],
            [
              -73.3674532,
              -4.0040857
            ],
            [
              -73.3699128,
              -4.0042021
            ],
            [
              -73.370937,
              -4.0044736
            ],
            [
              -73.3715035,
              -4.0049702
            ],
            [
              -73.3720149,
              -4.0073344
            ],
            [
              -73.3718682,
              -4.0077171
            ],
            [
              -73.3705413,
              -4.0088266
            ],
            [
              -73.3704404,
              -4.0095871
            ],
            [
              -73.3707819,
              -4.0101612
            ],
            [
              -73.3727373,
              -4.0117209
            ],
            [
              -73.3732649,
              -4.0126986
            ],
            [
              -73.3730554,
              -4.013265
            ],
            [
              -73.3726363,
              -4.0134512
            ],
            [
              -73.3714178,
              -4.0134359
            ],
            [
              -73.3712397,
              -4.0138702
            ],
            [
              -73.3750203,
              -4.0161606
            ],
            [
              -73.3754608,
              -4.0167645
            ],
            [
              -73.3755229,
              -4.017238
            ],
            [
              -73.3752125,
              -4.0181767
            ],
            [
              -73.3730165,
              -4.0198837
            ],
            [
              -73.3729623,
              -4.0205666
            ],
            [
              -73.3736373,
              -4.0210711
            ],
            [
              -73.3754608,
              -4.0214124
            ],
            [
              -73.3764463,
              -4.0231737
            ],
            [
              -73.3785258,
              -4.0251835
            ],
            [
              -73.3787508,
              -4.0259206
            ],
            [
              -73.3784714,
              -4.0266422
            ],
            [
              -73.3780757,
              -4.0268206
            ],
            [
              -73.3758875,
              -4.0266034
            ],
            [
              -73.3755694,
              -4.0267741
            ],
            [
              -73.375453,
              -4.0270767
            ],
            [
              -73.3756004,
              -4.0274957
            ],
            [
              -73.3776024,
              -4.0282251
            ],
            [
              -73.3782464,
              -4.028683
            ],
            [
              -73.3786577,
              -4.0293425
            ],
            [
              -73.3784172,
              -4.0300097
            ],
            [
              -73.3779128,
              -4.0302581
            ],
            [
              -73.3759962,
              -4.0297694
            ],
            [
              -73.3758099,
              -4.0299477
            ],
            [
              -73.3753677,
              -4.0322989
            ],
            [
              -73.3777417,
              -4.0337846
            ],
            [
              -73.3787585,
              -4.0351077
            ],
            [
              -73.3811407,
              -4.0397945
            ],
            [
              -73.3813345,
              -4.0418971
            ],
            [
              -73.3807604,
              -4.04303
            ],
            [
              -73.3803414,
              -4.0432161
            ],
            [
              -73.3781145,
              -4.042836
            ],
            [
              -73.3767643,
              -4.0459476
            ],
            [
              -73.3760505,
              -4.0471735
            ],
            [
              -73.3756238,
              -4.0473597
            ],
            [
              -73.3752902,
              -4.0472744
            ],
            [
              -73.3747779,
              -4.046739
            ],
            [
              -73.3734977,
              -4.0448535
            ],
            [
              -73.3726597,
              -4.044613
            ],
            [
              -73.3724502,
              -4.0448379
            ],
            [
              -73.3724967,
              -4.046483
            ],
            [
              -73.3727373,
              -4.0471115
            ],
            [
              -73.3726443,
              -4.0475691
            ],
            [
              -73.3717984,
              -4.047996
            ],
            [
              -73.3714647,
              -4.048803
            ],
            [
              -73.3726519,
              -4.0497962
            ],
            [
              -73.3729002,
              -4.0501221
            ],
            [
              -73.3728692,
              -4.0504247
            ],
            [
              -73.3722018,
              -4.0509756
            ],
            [
              -73.3701379,
              -4.0516972
            ],
            [
              -73.369424,
              -4.0522947
            ],
            [
              -73.3692147,
              -4.0527137
            ],
            [
              -73.3692765,
              -4.0530473
            ],
            [
              -73.3697422,
              -4.0534121
            ],
            [
              -73.3704172,
              -4.0535207
            ],
            [
              -73.3720465,
              -4.0526361
            ],
            [
              -73.3726597,
              -4.0527836
            ],
            [
              -73.37297,
              -4.053381
            ],
            [
              -73.3729002,
              -4.0543121
            ],
            [
              -73.3713794,
              -4.0566632
            ],
            [
              -73.3714647,
              -4.0573771
            ],
            [
              -73.3755539,
              -4.0588281
            ],
            [
              -73.3758953,
              -4.0590531
            ],
            [
              -73.3759574,
              -4.0594101
            ],
            [
              -73.3756004,
              -4.0602092
            ],
            [
              -73.3749332,
              -4.0607525
            ],
            [
              -73.374452,
              -4.0608611
            ],
            [
              -73.3738003,
              -4.0606361
            ],
            [
              -73.3726363,
              -4.0596041
            ],
            [
              -73.3711543,
              -4.0587971
            ],
            [
              -73.3703784,
              -4.0589135
            ],
            [
              -73.3700448,
              -4.0598523
            ],
            [
              -73.3704094,
              -4.0608145
            ],
            [
              -73.3728847,
              -4.0626225
            ],
            [
              -73.373001,
              -4.0628707
            ],
            [
              -73.3726209,
              -4.0642597
            ],
            [
              -73.3730322,
              -4.0648106
            ],
            [
              -73.3738003,
              -4.0649968
            ],
            [
              -73.3783163,
              -4.064671
            ],
            [
              -73.3789293,
              -4.0647562
            ],
            [
              -73.379162,
              -4.06509
            ],
            [
              -73.3790767,
              -4.0657495
            ],
            [
              -73.3771135,
              -4.0656873
            ],
            [
              -73.3765937,
              -4.0659047
            ],
            [
              -73.376516,
              -4.0662151
            ],
            [
              -73.3768187,
              -4.0667505
            ],
            [
              -73.37855,
              -4.0679986
            ],
            [
              -73.3790302,
              -4.0688842
            ],
            [
              -73.3787275,
              -4.0694118
            ],
            [
              -73.3784047,
              -4.0694737
            ],
            [
              -73.3771368,
              -4.0690161
            ],
            [
              -73.3762678,
              -4.0690007
            ],
            [
              -73.3760815,
              -4.0694583
            ],
            [
              -73.3762368,
              -4.0697378
            ],
            [
              -73.3777887,
              -4.0712275
            ],
            [
              -73.3779593,
              -4.0718561
            ],
            [
              -73.3776024,
              -4.0722673
            ],
            [
              -73.3756625,
              -4.0721975
            ],
            [
              -73.3753134,
              -4.0724613
            ],
            [
              -73.374809,
              -4.073346
            ],
            [
              -73.3747779,
              -4.0740986
            ],
            [
              -73.3752978,
              -4.0746417
            ],
            [
              -73.3778953,
              -4.0746058
            ],
            [
              -73.3782385,
              -4.0748047
            ],
            [
              -73.3784094,
              -4.0750608
            ],
            [
              -73.3783085,
              -4.0755573
            ],
            [
              -73.3773463,
              -4.0761315
            ],
            [
              -73.3771758,
              -4.076892
            ],
            [
              -73.3784404,
              -4.0787852
            ],
            [
              -73.3800622,
              -4.0800732
            ],
            [
              -73.3801397,
              -4.0803526
            ],
            [
              -73.379775,
              -4.0807793
            ],
            [
              -73.3794957,
              -4.080795
            ],
            [
              -73.3782708,
              -4.0800922
            ],
            [
              -73.3774704,
              -4.0801665
            ],
            [
              -73.3773852,
              -4.0809423
            ],
            [
              -73.3781688,
              -4.0822148
            ],
            [
              -73.3781688,
              -4.0828743
            ],
            [
              -73.3779825,
              -4.0830373
            ],
            [
              -73.3776798,
              -4.083022
            ],
            [
              -73.3762179,
              -4.0821221
            ],
            [
              -73.3752823,
              -4.0819122
            ],
            [
              -73.3748013,
              -4.0822925
            ],
            [
              -73.3747237,
              -4.0831305
            ],
            [
              -73.3751272,
              -4.0835417
            ],
            [
              -73.3764618,
              -4.083503
            ],
            [
              -73.3773075,
              -4.084178
            ],
            [
              -73.3777963,
              -4.0852411
            ],
            [
              -73.3780757,
              -4.0866145
            ],
            [
              -73.3782929,
              -4.089726
            ],
            [
              -73.3788904,
              -4.0902536
            ],
            [
              -73.379713,
              -4.0902691
            ],
            [
              -73.3799457,
              -4.0901062
            ],
            [
              -73.3798138,
              -4.088469
            ],
            [
              -73.3801629,
              -4.0881741
            ],
            [
              -73.3804254,
              -4.088213
            ],
            [
              -73.382033,
              -4.0895941
            ],
            [
              -73.3824443,
              -4.0896872
            ],
            [
              -73.3832513,
              -4.0894855
            ],
            [
              -73.3837788,
              -4.0884223
            ],
            [
              -73.3840737,
              -4.086599
            ],
            [
              -73.3843453,
              -4.086242
            ],
            [
              -73.3846479,
              -4.0861722
            ],
            [
              -73.3851523,
              -4.0863661
            ],
            [
              -73.3854083,
              -4.0868705
            ],
            [
              -73.3855169,
              -4.088081
            ],
            [
              -73.3852065,
              -4.0914796
            ],
            [
              -73.3855014,
              -4.0934505
            ],
            [
              -73.3860679,
              -4.0944048
            ],
            [
              -73.386867,
              -4.0948238
            ],
            [
              -73.3895984,
              -4.0948238
            ],
            [
              -73.3903665,
              -4.0952041
            ],
            [
              -73.3904474,
              -4.0958651
            ],
            [
              -73.3901698,
              -4.0961988
            ],
            [
              -73.388481,
              -4.0962826
            ],
            [
              -73.3880388,
              -4.0966551
            ],
            [
              -73.3878214,
              -4.0973457
            ],
            [
              -73.3882329,
              -4.0981915
            ],
            [
              -73.3895595,
              -4.0989673
            ],
            [
              -73.3902269,
              -4.0996425
            ],
            [
              -73.3903907,
              -4.1009763
            ],
            [
              -73.3908252,
              -4.101822
            ],
            [
              -73.3908951,
              -4.1022566
            ]
          ]
        ]
      }
    },
    {
      "type": "Feature",
      "properties": {
        "name": "Punchana",
        "category": "Residential",
        "osmType": "relation",
        "osmId": 1994119,
        "stroke": "#0f766e",
        "stroke-width": 2,
        "stroke-opacity": 0.95,
        "fill": "#0f766e",
        "fill-opacity": 0.16
      },
      "geometry": {
        "type": "Polygon",
        "coordinates": [
          [
            [
              -73.6611641,
              -3.4939356
            ],
            [
              -73.6607767,
              -3.4956547
            ],
            [
              -73.6578519,
              -3.4986468
            ],
            [
              -73.653112,
              -3.5016736
            ],
            [
              -73.6500282,
              -3.5054997
            ],
            [
              -73.6487871,
              -3.5087285
            ],
            [
              -73.6483874,
              -3.5128688
            ],
            [
              -73.6481701,
              -3.5207441
            ],
            [
              -73.6481856,
              -3.5324395
            ],
            [
              -73.6444379,
              -3.5466716
            ],
            [
              -73.6369219,
              -3.5819512
            ],
            [
              -73.6252051,
              -3.6204531
            ],
            [
              -73.587836,
              -3.6413418
            ],
            [
              -73.5739746,
              -3.6608242
            ],
            [
              -73.5673575,
              -3.6708157
            ],
            [
              -73.557969,
              -3.6865991
            ],
            [
              -73.5509449,
              -3.6955078
            ],
            [
              -73.5473847,
              -3.6991367
            ],
            [
              -73.5316804,
              -3.7081882
            ],
            [
              -73.5151426,
              -3.7194941
            ],
            [
              -73.5119785,
              -3.7219766
            ],
            [
              -73.509002,
              -3.727254
            ],
            [
              -73.505791,
              -3.734131
            ],
            [
              -73.5009212,
              -3.7401308
            ],
            [
              -73.4993504,
              -3.7412268
            ],
            [
              -73.4973379,
              -3.7416582
            ],
            [
              -73.47117,
              -3.736752
            ],
            [
              -73.4483535,
              -3.7379805
            ],
            [
              -73.4285274,
              -3.7372558
            ],
            [
              -73.3977774,
              -3.7158163
            ],
            [
              -73.3695586,
              -3.7150195
            ],
            [
              -73.353711,
              -3.7121562
            ],
            [
              -73.3197031,
              -3.686252
            ],
            [
              -73.3173516,
              -3.685584
            ],
            [
              -73.315306,
              -3.6852526
            ],
            [
              -73.3075964,
              -3.6870228
            ],
            [
              -73.2921914,
              -3.692916
            ],
            [
              -73.27697,
              -3.7073898
            ],
            [
              -73.2749879,
              -3.7104408
            ],
            [
              -73.274809,
              -3.7111645
            ],
            [
              -73.2749986,
              -3.712421
            ],
            [
              -73.2748992,
              -3.7128678
            ],
            [
              -73.2744711,
              -3.7131322
            ],
            [
              -73.2737302,
              -3.7132331
            ],
            [
              -73.2735287,
              -3.713482
            ],
            [
              -73.2722425,
              -3.7162203
            ],
            [
              -73.2711281,
              -3.7165773
            ],
            [
              -73.2690041,
              -3.7166475
            ],
            [
              -73.2675362,
              -3.7174768
            ],
            [
              -73.2669256,
              -3.7185261
            ],
            [
              -73.2666235,
              -3.7200435
            ],
            [
              -73.2671242,
              -3.7233901
            ],
            [
              -73.26676,
              -3.72402
            ],
            [
              -73.2633869,
              -3.7254748
            ],
            [
              -73.2630786,
              -3.727789
            ],
            [
              -73.2633253,
              -3.7283993
            ],
            [
              -73.2619192,
              -3.7293642
            ],
            [
              -73.2583501,
              -3.7303017
            ],
            [
              -73.2364277,
              -3.7322402
            ],
            [
              -73.2351914,
              -3.7232735
            ],
            [
              -73.2328106,
              -3.7124882
            ],
            [
              -73.2287285,
              -3.6979141
            ],
            [
              -73.2245332,
              -3.6860918
            ],
            [
              -73.2192989,
              -3.6756445
            ],
            [
              -73.2102129,
              -3.6544082
            ],
            [
              -73.2042945,
              -3.6438056
            ],
            [
              -73.2002792,
              -3.6384516
            ],
            [
              -73.1934085,
              -3.6306887
            ],
            [
              -73.1823047,
              -3.6232715
            ],
            [
              -73.1696431,
              -3.6170755
            ],
            [
              -73.1519707,
              -3.6094472
            ],
            [
              -73.1480937,
              -3.606916
            ],
            [
              -73.144791,
              -3.6041582
            ],
            [
              -73.1401132,
              -3.5994453
            ],
            [
              -73.1425252,
              -3.5939433
            ],
            [
              -73.1464239,
              -3.5866132
            ],
            [
              -73.1521445,
              -3.5775625
            ],
            [
              -73.1571816,
              -3.5720703
            ],
            [
              -73.1605879,
              -3.5693516
            ],
            [
              -73.1894414,
              -3.5735703
            ],
            [
              -73.1953606,
              -3.5738763
            ],
            [
              -73.2074904,
              -3.5710781
            ],
            [
              -73.2385039,
              -3.5594297
            ],
            [
              -73.2473077,
              -3.5547898
            ],
            [
              -73.2561117,
              -3.5538381
            ],
            [
              -73.2903476,
              -3.5546075
            ],
            [
              -73.299003,
              -3.5478707
            ],
            [
              -73.3093536,
              -3.53752
            ],
            [
              -73.3197364,
              -3.5264317
            ],
            [
              -73.3243047,
              -3.5186366
            ],
            [
              -73.3257896,
              -3.514582
            ],
            [
              -73.3276741,
              -3.5085286
            ],
            [
              -73.3287591,
              -3.5025325
            ],
            [
              -73.3286152,
              -3.4952695
            ],
            [
              -73.3249567,
              -3.4891575
            ],
            [
              -73.322726,
              -3.4841606
            ],
            [
              -73.3212057,
              -3.4778773
            ],
            [
              -73.3207461,
              -3.4717578
            ],
            [
              -73.3221166,
              -3.4687596
            ],
            [
              -73.3397485,
              -3.4578451
            ],
            [
              -73.360041,
              -3.4476856
            ],
            [
              -73.3914239,
              -3.4258945
            ],
            [
              -73.4109429,
              -3.4152427
            ],
            [
              -73.43467,
              -3.3984902
            ],
            [
              -73.4431467,
              -3.3876153
            ],
            [
              -73.4694785,
              -3.3431641
            ],
            [
              -73.4739702,
              -3.336471
            ],
            [
              -73.4768827,
              -3.3315597
            ],
            [
              -73.4795979,
              -3.3261232
            ],
            [
              -73.4797695,
              -3.3231407
            ],
            [
              -73.4794269,
              -3.3205422
            ],
            [
              -73.4735345,
              -3.3094645
            ],
            [
              -73.4718316,
              -3.3024965
            ],
            [
              -73.470918,
              -3.2957578
            ],
            [
              -73.470918,
              -3.2925598
            ],
            [
              -73.4716032,
              -3.2906181
            ],
            [
              -73.4724844,
              -3.2896075
            ],
            [
              -73.4759642,
              -3.2874213
            ],
            [
              -73.480515,
              -3.2856367
            ],
            [
              -73.4848872,
              -3.2847445
            ],
            [
              -73.4993125,
              -3.2839766
            ],
            [
              -73.5155625,
              -3.287875
            ],
            [
              -73.5311554,
              -3.2920207
            ],
            [
              -73.5675566,
              -3.3030566
            ],
            [
              -73.578959,
              -3.3058157
            ],
            [
              -73.616,
              -3.3154492
            ],
            [
              -73.6299421,
              -3.3204126
            ],
            [
              -73.6487266,
              -3.3228125
            ],
            [
              -73.6516426,
              -3.3335098
            ],
            [
              -73.6522599,
              -3.3393087
            ],
            [
              -73.6528242,
              -3.3424668
            ],
            [
              -73.6533301,
              -3.3543516
            ],
            [
              -73.6521751,
              -3.3605658
            ],
            [
              -73.648666,
              -3.3671132
            ],
            [
              -73.648152,
              -3.3720532
            ],
            [
              -73.6479236,
              -3.3801623
            ],
            [
              -73.646711,
              -3.3852578
            ],
            [
              -73.6431701,
              -3.3923106
            ],
            [
              -73.6365459,
              -3.4017332
            ],
            [
              -73.627821,
              -3.4107308
            ],
            [
              -73.6270566,
              -3.4127363
            ],
            [
              -73.6422627,
              -3.4375003
            ],
            [
              -73.6486132,
              -3.4549472
            ],
            [
              -73.6546445,
              -3.4780293
            ],
            [
              -73.6594986,
              -3.4895362
            ],
            [
              -73.6611641,
              -3.4939356
            ]
          ]
        ]
      }
    }
  ]
}
