{
  "type": "FeatureCollection",
  "features": [
    {
      "type": "Feature",
      "properties": {
        "name": "Altiplano",
        "category": "Tourist",
        "osmType": "relation",
        "osmId": 3062495,
        "stroke": "#f59e0b",
        "stroke-width": 2,
        "stroke-opacity": 0.95,
        "fill": "#f59e0b",
        "fill-opacity": 0.16
      },
      "geometry": {
        "type": "Polygon",
        "coordinates": [
          [
            [
              -34.835871,
              -7.1346479
            ],
            [
              -34.8354632,
              -7.1387934
            ],
            [
              -34.8342752,
              -7.1407224
            ],
            [
              -34.8333896,
              -7.1410225
            ],
            [
              -34.8316399,
              -7.1407224
            ],
            [
              -34.8293799,
              -7.1418571
            ],
            [
              -34.8286715,
              -7.1425271
            ],
            [
              -34.8284945,
              -7.143073
            ],
            [
              -34.8186759,
              -7.1405766
            ],
            [
              -34.8204377,
              -7.1386312
            ],
            [
              -34.8231348,
              -7.1344909
            ],
            [
              -34.826611,
              -7.1284095
            ],
            [
              -34.8268634,
              -7.128214
            ],
            [
              -34.8283251,
              -7.1286308
            ],
            [
              -34.8289895,
              -7.1278351
            ],
            [
              -34.8289437,
              -7.1274486
            ],
            [
              -34.8284091,
              -7.1266075
            ],
            [
              -34.8281495,
              -7.1250145
            ],
            [
              -34.8301695,
              -7.1246205
            ],
            [
              -34.8324051,
              -7.126926
            ],
            [
              -34.8332742,
              -7.1268888
            ],
            [
              -34.8356114,
              -7.133299
            ],
            [
              -34.835871,
              -7.1346479
            ]
          ]
        ]
      }
    },
    {
      "type": "Feature",
      "properties": {
        "name": "Manaíra",
        "category": "Residential",
        "osmType": "relation",
        "osmId": 3062425,
        "stroke": "#0f766e",
        "stroke-width": 2,
        "stroke-opacity": 0.95,
        "fill": "#0f766e",
        "fill-opacity": 0.16
      },
      "geometry": {
        "type": "Polygon",
        "coordinates": [
          [
            [
              -34.8453873,
              -7.0979944
            ],
            [
              -34.843912,
              -7.1020889
            ],
            [
              -34.8431796,
              -7.1034844
            ],
            [
              -34.8405784,
              -7.1070386
            ],
            [
              -34.8369715,
              -7.110664
            ],
            [
              -34.8358537,
              -7.1115689
            ],
            [
              -34.8328929,
              -7.1133719
            ],
            [
              -34.8323256,
              -7.1141738
            ],
            [
              -34.8231662,
              -7.1096423
            ],
            [
              -34.8268988,
              -7.1065862
            ],
            [
              -34.8299404,
              -7.1031618
            ],
            [
              -34.8316376,
              -7.1000769
            ],
            [
              -34.8325711,
              -7.0971581
            ],
            [
              -34.8334212,
              -7.0970829
            ],
            [
              -34.8450668,
              -7.0979694
            ],
            [
              -34.8453873,
              -7.0979944
            ]
          ]
        ]
      }
    },
    {
      "type": "Feature",
      "properties": {
        "name": "Tambaú",
        "category": "Hip",
        "osmType": "relation",
        "osmId": 3062452,
        "stroke": "#f43f5e",
        "stroke-width": 2,
        "stroke-opacity": 0.95,
        "fill": "#f43f5e",
        "fill-opacity": 0.16
      },
      "geometry": {
        "type": "Polygon",
        "coordinates": [
          [
            [
              -34.8323256,
              -7.1141738
            ],
            [
              -34.8319978,
              -7.1148878
            ],
            [
              -34.8319734,
              -7.1167623
            ],
            [
              -34.830872,
              -7.1194406
            ],
            [
              -34.8236899,
              -7.119402
            ],
            [
              -34.8227836,
              -7.1196097
            ],
            [
              -34.822,
              -7.1156528
            ],
            [
              -34.8212157,
              -7.1136761
            ],
            [
              -34.8210054,
              -7.1121154
            ],
            [
              -34.8214641,
              -7.1110832
            ],
            [
              -34.8231662,
              -7.1096423
            ],
            [
              -34.8323256,
              -7.1141738
            ]
          ]
        ]
      }
    }
  ]
}
