{
  "type": "FeatureCollection",
  "features": [
    {
      "type": "Feature",
      "properties": {
        "name": "Bolonia",
        "category": "Hip",
        "osmType": "relation",
        "osmId": 5849944,
        "stroke": "#f43f5e",
        "stroke-width": 2,
        "stroke-opacity": 0.95,
        "fill": "#f43f5e",
        "fill-opacity": 0.16
      },
      "geometry": {
        "type": "Polygon",
        "coordinates": [
          [
            [
              -86.2883071,
              12.137322
            ],
            [
              -86.2844581,
              12.1351905
            ],
            [
              -86.2833307,
              12.1348895
            ],
            [
              -86.281592,
              12.135167
            ],
            [
              -86.2811538,
              12.135478
            ],
            [
              -86.2802857,
              12.1353411
            ],
            [
              -86.27221,
              12.1368256
            ],
            [
              -86.2741231,
              12.1373665
            ],
            [
              -86.2749677,
              12.1380331
            ],
            [
              -86.27546,
              12.1387202
            ],
            [
              -86.2751775,
              12.1419308
            ],
            [
              -86.2770884,
              12.1422745
            ],
            [
              -86.2777326,
              12.1422323
            ],
            [
              -86.2791629,
              12.1416724
            ],
            [
              -86.2844056,
              12.1425575
            ],
            [
              -86.2859248,
              12.1420541
            ],
            [
              -86.287471,
              12.1420687
            ],
            [
              -86.2879973,
              12.1409996
            ],
            [
              -86.2882588,
              12.1378776
            ],
            [
              -86.2883071,
              12.137322
            ]
          ]
        ]
      }
    }
  ]
}
