{
  "type": "FeatureCollection",
  "features": [
    {
      "type": "Feature",
      "properties": {
        "name": "Centro",
        "category": "Tourist",
        "osmType": "relation",
        "osmId": 7165420,
        "stroke": "#f59e0b",
        "stroke-width": 2,
        "stroke-opacity": 0.95,
        "fill": "#f59e0b",
        "fill-opacity": 0.16
      },
      "geometry": {
        "type": "Polygon",
        "coordinates": [
          [
            [
              -60.0316934,
              -3.1327459
            ],
            [
              -60.031026,
              -3.1336915
            ],
            [
              -60.0304056,
              -3.1339384
            ],
            [
              -60.0305273,
              -3.1342668
            ],
            [
              -60.0300051,
              -3.1345286
            ],
            [
              -60.0304748,
              -3.1356603
            ],
            [
              -60.0269416,
              -3.1370266
            ],
            [
              -60.0252737,
              -3.1388416
            ],
            [
              -60.0239258,
              -3.1407992
            ],
            [
              -60.0212468,
              -3.1419162
            ],
            [
              -60.0197643,
              -3.1417708
            ],
            [
              -60.0187687,
              -3.1414365
            ],
            [
              -60.0182623,
              -3.1409995
            ],
            [
              -60.0168718,
              -3.1389169
            ],
            [
              -60.0153623,
              -3.1376912
            ],
            [
              -60.0150792,
              -3.1379509
            ],
            [
              -60.0148244,
              -3.1377764
            ],
            [
              -60.0144865,
              -3.1384359
            ],
            [
              -60.0137047,
              -3.1385827
            ],
            [
              -60.0134729,
              -3.1380685
            ],
            [
              -60.0130695,
              -3.1383084
            ],
            [
              -60.0114075,
              -3.1383721
            ],
            [
              -60.0116553,
              -3.138036
            ],
            [
              -60.0115336,
              -3.1373223
            ],
            [
              -60.0105256,
              -3.1364444
            ],
            [
              -60.0097248,
              -3.1362151
            ],
            [
              -60.0104,
              -3.13418
            ],
            [
              -60.0099397,
              -3.1311724
            ],
            [
              -60.0093748,
              -3.1296006
            ],
            [
              -60.0095624,
              -3.1284218
            ],
            [
              -60.0168033,
              -3.1282843
            ],
            [
              -60.0167212,
              -3.1158355
            ],
            [
              -60.0240469,
              -3.1159278
            ],
            [
              -60.0242298,
              -3.1159682
            ],
            [
              -60.0242048,
              -3.1177415
            ],
            [
              -60.0240475,
              -3.1181147
            ],
            [
              -60.024305,
              -3.1186503
            ],
            [
              -60.0243351,
              -3.1199246
            ],
            [
              -60.0246147,
              -3.1206532
            ],
            [
              -60.025453,
              -3.1208465
            ],
            [
              -60.0254734,
              -3.121296
            ],
            [
              -60.0277842,
              -3.1218204
            ],
            [
              -60.0276306,
              -3.1220753
            ],
            [
              -60.027636,
              -3.1305962
            ],
            [
              -60.0283092,
              -3.1305695
            ],
            [
              -60.0283067,
              -3.1311583
            ],
            [
              -60.0290643,
              -3.1326531
            ],
            [
              -60.0284363,
              -3.1331881
            ],
            [
              -60.0292975,
              -3.1328993
            ],
            [
              -60.0316274,
              -3.1325734
            ],
            [
              -60.0316934,
              -3.1327459
            ]
          ]
        ]
      }
    },
    {
      "type": "Feature",
      "properties": {
        "name": "Ponta Negra",
        "category": "Residential",
        "osmType": "relation",
        "osmId": 7313342,
        "stroke": "#0f766e",
        "stroke-width": 2,
        "stroke-opacity": 0.95,
        "fill": "#0f766e",
        "fill-opacity": 0.16
      },
      "geometry": {
        "type": "Polygon",
        "coordinates": [
          [
            [
              -60.1157576,
              -3.0472624
            ],
            [
              -60.1142972,
              -3.0492348
            ],
            [
              -60.1146899,
              -3.050198
            ],
            [
              -60.1147172,
              -3.0515104
            ],
            [
              -60.1151678,
              -3.0517289
            ],
            [
              -60.1154586,
              -3.0527037
            ],
            [
              -60.115514,
              -3.053739
            ],
            [
              -60.1152297,
              -3.0538563
            ],
            [
              -60.1150623,
              -3.0537031
            ],
            [
              -60.1147178,
              -3.0529883
            ],
            [
              -60.1139461,
              -3.0532286
            ],
            [
              -60.1136905,
              -3.0529163
            ],
            [
              -60.1129272,
              -3.0537245
            ],
            [
              -60.1139075,
              -3.0551249
            ],
            [
              -60.1136749,
              -3.0556935
            ],
            [
              -60.1129923,
              -3.056073
            ],
            [
              -60.113373,
              -3.056929
            ],
            [
              -60.1133323,
              -3.0574839
            ],
            [
              -60.113209,
              -3.0577145
            ],
            [
              -60.1118474,
              -3.0579651
            ],
            [
              -60.1111981,
              -3.0586566
            ],
            [
              -60.1107986,
              -3.0594496
            ],
            [
              -60.1104483,
              -3.0614458
            ],
            [
              -60.1103087,
              -3.0616261
            ],
            [
              -60.1100192,
              -3.0614522
            ],
            [
              -60.1096067,
              -3.0618176
            ],
            [
              -60.1097456,
              -3.062454
            ],
            [
              -60.1089654,
              -3.0637005
            ],
            [
              -60.1082295,
              -3.063825
            ],
            [
              -60.1077832,
              -3.0646601
            ],
            [
              -60.1045164,
              -3.0646146
            ],
            [
              -60.1018347,
              -3.0652537
            ],
            [
              -60.1002889,
              -3.0659653
            ],
            [
              -60.0993,
              -3.0660277
            ],
            [
              -60.0982084,
              -3.0671258
            ],
            [
              -60.096654,
              -3.0679628
            ],
            [
              -60.0955328,
              -3.0692351
            ],
            [
              -60.0946219,
              -3.0694716
            ],
            [
              -60.0940778,
              -3.0701095
            ],
            [
              -60.0938364,
              -3.0711005
            ],
            [
              -60.0932087,
              -3.0717594
            ],
            [
              -60.0906032,
              -3.0733492
            ],
            [
              -60.0901829,
              -3.0745104
            ],
            [
              -60.0895606,
              -3.075144
            ],
            [
              -60.0891976,
              -3.0761379
            ],
            [
              -60.0888045,
              -3.0765483
            ],
            [
              -60.0887072,
              -3.0769773
            ],
            [
              -60.0891633,
              -3.0782236
            ],
            [
              -60.0897123,
              -3.078684
            ],
            [
              -60.0897402,
              -3.0789263
            ],
            [
              -60.0895416,
              -3.0790669
            ],
            [
              -60.0896945,
              -3.0812453
            ],
            [
              -60.0886533,
              -3.0810179
            ],
            [
              -60.0885204,
              -3.0816358
            ],
            [
              -60.0882262,
              -3.0819483
            ],
            [
              -60.0869104,
              -3.082273
            ],
            [
              -60.0862643,
              -3.0828318
            ],
            [
              -60.0854813,
              -3.082855
            ],
            [
              -60.0853459,
              -3.0826685
            ],
            [
              -60.0848789,
              -3.0827058
            ],
            [
              -60.084524,
              -3.0830183
            ],
            [
              -60.0838982,
              -3.082925
            ],
            [
              -60.0834317,
              -3.0840487
            ],
            [
              -60.0819621,
              -3.0847575
            ],
            [
              -60.0813425,
              -3.0856146
            ],
            [
              -60.0796768,
              -3.0868359
            ],
            [
              -60.0790814,
              -3.0877793
            ],
            [
              -60.0791867,
              -3.0885599
            ],
            [
              -60.0787033,
              -3.0922109
            ],
            [
              -60.0781739,
              -3.0924819
            ],
            [
              -60.077727,
              -3.0933786
            ],
            [
              -60.0772641,
              -3.0933325
            ],
            [
              -60.0771155,
              -3.0935929
            ],
            [
              -60.0772549,
              -3.093925
            ],
            [
              -60.0758591,
              -3.0954741
            ],
            [
              -60.0761697,
              -3.0957634
            ],
            [
              -60.0750904,
              -3.0969359
            ],
            [
              -60.0747873,
              -3.0974528
            ],
            [
              -60.0747653,
              -3.0979576
            ],
            [
              -60.0711906,
              -3.0965885
            ],
            [
              -60.0703993,
              -3.0956004
            ],
            [
              -60.0693681,
              -3.0928031
            ],
            [
              -60.069459,
              -3.0911459
            ],
            [
              -60.0700186,
              -3.0899258
            ],
            [
              -60.0702002,
              -3.0888446
            ],
            [
              -60.070237,
              -3.085948
            ],
            [
              -60.072063,
              -3.0859733
            ],
            [
              -60.0729775,
              -3.0855731
            ],
            [
              -60.0735991,
              -3.0850218
            ],
            [
              -60.0780752,
              -3.0778898
            ],
            [
              -60.079248,
              -3.0766358
            ],
            [
              -60.0800725,
              -3.0762518
            ],
            [
              -60.0811888,
              -3.0761584
            ],
            [
              -60.0842446,
              -3.0770534
            ],
            [
              -60.0851094,
              -3.0769703
            ],
            [
              -60.0840287,
              -3.057029
            ],
            [
              -60.0813431,
              -3.0552516
            ],
            [
              -60.0804939,
              -3.0535318
            ],
            [
              -60.0782313,
              -3.0515301
            ],
            [
              -60.0747717,
              -3.0471346
            ],
            [
              -60.0737048,
              -3.0443206
            ],
            [
              -60.0685481,
              -3.0381654
            ],
            [
              -60.068182,
              -3.0371691
            ],
            [
              -60.0684546,
              -3.0352379
            ],
            [
              -60.0683583,
              -3.0335192
            ],
            [
              -60.0699549,
              -3.0329672
            ],
            [
              -60.0708436,
              -3.0330426
            ],
            [
              -60.0715539,
              -3.033366
            ],
            [
              -60.0731654,
              -3.03331
            ],
            [
              -60.0739667,
              -3.0326367
            ],
            [
              -60.0749744,
              -3.0321393
            ],
            [
              -60.0757253,
              -3.0319343
            ],
            [
              -60.076231,
              -3.0320539
            ],
            [
              -60.0764742,
              -3.0308085
            ],
            [
              -60.0776973,
              -3.0282586
            ],
            [
              -60.0794354,
              -3.0234302
            ],
            [
              -60.0793149,
              -3.0228835
            ],
            [
              -60.0800148,
              -3.020634
            ],
            [
              -60.080916,
              -3.0162627
            ],
            [
              -60.081131,
              -3.0137888
            ],
            [
              -60.0807903,
              -3.012461
            ],
            [
              -60.0818708,
              -3.0111862
            ],
            [
              -60.0830397,
              -3.0079682
            ],
            [
              -60.0826913,
              -3.0070503
            ],
            [
              -60.0830962,
              -3.0061682
            ],
            [
              -60.0835757,
              -3.0056664
            ],
            [
              -60.0848374,
              -3.004865
            ],
            [
              -60.0875951,
              -3.0044165
            ],
            [
              -60.0898761,
              -3.0038143
            ],
            [
              -60.100634,
              -3.0045187
            ],
            [
              -60.0971688,
              -3.0176141
            ],
            [
              -60.1014174,
              -3.0218568
            ],
            [
              -60.1038636,
              -3.0273423
            ],
            [
              -60.1057004,
              -3.0336292
            ],
            [
              -60.1073397,
              -3.0377133
            ],
            [
              -60.1095284,
              -3.0397274
            ],
            [
              -60.1157576,
              -3.0472624
            ]
          ]
        ]
      }
    },
    {
      "type": "Feature",
      "properties": {
        "name": "Adrianópolis",
        "category": "Hip",
        "osmType": "relation",
        "osmId": 4573216,
        "stroke": "#f43f5e",
        "stroke-width": 2,
        "stroke-opacity": 0.95,
        "fill": "#f43f5e",
        "fill-opacity": 0.16
      },
      "geometry": {
        "type": "Polygon",
        "coordinates": [
          [
            [
              -60.0167212,
              -3.1158355
            ],
            [
              -60.0134802,
              -3.1158077
            ],
            [
              -60.0114422,
              -3.1160111
            ],
            [
              -60.0108362,
              -3.1159607
            ],
            [
              -60.0105831,
              -3.1156549
            ],
            [
              -60.0102236,
              -3.1078133
            ],
            [
              -60.0084297,
              -3.1070273
            ],
            [
              -60.0068411,
              -3.1059797
            ],
            [
              -60.0076589,
              -3.1050652
            ],
            [
              -60.0061771,
              -3.1021693
            ],
            [
              -60.0058181,
              -3.1005455
            ],
            [
              -60.0058847,
              -3.0993527
            ],
            [
              -60.0066949,
              -3.0977033
            ],
            [
              -60.0060289,
              -3.0970373
            ],
            [
              -60.0055885,
              -3.0963526
            ],
            [
              -60.005708,
              -3.0962148
            ],
            [
              -60.0045198,
              -3.0946601
            ],
            [
              -60.0035781,
              -3.0950581
            ],
            [
              -60.0029337,
              -3.0950245
            ],
            [
              -60.0027735,
              -3.094349
            ],
            [
              -60.0038238,
              -3.0938396
            ],
            [
              -60.003141,
              -3.0922581
            ],
            [
              -60.0037126,
              -3.0921305
            ],
            [
              -60.0026945,
              -3.0909739
            ],
            [
              -60.0018564,
              -3.0914461
            ],
            [
              -60.0009968,
              -3.0901031
            ],
            [
              -60.0013699,
              -3.0898437
            ],
            [
              -60.0000443,
              -3.0880311
            ],
            [
              -60.0020259,
              -3.0874968
            ],
            [
              -60.003816,
              -3.0857459
            ],
            [
              -60.0043686,
              -3.0872082
            ],
            [
              -60.0060154,
              -3.0886224
            ],
            [
              -60.0091849,
              -3.0895848
            ],
            [
              -60.0097553,
              -3.0994575
            ],
            [
              -60.0101206,
              -3.0994226
            ],
            [
              -60.0101541,
              -3.1001246
            ],
            [
              -60.0135109,
              -3.0998619
            ],
            [
              -60.013669,
              -3.1025334
            ],
            [
              -60.0147783,
              -3.102344
            ],
            [
              -60.0148219,
              -3.1026645
            ],
            [
              -60.0157369,
              -3.1024898
            ],
            [
              -60.0160505,
              -3.1101818
            ],
            [
              -60.0163312,
              -3.1133911
            ],
            [
              -60.0166694,
              -3.1145372
            ],
            [
              -60.0167212,
              -3.1158355
            ]
          ]
        ]
      }
    }
  ]
}
