{
  "type": "FeatureCollection",
  "features": [
    {
      "type": "Feature",
      "properties": {
        "name": "Tarqui",
        "category": "Residential",
        "osmType": "relation",
        "osmId": 18354318,
        "stroke": "#0f766e",
        "stroke-width": 2,
        "stroke-opacity": 0.95,
        "fill": "#0f766e",
        "fill-opacity": 0.16
      },
      "geometry": {
        "type": "Polygon",
        "coordinates": [
          [
            [
              -80.7447573,
              -0.9770979
            ],
            [
              -80.7422697,
              -0.9786341
            ],
            [
              -80.7400714,
              -0.9795925
            ],
            [
              -80.7387466,
              -0.9763557
            ],
            [
              -80.7337861,
              -0.9760406
            ],
            [
              -80.733607,
              -0.9777234
            ],
            [
              -80.7330483,
              -0.9780978
            ],
            [
              -80.7322785,
              -0.9782587
            ],
            [
              -80.7318096,
              -0.9787457
            ],
            [
              -80.7315175,
              -0.980895
            ],
            [
              -80.7340972,
              -0.9820079
            ],
            [
              -80.7344967,
              -0.9830377
            ],
            [
              -80.7353064,
              -0.9841725
            ],
            [
              -80.7323187,
              -0.9902264
            ],
            [
              -80.7304336,
              -0.9926818
            ],
            [
              -80.7291135,
              -0.9939419
            ],
            [
              -80.7280111,
              -0.9955188
            ],
            [
              -80.7265789,
              -0.9969187
            ],
            [
              -80.7315624,
              -1.0045377
            ],
            [
              -80.7330322,
              -1.0055085
            ],
            [
              -80.7321739,
              -1.0062809
            ],
            [
              -80.7319674,
              -1.0060663
            ],
            [
              -80.7309187,
              -1.0074957
            ],
            [
              -80.7246409,
              -0.9979553
            ],
            [
              -80.7243526,
              -0.998155
            ],
            [
              -80.7238832,
              -0.9974712
            ],
            [
              -80.7216681,
              -0.9992859
            ],
            [
              -80.7172743,
              -0.9936818
            ],
            [
              -80.7140305,
              -0.9906853
            ],
            [
              -80.7156596,
              -0.9897074
            ],
            [
              -80.7162416,
              -0.9888277
            ],
            [
              -80.7162309,
              -0.9878944
            ],
            [
              -80.7153136,
              -0.9846414
            ],
            [
              -80.7156462,
              -0.9834587
            ],
            [
              -80.7180709,
              -0.9812543
            ],
            [
              -80.7191895,
              -0.9805945
            ],
            [
              -80.7090801,
              -0.9724016
            ],
            [
              -80.7045017,
              -0.9689983
            ],
            [
              -80.6985972,
              -0.9764503
            ],
            [
              -80.7011837,
              -0.9698324
            ],
            [
              -80.7056136,
              -0.9643877
            ],
            [
              -80.6998173,
              -0.9565402
            ],
            [
              -80.7000625,
              -0.9564058
            ],
            [
              -80.702262,
              -0.9564768
            ],
            [
              -80.7041032,
              -0.9561755
            ],
            [
              -80.7079793,
              -0.9547051
            ],
            [
              -80.7080921,
              -0.9497715
            ],
            [
              -80.7115272,
              -0.9495481
            ],
            [
              -80.7142131,
              -0.9491193
            ],
            [
              -80.7164552,
              -0.9496459
            ],
            [
              -80.7178865,
              -0.953277
            ],
            [
              -80.717697,
              -0.9537156
            ],
            [
              -80.7179845,
              -0.953583
            ],
            [
              -80.7181444,
              -0.9538345
            ],
            [
              -80.7191302,
              -0.9541882
            ],
            [
              -80.7225482,
              -0.9563739
            ],
            [
              -80.7244868,
              -0.9562327
            ],
            [
              -80.7258545,
              -0.9565377
            ],
            [
              -80.7260772,
              -0.9568404
            ],
            [
              -80.7266007,
              -0.9590722
            ],
            [
              -80.7269058,
              -0.9595629
            ],
            [
              -80.7285892,
              -0.9595555
            ],
            [
              -80.7290504,
              -0.9593196
            ],
            [
              -80.7295865,
              -0.9593484
            ],
            [
              -80.7315106,
              -0.9602712
            ],
            [
              -80.7322556,
              -0.9612632
            ],
            [
              -80.7326378,
              -0.962621
            ],
            [
              -80.7333475,
              -0.9631454
            ],
            [
              -80.7341359,
              -0.9629991
            ],
            [
              -80.7364196,
              -0.9618556
            ],
            [
              -80.7371873,
              -0.9620398
            ],
            [
              -80.7376177,
              -0.9626618
            ],
            [
              -80.737372,
              -0.9637546
            ],
            [
              -80.7376817,
              -0.9639687
            ],
            [
              -80.7391986,
              -0.9641887
            ],
            [
              -80.7395688,
              -0.9645262
            ],
            [
              -80.7395949,
              -0.9649005
            ],
            [
              -80.7392573,
              -0.9655459
            ],
            [
              -80.7393699,
              -0.966124
            ],
            [
              -80.7392322,
              -0.966401
            ],
            [
              -80.7400828,
              -0.9667064
            ],
            [
              -80.7415165,
              -0.9664417
            ],
            [
              -80.7375878,
              -0.9687898
            ],
            [
              -80.740761,
              -0.9713085
            ],
            [
              -80.7410225,
              -0.9725625
            ],
            [
              -80.7426801,
              -0.9735628
            ],
            [
              -80.7435299,
              -0.9745791
            ],
            [
              -80.7442279,
              -0.9759445
            ],
            [
              -80.7447573,
              -0.9770979
            ]
          ]
        ]
      }
    },
    {
      "type": "Feature",
      "properties": {
        "name": "San Mateo",
        "category": "Hip",
        "osmType": "relation",
        "osmId": 18354296,
        "stroke": "#f43f5e",
        "stroke-width": 2,
        "stroke-opacity": 0.95,
        "fill": "#f43f5e",
        "fill-opacity": 0.16
      },
      "geometry": {
        "type": "Polygon",
        "coordinates": [
          [
            [
              -80.8191177,
              -0.962503
            ],
            [
              -80.8189702,
              -0.9627578
            ],
            [
              -80.8181226,
              -0.9624118
            ],
            [
              -80.816563,
              -0.9622469
            ],
            [
              -80.8152459,
              -0.9610401
            ],
            [
              -80.8148598,
              -0.960993
            ],
            [
              -80.8145271,
              -0.9613485
            ],
            [
              -80.8144319,
              -0.961972
            ],
            [
              -80.8152674,
              -0.9631841
            ],
            [
              -80.8151695,
              -0.9636548
            ],
            [
              -80.8125637,
              -0.9633223
            ],
            [
              -80.8119522,
              -0.963439
            ],
            [
              -80.8115418,
              -0.9638091
            ],
            [
              -80.8110268,
              -0.9647852
            ],
            [
              -80.8089307,
              -0.9669307
            ],
            [
              -80.8088757,
              -0.9672539
            ],
            [
              -80.8043052,
              -0.9674697
            ],
            [
              -80.8039632,
              -0.966464
            ],
            [
              -80.8041631,
              -0.9649421
            ],
            [
              -80.8040652,
              -0.9642194
            ],
            [
              -80.8025806,
              -0.962385
            ],
            [
              -80.7776984,
              -0.9621826
            ],
            [
              -80.7746387,
              -0.9623421
            ],
            [
              -80.7737784,
              -0.9621084
            ],
            [
              -80.7744456,
              -0.9610012
            ],
            [
              -80.7747674,
              -0.9595637
            ],
            [
              -80.7735658,
              -0.9572895
            ],
            [
              -80.772798,
              -0.956691
            ],
            [
              -80.7717834,
              -0.9565171
            ],
            [
              -80.770433,
              -0.9556938
            ],
            [
              -80.7689294,
              -0.9556438
            ],
            [
              -80.7679145,
              -0.9543882
            ],
            [
              -80.7667711,
              -0.9537366
            ],
            [
              -80.7649099,
              -0.952223
            ],
            [
              -80.76461,
              -0.9506902
            ],
            [
              -80.7655166,
              -0.9508882
            ],
            [
              -80.766674,
              -0.95036
            ],
            [
              -80.765501,
              -0.9477325
            ],
            [
              -80.7647358,
              -0.9466933
            ],
            [
              -80.7645784,
              -0.9446654
            ],
            [
              -80.7643155,
              -0.9445248
            ],
            [
              -80.7640248,
              -0.9434941
            ],
            [
              -80.7663781,
              -0.9451413
            ],
            [
              -80.7676397,
              -0.9463577
            ],
            [
              -80.7717553,
              -0.9495546
            ],
            [
              -80.7744546,
              -0.951063
            ],
            [
              -80.7771118,
              -0.9531733
            ],
            [
              -80.7782582,
              -0.9536611
            ],
            [
              -80.7793918,
              -0.9545204
            ],
            [
              -80.7850105,
              -0.957607
            ],
            [
              -80.7855319,
              -0.9575144
            ],
            [
              -80.7881129,
              -0.9585061
            ],
            [
              -80.7897383,
              -0.9582615
            ],
            [
              -80.7900683,
              -0.9580009
            ],
            [
              -80.7903051,
              -0.9583008
            ],
            [
              -80.7931589,
              -0.9588365
            ],
            [
              -80.7961913,
              -0.959933
            ],
            [
              -80.7988644,
              -0.960033
            ],
            [
              -80.8001507,
              -0.9598382
            ],
            [
              -80.8041158,
              -0.9600347
            ],
            [
              -80.8064024,
              -0.9591361
            ],
            [
              -80.8070755,
              -0.958585
            ],
            [
              -80.8060961,
              -0.9571213
            ],
            [
              -80.8061672,
              -0.9569139
            ],
            [
              -80.8064062,
              -0.9569714
            ],
            [
              -80.8071211,
              -0.9581963
            ],
            [
              -80.8079283,
              -0.9577227
            ],
            [
              -80.8076614,
              -0.9571226
            ],
            [
              -80.8080729,
              -0.9576382
            ],
            [
              -80.8095296,
              -0.9567691
            ],
            [
              -80.8084077,
              -0.9549277
            ],
            [
              -80.8080385,
              -0.9547812
            ],
            [
              -80.8057171,
              -0.9555988
            ],
            [
              -80.8054787,
              -0.9555218
            ],
            [
              -80.8055494,
              -0.9552371
            ],
            [
              -80.8074948,
              -0.9546793
            ],
            [
              -80.8078203,
              -0.9542813
            ],
            [
              -80.8071545,
              -0.9537083
            ],
            [
              -80.8072389,
              -0.9535943
            ],
            [
              -80.8083516,
              -0.9544882
            ],
            [
              -80.8094572,
              -0.9547344
            ],
            [
              -80.8111875,
              -0.9547718
            ],
            [
              -80.8126006,
              -0.9543617
            ],
            [
              -80.8153137,
              -0.9594658
            ],
            [
              -80.8159607,
              -0.9602838
            ],
            [
              -80.8170524,
              -0.9611245
            ],
            [
              -80.8186094,
              -0.961557
            ],
            [
              -80.8190694,
              -0.9622026
            ],
            [
              -80.8191177,
              -0.962503
            ]
          ]
        ]
      }
    }
  ]
}
