{
  "type": "FeatureCollection",
  "features": [
    {
      "type": "Feature",
      "properties": {
        "name": "Laureles",
        "category": "Tourist",
        "osmType": "relation",
        "osmId": 7680490,
        "source": "https://www.openstreetmap.org/relation/7680490",
        "retrievedAt": "2026-09-24",
        "stroke": "#f59e0b",
        "stroke-width": 2,
        "stroke-opacity": 0.95,
        "fill": "#f59e0b",
        "fill-opacity": 0.16
      },
      "geometry": {
        "type": "Polygon",
        "coordinates": [
          [
            [
              -75.6175037,
              6.241197
            ],
            [
              -75.6173475,
              6.2411577
            ],
            [
              -75.6172778,
              6.241129
            ],
            [
              -75.6171933,
              6.2410803
            ],
            [
              -75.6171095,
              6.2410677
            ],
            [
              -75.6170189,
              6.241073
            ],
            [
              -75.6169914,
              6.2410604
            ],
            [
              -75.6169438,
              6.2410437
            ],
            [
              -75.6169204,
              6.241019
            ],
            [
              -75.6169009,
              6.2409444
            ],
            [
              -75.6168795,
              6.2409324
            ],
            [
              -75.6168399,
              6.240923
            ],
            [
              -75.6168064,
              6.240903
            ],
            [
              -75.6166468,
              6.2407064
            ],
            [
              -75.6166334,
              6.2407124
            ],
            [
              -75.6166233,
              6.2407911
            ],
            [
              -75.6165985,
              6.240863
            ],
            [
              -75.6166112,
              6.2409277
            ],
            [
              -75.6166025,
              6.2409684
            ],
            [
              -75.6165335,
              6.2410144
            ],
            [
              -75.6164798,
              6.2410164
            ],
            [
              -75.6163765,
              6.2410937
            ],
            [
              -75.6163544,
              6.2410943
            ],
            [
              -75.6162961,
              6.2410477
            ],
            [
              -75.6162458,
              6.240979
            ],
            [
              -75.6162223,
              6.2409637
            ],
            [
              -75.6161995,
              6.240969
            ],
            [
              -75.616111,
              6.2410464
            ],
            [
              -75.6159635,
              6.241073
            ],
            [
              -75.61593,
              6.2410137
            ],
            [
              -75.6159038,
              6.2409037
            ],
            [
              -75.6159018,
              6.240853
            ],
            [
              -75.6158951,
              6.2408264
            ],
            [
              -75.6158133,
              6.2407444
            ],
            [
              -75.6157731,
              6.2406824
            ],
            [
              -75.6157395,
              6.2406071
            ],
            [
              -75.6156904,
              6.2405492
            ],
            [
              -75.6156798,
              6.2405464
            ],
            [
              -75.6156591,
              6.2405058
            ],
            [
              -75.6156644,
              6.2404478
            ],
            [
              -75.6156524,
              6.2404084
            ],
            [
              -75.6155773,
              6.2403744
            ],
            [
              -75.6155169,
              6.2403338
            ],
            [
              -75.6154358,
              6.2403051
            ],
            [
              -75.6153419,
              6.2401911
            ],
            [
              -75.61525,
              6.2402218
            ],
            [
              -75.6151803,
              6.2401838
            ],
            [
              -75.6151481,
              6.2401805
            ],
            [
              -75.6151069,
              6.2402101
            ],
            [
              -75.6150173,
              6.2402885
            ],
            [
              -75.6148842,
              6.2403451
            ],
            [
              -75.6148685,
              6.2403361
            ],
            [
              -75.6148638,
              6.2403378
            ],
            [
              -75.6148604,
              6.2403578
            ],
            [
              -75.61479,
              6.2403898
            ],
            [
              -75.614554,
              6.2403678
            ],
            [
              -75.61432,
              6.2403818
            ],
            [
              -75.614208,
              6.2403731
            ],
            [
              -75.6141336,
              6.2403738
            ],
            [
              -75.6140534,
              6.2403931
            ],
            [
              -75.6140289,
              6.2404051
            ],
            [
              -75.6139887,
              6.2404058
            ],
            [
              -75.6139431,
              6.2403904
            ],
            [
              -75.613921,
              6.2403921
            ],
            [
              -75.6136286,
              6.2402578
            ],
            [
              -75.6127971,
              6.2396659
            ],
            [
              -75.6125021,
              6.2395379
            ],
            [
              -75.612309,
              6.2393832
            ],
            [
              -75.6119925,
              6.2387487
            ],
            [
              -75.6117028,
              6.2377781
            ],
            [
              -75.6115902,
              6.2376555
            ],
            [
              -75.6114024,
              6.2376288
            ],
            [
              -75.6081683,
              6.2374808
            ],
            [
              -75.6073818,
              6.2374448
            ],
            [
              -75.6046861,
              6.2375515
            ],
            [
              -75.6046238,
              6.2375539
            ],
            [
              -75.6040009,
              6.237578
            ],
            [
              -75.6030758,
              6.2376228
            ],
            [
              -75.6008935,
              6.2377088
            ],
            [
              -75.600231,
              6.2377261
            ],
            [
              -75.5998662,
              6.2377088
            ],
            [
              -75.6000566,
              6.2382607
            ],
            [
              -75.6001867,
              6.238478
            ],
            [
              -75.6001977,
              6.2385367
            ],
            [
              -75.6002525,
              6.2388286
            ],
            [
              -75.5965832,
              6.2389593
            ],
            [
              -75.5922782,
              6.2391139
            ],
            [
              -75.5909183,
              6.2391611
            ],
            [
              -75.5904705,
              6.2391817
            ],
            [
              -75.5902153,
              6.2392075
            ],
            [
              -75.5895542,
              6.2392585
            ],
            [
              -75.5888768,
              6.2392801
            ],
            [
              -75.5874999,
              6.2392932
            ],
            [
              -75.5874315,
              6.2392939
            ],
            [
              -75.5862781,
              6.2393326
            ],
            [
              -75.5832419,
              6.2394579
            ],
            [
              -75.5825928,
              6.2395006
            ],
            [
              -75.581426,
              6.2395192
            ],
            [
              -75.5803666,
              6.2395566
            ],
            [
              -75.5782878,
              6.2396365
            ],
            [
              -75.577441,
              6.2396606
            ],
            [
              -75.5801359,
              6.2473235
            ],
            [
              -75.5802727,
              6.2477821
            ],
            [
              -75.5802888,
              6.24819
            ],
            [
              -75.5802137,
              6.248662
            ],
            [
              -75.579991,
              6.2491819
            ],
            [
              -75.5741709,
              6.259883
            ],
            [
              -75.5746588,
              6.2596815
            ],
            [
              -75.57506,
              6.2595279
            ],
            [
              -75.5761313,
              6.259183
            ],
            [
              -75.576759,
              6.2590177
            ],
            [
              -75.577459,
              6.2589323
            ],
            [
              -75.5781028,
              6.2589003
            ],
            [
              -75.5789155,
              6.2588843
            ],
            [
              -75.5792937,
              6.258927
            ],
            [
              -75.5795887,
              6.2589857
            ],
            [
              -75.5797926,
              6.2590283
            ],
            [
              -75.5816701,
              6.2596042
            ],
            [
              -75.5818632,
              6.2596176
            ],
            [
              -75.5821797,
              6.2597722
            ],
            [
              -75.5824506,
              6.2599748
            ],
            [
              -75.5832902,
              6.2606414
            ],
            [
              -75.5837193,
              6.260908
            ],
            [
              -75.5841297,
              6.2610946
            ],
            [
              -75.5845884,
              6.2612786
            ],
            [
              -75.5848378,
              6.2615719
            ],
            [
              -75.5849934,
              6.2620678
            ],
            [
              -75.5850631,
              6.2623504
            ],
            [
              -75.5853528,
              6.2626704
            ],
            [
              -75.585798,
              6.2628677
            ],
            [
              -75.5860984,
              6.2632623
            ],
            [
              -75.5861843,
              6.2637369
            ],
            [
              -75.5864525,
              6.2643501
            ],
            [
              -75.5867958,
              6.264638
            ],
            [
              -75.5869192,
              6.2649526
            ],
            [
              -75.5888397,
              6.2661364
            ],
            [
              -75.5902612,
              6.2670429
            ],
            [
              -75.5916345,
              6.2686213
            ],
            [
              -75.592407,
              6.2692878
            ],
            [
              -75.592584,
              6.2696291
            ],
            [
              -75.5929488,
              6.2700504
            ],
            [
              -75.5931956,
              6.2701997
            ],
            [
              -75.5933458,
              6.270429
            ],
            [
              -75.5934584,
              6.2710049
            ],
            [
              -75.5939099,
              6.27151
            ],
            [
              -75.594137,
              6.2717641
            ],
            [
              -75.5947648,
              6.2711544
            ],
            [
              -75.5948731,
              6.2710344
            ],
            [
              -75.5949719,
              6.2709349
            ],
            [
              -75.5950267,
              6.2708379
            ],
            [
              -75.5950718,
              6.2707311
            ],
            [
              -75.5951022,
              6.2706157
            ],
            [
              -75.596083,
              6.2662177
            ],
            [
              -75.5962289,
              6.265575
            ],
            [
              -75.5966784,
              6.2635462
            ],
            [
              -75.5968967,
              6.2626567
            ],
            [
              -75.5972934,
              6.2608711
            ],
            [
              -75.597713,
              6.2589701
            ],
            [
              -75.5978683,
              6.2583161
            ],
            [
              -75.5984158,
              6.2557984
            ],
            [
              -75.5985481,
              6.2552334
            ],
            [
              -75.5985967,
              6.2550719
            ],
            [
              -75.5986671,
              6.2548787
            ],
            [
              -75.5987965,
              6.2545852
            ],
            [
              -75.5989419,
              6.2543336
            ],
            [
              -75.5976655,
              6.2547823
            ],
            [
              -75.5964155,
              6.254993
            ],
            [
              -75.5968688,
              6.250127
            ],
            [
              -75.5982582,
              6.250151
            ],
            [
              -75.5992426,
              6.2500844
            ],
            [
              -75.5996557,
              6.2501004
            ],
            [
              -75.600125,
              6.250191
            ],
            [
              -75.6008385,
              6.2504817
            ],
            [
              -75.601155,
              6.250535
            ],
            [
              -75.6022921,
              6.2506016
            ],
            [
              -75.6023999,
              6.2490824
            ],
            [
              -75.6025959,
              6.246074
            ],
            [
              -75.6027885,
              6.2432134
            ],
            [
              -75.6029832,
              6.2432711
            ],
            [
              -75.6035629,
              6.2434411
            ],
            [
              -75.6068413,
              6.2441772
            ],
            [
              -75.6074019,
              6.243544
            ],
            [
              -75.6075414,
              6.243144
            ],
            [
              -75.6076526,
              6.2426945
            ],
            [
              -75.6078257,
              6.2419322
            ],
            [
              -75.6095114,
              6.2421162
            ],
            [
              -75.6099741,
              6.2421962
            ],
            [
              -75.6103094,
              6.2423148
            ],
            [
              -75.6119174,
              6.2425508
            ],
            [
              -75.6122247,
              6.2425452
            ],
            [
              -75.6122486,
              6.2425448
            ],
            [
              -75.6129433,
              6.2425708
            ],
            [
              -75.6132947,
              6.2421815
            ],
            [
              -75.6133939,
              6.2420988
            ],
            [
              -75.6134811,
              6.2419682
            ],
            [
              -75.6135522,
              6.2419109
            ],
            [
              -75.6135938,
              6.2418256
            ],
            [
              -75.6136635,
              6.2418229
            ],
            [
              -75.6136715,
              6.2417496
            ],
            [
              -75.6137655,
              6.2416282
            ],
            [
              -75.6138016,
              6.2415816
            ],
            [
              -75.6138834,
              6.2415829
            ],
            [
              -75.6140913,
              6.2416642
            ],
            [
              -75.61422,
              6.2416642
            ],
            [
              -75.6143957,
              6.2416216
            ],
            [
              -75.6144735,
              6.2416269
            ],
            [
              -75.6145553,
              6.2416509
            ],
            [
              -75.6152071,
              6.2416309
            ],
            [
              -75.6154056,
              6.2415589
            ],
            [
              -75.6155357,
              6.2415683
            ],
            [
              -75.6156564,
              6.2416002
            ],
            [
              -75.6157637,
              6.2415976
            ],
            [
              -75.6159742,
              6.2414976
            ],
            [
              -75.6162028,
              6.2413931
            ],
            [
              -75.6165227,
              6.2412883
            ],
            [
              -75.6168044,
              6.241211
            ],
            [
              -75.6169867,
              6.2412083
            ],
            [
              -75.617141,
              6.241215
            ],
            [
              -75.6172741,
              6.2412259
            ],
            [
              -75.6174662,
              6.2412136
            ],
            [
              -75.6175037,
              6.241197
            ]
          ]
        ]
      }
    },
    {
      "type": "Feature",
      "properties": {
        "name": "El Poblado",
        "category": "Residential",
        "osmType": "relation",
        "osmId": 7673973,
        "source": "https://www.openstreetmap.org/relation/7673973",
        "retrievedAt": "2026-09-24",
        "stroke": "#0f766e",
        "stroke-width": 2,
        "stroke-opacity": 0.95,
        "fill": "#0f766e",
        "fill-opacity": 0.16
      },
      "geometry": {
        "type": "Polygon",
        "coordinates": [
          [
            [
              -75.5833107,
              6.1889801
            ],
            [
              -75.5832474,
              6.1889
            ],
            [
              -75.5831287,
              6.188746
            ],
            [
              -75.5830266,
              6.1886147
            ],
            [
              -75.5829373,
              6.1883136
            ],
            [
              -75.5828731,
              6.1882675
            ],
            [
              -75.5827862,
              6.1882259
            ],
            [
              -75.5816761,
              6.1878622
            ],
            [
              -75.5813598,
              6.1875388
            ],
            [
              -75.5807091,
              6.1870043
            ],
            [
              -75.580572,
              6.1868492
            ],
            [
              -75.5804311,
              6.1866429
            ],
            [
              -75.580199,
              6.1858905
            ],
            [
              -75.5801094,
              6.1854202
            ],
            [
              -75.5800006,
              6.1848492
            ],
            [
              -75.5799276,
              6.1844658
            ],
            [
              -75.5798178,
              6.1841301
            ],
            [
              -75.5796039,
              6.1838475
            ],
            [
              -75.579314,
              6.1837353
            ],
            [
              -75.5792473,
              6.1836905
            ],
            [
              -75.5788831,
              6.1834364
            ],
            [
              -75.5787369,
              6.1833513
            ],
            [
              -75.5782956,
              6.1830901
            ],
            [
              -75.5780344,
              6.1829355
            ],
            [
              -75.5779043,
              6.1828609
            ],
            [
              -75.5775328,
              6.1826302
            ],
            [
              -75.5773625,
              6.1825329
            ],
            [
              -75.5767717,
              6.1821794
            ],
            [
              -75.5767397,
              6.1821694
            ],
            [
              -75.5766515,
              6.182142
            ],
            [
              -75.5758015,
              6.1819837
            ],
            [
              -75.5757212,
              6.181855
            ],
            [
              -75.5750839,
              6.1808345
            ],
            [
              -75.5743389,
              6.1805001
            ],
            [
              -75.5741296,
              6.1802707
            ],
            [
              -75.573777,
              6.1802359
            ],
            [
              -75.5734996,
              6.1801421
            ],
            [
              -75.5731449,
              6.1798738
            ],
            [
              -75.5726694,
              6.1794281
            ],
            [
              -75.5722319,
              6.1792221
            ],
            [
              -75.5719206,
              6.179145
            ],
            [
              -75.5715029,
              6.1791519
            ],
            [
              -75.5713036,
              6.1793208
            ],
            [
              -75.5710753,
              6.17938
            ],
            [
              -75.5705423,
              6.1792009
            ],
            [
              -75.5704316,
              6.1792392
            ],
            [
              -75.5703377,
              6.1793438
            ],
            [
              -75.5702678,
              6.1793508
            ],
            [
              -75.5694816,
              6.1790106
            ],
            [
              -75.5693079,
              6.1787971
            ],
            [
              -75.5691479,
              6.1788161
            ],
            [
              -75.5689868,
              6.1789114
            ],
            [
              -75.5689015,
              6.1788959
            ],
            [
              -75.5687117,
              6.1787189
            ],
            [
              -75.568478,
              6.1786581
            ],
            [
              -75.5682497,
              6.1783768
            ],
            [
              -75.5678783,
              6.1780695
            ],
            [
              -75.5674576,
              6.1774151
            ],
            [
              -75.5673328,
              6.1773093
            ],
            [
              -75.5671458,
              6.1771881
            ],
            [
              -75.5668843,
              6.1770949
            ],
            [
              -75.5667544,
              6.176999
            ],
            [
              -75.5666337,
              6.1768344
            ],
            [
              -75.5664505,
              6.1768002
            ],
            [
              -75.5663222,
              6.1766635
            ],
            [
              -75.5660224,
              6.1766485
            ],
            [
              -75.5659459,
              6.1765436
            ],
            [
              -75.5659391,
              6.1763324
            ],
            [
              -75.5658768,
              6.1762727
            ],
            [
              -75.5654432,
              6.1763493
            ],
            [
              -75.5649087,
              6.1764661
            ],
            [
              -75.5647365,
              6.1764691
            ],
            [
              -75.5645299,
              6.1765387
            ],
            [
              -75.5644816,
              6.1764573
            ],
            [
              -75.5645031,
              6.176368
            ],
            [
              -75.5645232,
              6.1762853
            ],
            [
              -75.5644387,
              6.1761987
            ],
            [
              -75.5644185,
              6.1760055
            ],
            [
              -75.564361,
              6.1759165
            ],
            [
              -75.5642912,
              6.1758997
            ],
            [
              -75.5640938,
              6.1761274
            ],
            [
              -75.5639141,
              6.1761087
            ],
            [
              -75.5638553,
              6.1759947
            ],
            [
              -75.563858,
              6.175944
            ],
            [
              -75.5637882,
              6.1758907
            ],
            [
              -75.5637198,
              6.1758973
            ],
            [
              -75.5636582,
              6.1757893
            ],
            [
              -75.5634345,
              6.1757755
            ],
            [
              -75.5631418,
              6.1759507
            ],
            [
              -75.5630158,
              6.1760827
            ],
            [
              -75.5629112,
              6.1762107
            ],
            [
              -75.5627073,
              6.1763267
            ],
            [
              -75.5625598,
              6.176292
            ],
            [
              -75.562511,
              6.1762135
            ],
            [
              -75.5623519,
              6.1761813
            ],
            [
              -75.5621105,
              6.1763013
            ],
            [
              -75.5618061,
              6.1763253
            ],
            [
              -75.5615768,
              6.1763067
            ],
            [
              -75.5614239,
              6.176316
            ],
            [
              -75.5613073,
              6.1763031
            ],
            [
              -75.5610618,
              6.1761387
            ],
            [
              -75.5609223,
              6.1761453
            ],
            [
              -75.5607936,
              6.1761653
            ],
            [
              -75.5607547,
              6.1761547
            ],
            [
              -75.5607091,
              6.17612
            ],
            [
              -75.5606259,
              6.1760973
            ],
            [
              -75.5605615,
              6.1760227
            ],
            [
              -75.5605133,
              6.17594
            ],
            [
              -75.5604328,
              6.175872
            ],
            [
              -75.5603403,
              6.175916
            ],
            [
              -75.560245,
              6.1759427
            ],
            [
              -75.5601109,
              6.1758853
            ],
            [
              -75.5599031,
              6.175784
            ],
            [
              -75.5598038,
              6.1757293
            ],
            [
              -75.5596952,
              6.1756733
            ],
            [
              -75.5595235,
              6.1756547
            ],
            [
              -75.5594551,
              6.17562
            ],
            [
              -75.5593881,
              6.1756773
            ],
            [
              -75.5593063,
              6.1756547
            ],
            [
              -75.559258,
              6.175596
            ],
            [
              -75.5592164,
              6.1756747
            ],
            [
              -75.5591588,
              6.1756773
            ],
            [
              -75.5591118,
              6.1756733
            ],
            [
              -75.5590997,
              6.1756347
            ],
            [
              -75.5590474,
              6.1756373
            ],
            [
              -75.5590139,
              6.175628
            ],
            [
              -75.5590059,
              6.1755893
            ],
            [
              -75.5589978,
              6.1755427
            ],
            [
              -75.5589603,
              6.1755147
            ],
            [
              -75.5589254,
              6.1755347
            ],
            [
              -75.5588731,
              6.1754907
            ],
            [
              -75.5588449,
              6.1754387
            ],
            [
              -75.5587551,
              6.175412
            ],
            [
              -75.5586585,
              6.1754093
            ],
            [
              -75.558562,
              6.1753427
            ],
            [
              -75.5585405,
              6.1754147
            ],
            [
              -75.5583662,
              6.175364
            ],
            [
              -75.5582589,
              6.175364
            ],
            [
              -75.5581623,
              6.1753173
            ],
            [
              -75.5581087,
              6.1753587
            ],
            [
              -75.5580497,
              6.1754267
            ],
            [
              -75.5579678,
              6.175448
            ],
            [
              -75.5579437,
              6.175532
            ],
            [
              -75.5578324,
              6.1755787
            ],
            [
              -75.5576715,
              6.175544
            ],
            [
              -75.5576218,
              6.1754427
            ],
            [
              -75.5575,
              6.175472
            ],
            [
              -75.5574448,
              6.1754853
            ],
            [
              -75.5572825,
              6.1756253
            ],
            [
              -75.5572955,
              6.1757565
            ],
            [
              -75.5571591,
              6.1759582
            ],
            [
              -75.5568109,
              6.1763176
            ],
            [
              -75.5564412,
              6.1765916
            ],
            [
              -75.5562584,
              6.1766045
            ],
            [
              -75.55599,
              6.1766059
            ],
            [
              -75.5558502,
              6.1766045
            ],
            [
              -75.5555735,
              6.1774869
            ],
            [
              -75.5555798,
              6.1777375
            ],
            [
              -75.5555489,
              6.1780653
            ],
            [
              -75.5549782,
              6.1782951
            ],
            [
              -75.5548147,
              6.1785826
            ],
            [
              -75.5545804,
              6.1787753
            ],
            [
              -75.5543975,
              6.1792065
            ],
            [
              -75.5541081,
              6.1794591
            ],
            [
              -75.5542317,
              6.1795927
            ],
            [
              -75.5542528,
              6.179624
            ],
            [
              -75.5542983,
              6.1796695
            ],
            [
              -75.5544344,
              6.1797632
            ],
            [
              -75.5546207,
              6.1797482
            ],
            [
              -75.554877,
              6.1798819
            ],
            [
              -75.5549855,
              6.1800397
            ],
            [
              -75.5549,
              6.1802425
            ],
            [
              -75.5554075,
              6.1806205
            ],
            [
              -75.5556613,
              6.1807527
            ],
            [
              -75.5554993,
              6.1810588
            ],
            [
              -75.5552818,
              6.1813158
            ],
            [
              -75.5552619,
              6.1814458
            ],
            [
              -75.5552929,
              6.1816604
            ],
            [
              -75.5554694,
              6.182174
            ],
            [
              -75.5555053,
              6.1824483
            ],
            [
              -75.5552829,
              6.1829452
            ],
            [
              -75.5552799,
              6.1830605
            ],
            [
              -75.5553889,
              6.1833008
            ],
            [
              -75.5555953,
              6.1834302
            ],
            [
              -75.555892,
              6.1835345
            ],
            [
              -75.5567531,
              6.18361
            ],
            [
              -75.5568103,
              6.1836754
            ],
            [
              -75.5566704,
              6.1845244
            ],
            [
              -75.5566651,
              6.1853454
            ],
            [
              -75.5564864,
              6.1852493
            ],
            [
              -75.556299,
              6.1852088
            ],
            [
              -75.5561498,
              6.1852121
            ],
            [
              -75.5558575,
              6.1853125
            ],
            [
              -75.555175,
              6.1850567
            ],
            [
              -75.5543734,
              6.1850909
            ],
            [
              -75.5541427,
              6.1850734
            ],
            [
              -75.5539607,
              6.1850103
            ],
            [
              -75.5537235,
              6.1849377
            ],
            [
              -75.5534083,
              6.1846897
            ],
            [
              -75.553256,
              6.1846404
            ],
            [
              -75.5530541,
              6.1846497
            ],
            [
              -75.5529752,
              6.1846939
            ],
            [
              -75.5528441,
              6.1848963
            ],
            [
              -75.5528445,
              6.1850192
            ],
            [
              -75.5533206,
              6.1863064
            ],
            [
              -75.5530002,
              6.1868607
            ],
            [
              -75.5525014,
              6.1879192
            ],
            [
              -75.5524791,
              6.1883175
            ],
            [
              -75.5525907,
              6.1884782
            ],
            [
              -75.5533737,
              6.1885727
            ],
            [
              -75.5535407,
              6.1886571
            ],
            [
              -75.5537139,
              6.1888763
            ],
            [
              -75.5537412,
              6.1894558
            ],
            [
              -75.5539816,
              6.1902246
            ],
            [
              -75.5540664,
              6.1902888
            ],
            [
              -75.5543911,
              6.1903082
            ],
            [
              -75.5545257,
              6.1904039
            ],
            [
              -75.5545686,
              6.1905914
            ],
            [
              -75.554308,
              6.1908972
            ],
            [
              -75.5543053,
              6.1911266
            ],
            [
              -75.5541286,
              6.1911406
            ],
            [
              -75.5541,
              6.1912085
            ],
            [
              -75.5542188,
              6.191902
            ],
            [
              -75.5543715,
              6.1922224
            ],
            [
              -75.554249,
              6.1928126
            ],
            [
              -75.5539714,
              6.1932778
            ],
            [
              -75.5533981,
              6.1937845
            ],
            [
              -75.5534033,
              6.194424
            ],
            [
              -75.5530115,
              6.1954421
            ],
            [
              -75.5524168,
              6.1961873
            ],
            [
              -75.552427,
              6.1966121
            ],
            [
              -75.5525725,
              6.1971473
            ],
            [
              -75.5525571,
              6.1975225
            ],
            [
              -75.552453,
              6.1976312
            ],
            [
              -75.5521299,
              6.1977802
            ],
            [
              -75.5518293,
              6.198294
            ],
            [
              -75.5520876,
              6.1986029
            ],
            [
              -75.5520666,
              6.1989645
            ],
            [
              -75.5519811,
              6.1990936
            ],
            [
              -75.5511628,
              6.199375
            ],
            [
              -75.5508669,
              6.1993396
            ],
            [
              -75.5507331,
              6.2005694
            ],
            [
              -75.5508709,
              6.2008153
            ],
            [
              -75.5510733,
              6.2009086
            ],
            [
              -75.5508147,
              6.2014946
            ],
            [
              -75.550771,
              6.2016207
            ],
            [
              -75.5506985,
              6.2017401
            ],
            [
              -75.5503334,
              6.201992
            ],
            [
              -75.5500884,
              6.2022277
            ],
            [
              -75.5500876,
              6.2027543
            ],
            [
              -75.550366,
              6.2029784
            ],
            [
              -75.550469,
              6.2032775
            ],
            [
              -75.550452,
              6.203464
            ],
            [
              -75.5503975,
              6.203541
            ],
            [
              -75.5489711,
              6.2040455
            ],
            [
              -75.548615,
              6.2042883
            ],
            [
              -75.5485167,
              6.2044536
            ],
            [
              -75.5485407,
              6.2047767
            ],
            [
              -75.5485066,
              6.2048796
            ],
            [
              -75.5480351,
              6.2052572
            ],
            [
              -75.5480054,
              6.2053499
            ],
            [
              -75.548034,
              6.2054696
            ],
            [
              -75.5482157,
              6.2058352
            ],
            [
              -75.5478922,
              6.2060542
            ],
            [
              -75.5478242,
              6.2061821
            ],
            [
              -75.5481485,
              6.2068784
            ],
            [
              -75.5482019,
              6.2071901
            ],
            [
              -75.547841,
              6.2077459
            ],
            [
              -75.5477837,
              6.2080478
            ],
            [
              -75.5478159,
              6.2082488
            ],
            [
              -75.5481336,
              6.2090412
            ],
            [
              -75.5481732,
              6.2092659
            ],
            [
              -75.5480393,
              6.2094386
            ],
            [
              -75.5476217,
              6.2096867
            ],
            [
              -75.5472021,
              6.2098551
            ],
            [
              -75.5471277,
              6.2099039
            ],
            [
              -75.547115,
              6.2099852
            ],
            [
              -75.5471581,
              6.210062
            ],
            [
              -75.5474346,
              6.2102386
            ],
            [
              -75.5476114,
              6.2106494
            ],
            [
              -75.5476201,
              6.2111579
            ],
            [
              -75.5480434,
              6.211533
            ],
            [
              -75.5481083,
              6.2117294
            ],
            [
              -75.54805,
              6.2118776
            ],
            [
              -75.5473606,
              6.2124468
            ],
            [
              -75.547351,
              6.2126411
            ],
            [
              -75.5476012,
              6.2131116
            ],
            [
              -75.5473506,
              6.2133372
            ],
            [
              -75.5469835,
              6.213557
            ],
            [
              -75.5469213,
              6.2136627
            ],
            [
              -75.5468692,
              6.2140109
            ],
            [
              -75.546884,
              6.2142504
            ],
            [
              -75.5470455,
              6.2143352
            ],
            [
              -75.5472279,
              6.2144205
            ],
            [
              -75.5473593,
              6.2144419
            ],
            [
              -75.5475417,
              6.2143939
            ],
            [
              -75.5487889,
              6.2138019
            ],
            [
              -75.5490437,
              6.2137326
            ],
            [
              -75.5499449,
              6.2136979
            ],
            [
              -75.5505216,
              6.2136659
            ],
            [
              -75.5510554,
              6.2137273
            ],
            [
              -75.5512029,
              6.2137779
            ],
            [
              -75.5513611,
              6.2138926
            ],
            [
              -75.5514202,
              6.2140019
            ],
            [
              -75.5514121,
              6.2141912
            ],
            [
              -75.5512995,
              6.2145699
            ],
            [
              -75.5512914,
              6.2146925
            ],
            [
              -75.5513102,
              6.2147912
            ],
            [
              -75.5513907,
              6.2149032
            ],
            [
              -75.5538288,
              6.2171963
            ],
            [
              -75.5540192,
              6.2173696
            ],
            [
              -75.5543706,
              6.217535
            ],
            [
              -75.5546066,
              6.2177203
            ],
            [
              -75.5547582,
              6.2179602
            ],
            [
              -75.5549151,
              6.2181362
            ],
            [
              -75.5553482,
              6.2184855
            ],
            [
              -75.5555829,
              6.2182549
            ],
            [
              -75.5556192,
              6.2181696
            ],
            [
              -75.5556527,
              6.2180336
            ],
            [
              -75.5556285,
              6.2179003
            ],
            [
              -75.5556326,
              6.2178496
            ],
            [
              -75.5557077,
              6.2177989
            ],
            [
              -75.5559063,
              6.2176922
            ],
            [
              -75.5561079,
              6.2172825
            ],
            [
              -75.5562673,
              6.2171765
            ],
            [
              -75.5566438,
              6.2169897
            ],
            [
              -75.5567685,
              6.2169043
            ],
            [
              -75.5569522,
              6.2168603
            ],
            [
              -75.5571426,
              6.2167497
            ],
            [
              -75.5572768,
              6.2167137
            ],
            [
              -75.5574122,
              6.2166044
            ],
            [
              -75.5575249,
              6.2165684
            ],
            [
              -75.5576214,
              6.2165284
            ],
            [
              -75.557671,
              6.2164817
            ],
            [
              -75.5576845,
              6.216403
            ],
            [
              -75.5577193,
              6.2163431
            ],
            [
              -75.5577931,
              6.2163164
            ],
            [
              -75.557828,
              6.2162857
            ],
            [
              -75.5578306,
              6.2162257
            ],
            [
              -75.557899,
              6.2161737
            ],
            [
              -75.5574954,
              6.2154871
            ],
            [
              -75.5574135,
              6.2152551
            ],
            [
              -75.5573975,
              6.2150898
            ],
            [
              -75.5574149,
              6.2149285
            ],
            [
              -75.5574927,
              6.2147619
            ],
            [
              -75.5576053,
              6.2146325
            ],
            [
              -75.5577569,
              6.2145392
            ],
            [
              -75.5579446,
              6.2145059
            ],
            [
              -75.5581673,
              6.2145392
            ],
            [
              -75.5611914,
              6.2151778
            ],
            [
              -75.5626988,
              6.2155405
            ],
            [
              -75.563136,
              6.2156764
            ],
            [
              -75.563482,
              6.2158338
            ],
            [
              -75.5638415,
              6.2161457
            ],
            [
              -75.5642009,
              6.216503
            ],
            [
              -75.5642921,
              6.2166524
            ],
            [
              -75.5643618,
              6.2168443
            ],
            [
              -75.5643752,
              6.2170497
            ],
            [
              -75.5643404,
              6.2173616
            ],
            [
              -75.5643055,
              6.2177109
            ],
            [
              -75.5643296,
              6.2179029
            ],
            [
              -75.5644986,
              6.2180282
            ],
            [
              -75.5646917,
              6.2181136
            ],
            [
              -75.5650243,
              6.2181402
            ],
            [
              -75.5655473,
              6.2180789
            ],
            [
              -75.5657297,
              6.2180922
            ],
            [
              -75.5658719,
              6.2181616
            ],
            [
              -75.5659872,
              6.2182762
            ],
            [
              -75.5660677,
              6.2183989
            ],
            [
              -75.5661026,
              6.2185429
            ],
            [
              -75.5660972,
              6.2187295
            ],
            [
              -75.5660704,
              6.2190362
            ],
            [
              -75.5660757,
              6.2191935
            ],
            [
              -75.5661187,
              6.2193321
            ],
            [
              -75.5663654,
              6.2199694
            ],
            [
              -75.5663708,
              6.2201667
            ],
            [
              -75.5663413,
              6.220348
            ],
            [
              -75.5662313,
              6.2205027
            ],
            [
              -75.5658166,
              6.2207236
            ],
            [
              -75.5655849,
              6.2208413
            ],
            [
              -75.5654535,
              6.220964
            ],
            [
              -75.5653489,
              6.2211746
            ],
            [
              -75.5650324,
              6.2231771
            ],
            [
              -75.5649814,
              6.2236437
            ],
            [
              -75.5650297,
              6.2241503
            ],
            [
              -75.5651745,
              6.2246809
            ],
            [
              -75.5653413,
              6.224627
            ],
            [
              -75.5657941,
              6.2245103
            ],
            [
              -75.5660543,
              6.2245396
            ],
            [
              -75.56647,
              6.2246636
            ],
            [
              -75.5665854,
              6.2247143
            ],
            [
              -75.5666927,
              6.2248343
            ],
            [
              -75.5667476,
              6.2249436
            ],
            [
              -75.5667691,
              6.2252129
            ],
            [
              -75.5668254,
              6.2253235
            ],
            [
              -75.566977,
              6.2254569
            ],
            [
              -75.5677441,
              6.2256488
            ],
            [
              -75.5682832,
              6.2256742
            ],
            [
              -75.5683476,
              6.2257395
            ],
            [
              -75.5684079,
              6.2259141
            ],
            [
              -75.5684549,
              6.2261568
            ],
            [
              -75.5684696,
              6.2264914
            ],
            [
              -75.5692045,
              6.2264835
            ],
            [
              -75.5692079,
              6.2266601
            ],
            [
              -75.5692243,
              6.2268594
            ],
            [
              -75.5692689,
              6.227076
            ],
            [
              -75.5694077,
              6.2275453
            ],
            [
              -75.5695579,
              6.227654
            ],
            [
              -75.5731478,
              6.2302881
            ],
            [
              -75.5735531,
              6.2306017
            ],
            [
              -75.5738327,
              6.2307763
            ],
            [
              -75.574235,
              6.2309309
            ],
            [
              -75.5747366,
              6.2310803
            ],
            [
              -75.574968,
              6.2311473
            ],
            [
              -75.5756217,
              6.2313442
            ],
            [
              -75.5797684,
              6.2015894
            ],
            [
              -75.5799615,
              6.2002402
            ],
            [
              -75.5801493,
              6.1991629
            ],
            [
              -75.5804014,
              6.1982403
            ],
            [
              -75.5808649,
              6.1969855
            ],
            [
              -75.580886,
              6.1969254
            ],
            [
              -75.5811621,
              6.1961366
            ],
            [
              -75.5819906,
              6.1937698
            ],
            [
              -75.582214,
              6.1931942
            ],
            [
              -75.5823194,
              6.19285
            ],
            [
              -75.5824106,
              6.1925025
            ],
            [
              -75.5829521,
              6.1901498
            ],
            [
              -75.5830975,
              6.1895804
            ],
            [
              -75.5832191,
              6.1891978
            ],
            [
              -75.5833107,
              6.1889801
            ]
          ]
        ]
      }
    },
    {
      "type": "Feature",
      "properties": {
        "name": "Envigado",
        "category": "Hip",
        "osmType": "R",
        "osmId": 1307277,
        "source": "https://www.openstreetmap.org/relation/1307277",
        "retrievedAt": "2026-09-24",
        "stroke": "#f43f5e",
        "stroke-width": 2,
        "stroke-opacity": 0.95,
        "fill": "#f43f5e",
        "fill-opacity": 0.16
      },
      "geometry": {
        "type": "Polygon",
        "coordinates": [
          [
            [
              -75.6049283,
              6.1634166
            ],
            [
              -75.6048466,
              6.1633207
            ],
            [
              -75.604595,
              6.16309
            ],
            [
              -75.6044714,
              6.1628665
            ],
            [
              -75.6040828,
              6.1623351
            ],
            [
              -75.6035567,
              6.1615185
            ],
            [
              -75.6032539,
              6.1612268
            ],
            [
              -75.6021884,
              6.160143
            ],
            [
              -75.6024902,
              6.1599292
            ],
            [
              -75.6026311,
              6.1598889
            ],
            [
              -75.6027821,
              6.1598524
            ],
            [
              -75.6029521,
              6.1598073
            ],
            [
              -75.6031207,
              6.1597475
            ],
            [
              -75.603257,
              6.1596747
            ],
            [
              -75.6033845,
              6.1595727
            ],
            [
              -75.6034827,
              6.1594284
            ],
            [
              -75.603825,
              6.158902
            ],
            [
              -75.603903,
              6.1587915
            ],
            [
              -75.603988,
              6.1586604
            ],
            [
              -75.6040614,
              6.158543
            ],
            [
              -75.6041465,
              6.1584083
            ],
            [
              -75.6042306,
              6.1582709
            ],
            [
              -75.6043239,
              6.1581066
            ],
            [
              -75.6043451,
              6.1580672
            ],
            [
              -75.6043557,
              6.1580285
            ],
            [
              -75.6043524,
              6.1580003
            ],
            [
              -75.6042853,
              6.1579264
            ],
            [
              -75.6042763,
              6.1579165
            ],
            [
              -75.604215,
              6.1578491
            ],
            [
              -75.6040999,
              6.1576624
            ],
            [
              -75.6039681,
              6.1572768
            ],
            [
              -75.6039151,
              6.1569817
            ],
            [
              -75.6038363,
              6.1566097
            ],
            [
              -75.6038045,
              6.1564124
            ],
            [
              -75.6038045,
              6.1562738
            ],
            [
              -75.6037773,
              6.156069
            ],
            [
              -75.6037394,
              6.1560088
            ],
            [
              -75.6037167,
              6.1558175
            ],
            [
              -75.6037227,
              6.1556865
            ],
            [
              -75.6036288,
              6.1556082
            ],
            [
              -75.6034546,
              6.1556037
            ],
            [
              -75.6028595,
              6.1552588
            ],
            [
              -75.6023469,
              6.1544532
            ],
            [
              -75.6019355,
              6.1536468
            ],
            [
              -75.6016749,
              6.1527378
            ],
            [
              -75.6012807,
              6.1520792
            ],
            [
              -75.600792,
              6.1515363
            ],
            [
              -75.5999081,
              6.151411
            ],
            [
              -75.5989998,
              6.1517051
            ],
            [
              -75.5973845,
              6.1485218
            ],
            [
              -75.5966276,
              6.1479718
            ],
            [
              -75.5960147,
              6.1472683
            ],
            [
              -75.5955527,
              6.1464623
            ],
            [
              -75.5949399,
              6.1457588
            ],
            [
              -75.5940257,
              6.145311
            ],
            [
              -75.5931129,
              6.145015
            ],
            [
              -75.59235,
              6.1445152
            ],
            [
              -75.591537,
              6.1440665
            ],
            [
              -75.5911757,
              6.143209
            ],
            [
              -75.591168,
              6.1422979
            ],
            [
              -75.5910594,
              6.1414079
            ],
            [
              -75.5915038,
              6.1401387
            ],
            [
              -75.5916967,
              6.1390234
            ],
            [
              -75.592284,
              6.1366899
            ],
            [
              -75.592227,
              6.1359311
            ],
            [
              -75.5921071,
              6.1337048
            ],
            [
              -75.5919289,
              6.1305678
            ],
            [
              -75.5914618,
              6.1291544
            ],
            [
              -75.5908426,
              6.1276917
            ],
            [
              -75.5905808,
              6.1266308
            ],
            [
              -75.5898686,
              6.1261306
            ],
            [
              -75.5894075,
              6.1254258
            ],
            [
              -75.5892473,
              6.1244148
            ],
            [
              -75.5889863,
              6.1234552
            ],
            [
              -75.5886654,
              6.1213825
            ],
            [
              -75.5894053,
              6.1191489
            ],
            [
              -75.5898948,
              6.1172212
            ],
            [
              -75.5907375,
              6.1151893
            ],
            [
              -75.5903117,
              6.1127359
            ],
            [
              -75.590008,
              6.1124507
            ],
            [
              -75.5894421,
              6.1119942
            ],
            [
              -75.5892171,
              6.1119351
            ],
            [
              -75.5879218,
              6.1117334
            ],
            [
              -75.5871773,
              6.1115855
            ],
            [
              -75.5866526,
              6.1114321
            ],
            [
              -75.5858254,
              6.1110006
            ],
            [
              -75.5850189,
              6.1104056
            ],
            [
              -75.5847447,
              6.1102769
            ],
            [
              -75.5828301,
              6.1100155
            ],
            [
              -75.5820865,
              6.1100283
            ],
            [
              -75.5816238,
              6.1099923
            ],
            [
              -75.5811656,
              6.1099157
            ],
            [
              -75.5806742,
              6.1097734
            ],
            [
              -75.5800245,
              6.1094398
            ],
            [
              -75.5791271,
              6.1088385
            ],
            [
              -75.5788023,
              6.1086239
            ],
            [
              -75.5779915,
              6.1082224
            ],
            [
              -75.5770928,
              6.1077061
            ],
            [
              -75.5768172,
              6.1075425
            ],
            [
              -75.5764689,
              6.107262
            ],
            [
              -75.5761091,
              6.1068988
            ],
            [
              -75.5757873,
              6.1064518
            ],
            [
              -75.5755416,
              6.1059888
            ],
            [
              -75.5748757,
              6.1046451
            ],
            [
              -75.5743533,
              6.1037494
            ],
            [
              -75.5734218,
              6.1021925
            ],
            [
              -75.5726059,
              6.1012119
            ],
            [
              -75.5718773,
              6.101013
            ],
            [
              -75.570853,
              6.1007262
            ],
            [
              -75.5704108,
              6.1006107
            ],
            [
              -75.5699823,
              6.1004179
            ],
            [
              -75.5693542,
              6.1003036
            ],
            [
              -75.5690639,
              6.1003199
            ],
            [
              -75.5687884,
              6.1004349
            ],
            [
              -75.5684739,
              6.1008048
            ],
            [
              -75.5682023,
              6.1011099
            ],
            [
              -75.5679751,
              6.1016753
            ],
            [
              -75.5670582,
              6.1025723
            ],
            [
              -75.5653854,
              6.1033669
            ],
            [
              -75.5642033,
              6.104771
            ],
            [
              -75.5637721,
              6.1048707
            ],
            [
              -75.5633096,
              6.1049776
            ],
            [
              -75.5624151,
              6.1050847
            ],
            [
              -75.5612213,
              6.1050947
            ],
            [
              -75.5603234,
              6.1048034
            ],
            [
              -75.5595234,
              6.1043121
            ],
            [
              -75.5594622,
              6.1043065
            ],
            [
              -75.5585278,
              6.1042209
            ],
            [
              -75.5576308,
              6.1040292
            ],
            [
              -75.5552338,
              6.1040491
            ],
            [
              -75.5548971,
              6.1040519
            ],
            [
              -75.5540494,
              6.104059
            ],
            [
              -75.5530562,
              6.1042665
            ],
            [
              -75.550681,
              6.1057801
            ],
            [
              -75.5500899,
              6.1064821
            ],
            [
              -75.5499329,
              6.1068437
            ],
            [
              -75.5496994,
              6.1073816
            ],
            [
              -75.5492086,
              6.1081824
            ],
            [
              -75.5491141,
              6.1086253
            ],
            [
              -75.5488255,
              6.1099781
            ],
            [
              -75.5486415,
              6.1117722
            ],
            [
              -75.54795,
              6.1123755
            ],
            [
              -75.5473589,
              6.1130775
            ],
            [
              -75.5467678,
              6.1137796
            ],
            [
              -75.546277,
              6.1145803
            ],
            [
              -75.5454853,
              6.1150849
            ],
            [
              -75.5447938,
              6.1156881
            ],
            [
              -75.5447408,
              6.1157063
            ],
            [
              -75.5439009,
              6.1159943
            ],
            [
              -75.5435512,
              6.1161534
            ],
            [
              -75.5430088,
              6.1164001
            ],
            [
              -75.5424177,
              6.1171022
            ],
            [
              -75.5423257,
              6.1179992
            ],
            [
              -75.5423596,
              6.122082
            ],
            [
              -75.5425165,
              6.1225402
            ],
            [
              -75.5426656,
              6.1229757
            ],
            [
              -75.5427725,
              6.1238711
            ],
            [
              -75.5417328,
              6.1244027
            ],
            [
              -75.5407264,
              6.1245904
            ],
            [
              -75.5396235,
              6.1251878
            ],
            [
              -75.5386171,
              6.1258577
            ],
            [
              -75.5377159,
              6.1265959
            ],
            [
              -75.5368598,
              6.1277117
            ],
            [
              -75.5366237,
              6.1291476
            ],
            [
              -75.5364306,
              6.1308053
            ],
            [
              -75.5362761,
              6.1316758
            ],
            [
              -75.5349972,
              6.1318294
            ],
            [
              -75.5300684,
              6.1316459
            ],
            [
              -75.5294333,
              6.1328748
            ],
            [
              -75.5287895,
              6.1336108
            ],
            [
              -75.527736,
              6.1338327
            ],
            [
              -75.526736,
              6.1331863
            ],
            [
              -75.5259228,
              6.132382
            ],
            [
              -75.5245602,
              6.1323457
            ],
            [
              -75.523365,
              6.1325356
            ],
            [
              -75.5221291,
              6.13283
            ],
            [
              -75.5209103,
              6.1326785
            ],
            [
              -75.5199189,
              6.1327575
            ],
            [
              -75.5198653,
              6.1338626
            ],
            [
              -75.5192301,
              6.1348717
            ],
            [
              -75.5188611,
              6.1359662
            ],
            [
              -75.5191186,
              6.13753
            ],
            [
              -75.5193782,
              6.1390192
            ],
            [
              -75.5205004,
              6.1403099
            ],
            [
              -75.5214017,
              6.1423474
            ],
            [
              -75.5214982,
              6.1439304
            ],
            [
              -75.5208781,
              6.1458142
            ],
            [
              -75.518786,
              6.1470068
            ],
            [
              -75.5182581,
              6.1489013
            ],
            [
              -75.5168655,
              6.1507616
            ],
            [
              -75.5146811,
              6.1516726
            ],
            [
              -75.5135138,
              6.1516342
            ],
            [
              -75.5135095,
              6.1523286
            ],
            [
              -75.5145524,
              6.1533143
            ],
            [
              -75.5148485,
              6.1545922
            ],
            [
              -75.5143335,
              6.1558722
            ],
            [
              -75.513561,
              6.1570242
            ],
            [
              -75.5124881,
              6.1577496
            ],
            [
              -75.5112007,
              6.1575363
            ],
            [
              -75.5100849,
              6.1570242
            ],
            [
              -75.5070808,
              6.1560002
            ],
            [
              -75.5058363,
              6.1547202
            ],
            [
              -75.504463,
              6.1537815
            ],
            [
              -75.5032184,
              6.1538668
            ],
            [
              -75.5029609,
              6.1548055
            ],
            [
              -75.5021455,
              6.1559576
            ],
            [
              -75.5003002,
              6.1544642
            ],
            [
              -75.4996565,
              6.1530988
            ],
            [
              -75.4989269,
              6.1526721
            ],
            [
              -75.4984119,
              6.1538242
            ],
            [
              -75.4976394,
              6.1545922
            ],
            [
              -75.494292,
              6.1549762
            ],
            [
              -75.4937985,
              6.1556599
            ],
            [
              -75.4933908,
              6.1563853
            ],
            [
              -75.4929617,
              6.156812
            ],
            [
              -75.4922536,
              6.1572387
            ],
            [
              -75.4911592,
              6.157644
            ],
            [
              -75.490494,
              6.1580067
            ],
            [
              -75.4890349,
              6.1585614
            ],
            [
              -75.4886272,
              6.159116
            ],
            [
              -75.4884985,
              6.1597347
            ],
            [
              -75.4884341,
              6.1605027
            ],
            [
              -75.4877045,
              6.1608014
            ],
            [
              -75.4868248,
              6.1608227
            ],
            [
              -75.4860308,
              6.1602894
            ],
            [
              -75.4852369,
              6.1600334
            ],
            [
              -75.4847219,
              6.159756
            ],
            [
              -75.4843571,
              6.1594787
            ],
            [
              -75.4840996,
              6.1586894
            ],
            [
              -75.483134,
              6.15854
            ],
            [
              -75.4823616,
              6.1586254
            ],
            [
              -75.481632,
              6.158668
            ],
            [
              -75.480602,
              6.1586254
            ],
            [
              -75.4797008,
              6.1585187
            ],
            [
              -75.4789927,
              6.1586894
            ],
            [
              -75.4783275,
              6.158412
            ],
            [
              -75.4774048,
              6.1581133
            ],
            [
              -75.4764607,
              6.1579427
            ],
            [
              -75.4762032,
              6.1578787
            ],
            [
              -75.475538,
              6.157964
            ],
            [
              -75.4752785,
              6.1586678
            ],
            [
              -75.4741457,
              6.1669735
            ],
            [
              -75.474517,
              6.1682931
            ],
            [
              -75.4745249,
              6.1692549
            ],
            [
              -75.4758569,
              6.1705184
            ],
            [
              -75.4780242,
              6.1711017
            ],
            [
              -75.4801865,
              6.1710838
            ],
            [
              -75.4822386,
              6.1722691
            ],
            [
              -75.4841717,
              6.1735757
            ],
            [
              -75.4846582,
              6.1742931
            ],
            [
              -75.4846721,
              6.1759763
            ],
            [
              -75.4843247,
              6.1775422
            ],
            [
              -75.4843356,
              6.1788647
            ],
            [
              -75.4849512,
              6.1806631
            ],
            [
              -75.4848411,
              6.1818664
            ],
            [
              -75.4831652,
              6.1826018
            ],
            [
              -75.4824564,
              6.1840505
            ],
            [
              -75.4829489,
              6.1854892
            ],
            [
              -75.4847658,
              6.1872777
            ],
            [
              -75.4856257,
              6.189555
            ],
            [
              -75.4856447,
              6.1918393
            ],
            [
              -75.4843382,
              6.1936537
            ],
            [
              -75.483276,
              6.1959471
            ],
            [
              -75.483287,
              6.1972696
            ],
            [
              -75.483687,
              6.1983206
            ],
            [
              -75.4839079,
              6.1983821
            ],
            [
              -75.4850905,
              6.1983474
            ],
            [
              -75.4868071,
              6.1978423
            ],
            [
              -75.4875933,
              6.19756
            ],
            [
              -75.4879672,
              6.1974018
            ],
            [
              -75.4886536,
              6.1969006
            ],
            [
              -75.4892717,
              6.1960232
            ],
            [
              -75.4905076,
              6.1956605
            ],
            [
              -75.4912251,
              6.1951897
            ],
            [
              -75.4916598,
              6.195001
            ],
            [
              -75.492812,
              6.194747
            ],
            [
              -75.4932236,
              6.1945584
            ],
            [
              -75.4945664,
              6.194461
            ],
            [
              -75.4956882,
              6.1942399
            ],
            [
              -75.4961229,
              6.1942388
            ],
            [
              -75.4965353,
              6.1941438
            ],
            [
              -75.4971529,
              6.1939241
            ],
            [
              -75.4976874,
              6.1936402
            ],
            [
              -75.4978397,
              6.19339
            ],
            [
              -75.4979083,
              6.1931989
            ],
            [
              -75.4980308,
              6.1928573
            ],
            [
              -75.4980918,
              6.1924516
            ],
            [
              -75.4984959,
              6.1917916
            ],
            [
              -75.4990528,
              6.1910105
            ],
            [
              -75.4997089,
              6.1902256
            ],
            [
              -75.5003652,
              6.1896612
            ],
            [
              -75.5009528,
              6.1894403
            ],
            [
              -75.5014258,
              6.1894086
            ],
            [
              -75.5018303,
              6.1895318
            ],
            [
              -75.5022882,
              6.1899544
            ],
            [
              -75.5030966,
              6.189951
            ],
            [
              -75.5045006,
              6.1901676
            ],
            [
              -75.506034,
              6.1905997
            ],
            [
              -75.50904,
              6.1922176
            ],
            [
              -75.5095362,
              6.1924049
            ],
            [
              -75.510696,
              6.1933386
            ],
            [
              -75.5118861,
              6.193992
            ],
            [
              -75.5128705,
              6.1943169
            ],
            [
              -75.5141825,
              6.1949699
            ],
            [
              -75.5144085,
              6.1950505
            ],
            [
              -75.5154031,
              6.1954051
            ],
            [
              -75.5164331,
              6.1956837
            ],
            [
              -75.517593,
              6.1958048
            ],
            [
              -75.5179246,
              6.1957914
            ],
            [
              -75.5184019,
              6.1957721
            ],
            [
              -75.520103,
              6.1955957
            ],
            [
              -75.5216979,
              6.1958412
            ],
            [
              -75.5229491,
              6.1958987
            ],
            [
              -75.5240402,
              6.1958348
            ],
            [
              -75.5255128,
              6.1952985
            ],
            [
              -75.5259779,
              6.1950792
            ],
            [
              -75.5261916,
              6.1947656
            ],
            [
              -75.5269087,
              6.1939805
            ],
            [
              -75.527313,
              6.1929805
            ],
            [
              -75.5276259,
              6.1919797
            ],
            [
              -75.5279008,
              6.1907608
            ],
            [
              -75.5283966,
              6.1881006
            ],
            [
              -75.5287092,
              6.1874116
            ],
            [
              -75.5301058,
              6.1849072
            ],
            [
              -75.5307541,
              6.1833416
            ],
            [
              -75.5314561,
              6.1821972
            ],
            [
              -75.5319825,
              6.1797912
            ],
            [
              -75.5327075,
              6.1781779
            ],
            [
              -75.5333332,
              6.1770507
            ],
            [
              -75.535355,
              6.1727615
            ],
            [
              -75.5364992,
              6.1708826
            ],
            [
              -75.5370032,
              6.1702247
            ],
            [
              -75.5374378,
              6.1701919
            ],
            [
              -75.5379723,
              6.1703463
            ],
            [
              -75.5393912,
              6.1708904
            ],
            [
              -75.5409551,
              6.1713868
            ],
            [
              -75.542832,
              6.1721319
            ],
            [
              -75.5434271,
              6.1725993
            ],
            [
              -75.5444933,
              6.1739068
            ],
            [
              -75.5467615,
              6.1745765
            ],
            [
              -75.5492333,
              6.1749132
            ],
            [
              -75.5525142,
              6.1755007
            ],
            [
              -75.5526025,
              6.175503
            ],
            [
              -75.5535824,
              6.1755283
            ],
            [
              -75.5548338,
              6.1756503
            ],
            [
              -75.5551698,
              6.1756648
            ],
            [
              -75.5552876,
              6.1756699
            ],
            [
              -75.5561734,
              6.1757081
            ],
            [
              -75.5563373,
              6.1757152
            ],
            [
              -75.5572955,
              6.1757565
            ],
            [
              -75.5572825,
              6.1756253
            ],
            [
              -75.5574448,
              6.1754853
            ],
            [
              -75.5575,
              6.175472
            ],
            [
              -75.5576218,
              6.1754427
            ],
            [
              -75.5576715,
              6.175544
            ],
            [
              -75.5578324,
              6.1755787
            ],
            [
              -75.5579437,
              6.175532
            ],
            [
              -75.5579678,
              6.175448
            ],
            [
              -75.5580497,
              6.1754267
            ],
            [
              -75.5581087,
              6.1753587
            ],
            [
              -75.5581623,
              6.1753173
            ],
            [
              -75.5582589,
              6.175364
            ],
            [
              -75.5583662,
              6.175364
            ],
            [
              -75.5585405,
              6.1754147
            ],
            [
              -75.558562,
              6.1753427
            ],
            [
              -75.5586585,
              6.1754093
            ],
            [
              -75.5587551,
              6.175412
            ],
            [
              -75.5588449,
              6.1754387
            ],
            [
              -75.5588731,
              6.1754907
            ],
            [
              -75.5589254,
              6.1755347
            ],
            [
              -75.5589603,
              6.1755147
            ],
            [
              -75.5589978,
              6.1755427
            ],
            [
              -75.5590059,
              6.1755893
            ],
            [
              -75.5590139,
              6.175628
            ],
            [
              -75.5590474,
              6.1756373
            ],
            [
              -75.5590997,
              6.1756347
            ],
            [
              -75.5591118,
              6.1756733
            ],
            [
              -75.5591588,
              6.1756773
            ],
            [
              -75.5592164,
              6.1756747
            ],
            [
              -75.559258,
              6.175596
            ],
            [
              -75.5593063,
              6.1756547
            ],
            [
              -75.5593881,
              6.1756773
            ],
            [
              -75.5594551,
              6.17562
            ],
            [
              -75.5595235,
              6.1756547
            ],
            [
              -75.5596952,
              6.1756733
            ],
            [
              -75.5598038,
              6.1757293
            ],
            [
              -75.5599031,
              6.175784
            ],
            [
              -75.5601109,
              6.1758853
            ],
            [
              -75.560245,
              6.1759427
            ],
            [
              -75.5603403,
              6.175916
            ],
            [
              -75.5604328,
              6.175872
            ],
            [
              -75.5605133,
              6.17594
            ],
            [
              -75.5605615,
              6.1760227
            ],
            [
              -75.5606259,
              6.1760973
            ],
            [
              -75.5607091,
              6.17612
            ],
            [
              -75.5607547,
              6.1761547
            ],
            [
              -75.5607936,
              6.1761653
            ],
            [
              -75.5609223,
              6.1761453
            ],
            [
              -75.5610618,
              6.1761387
            ],
            [
              -75.5613073,
              6.1763031
            ],
            [
              -75.5614239,
              6.176316
            ],
            [
              -75.5615768,
              6.1763067
            ],
            [
              -75.5618061,
              6.1763253
            ],
            [
              -75.5621105,
              6.1763013
            ],
            [
              -75.5623519,
              6.1761813
            ],
            [
              -75.562511,
              6.1762135
            ],
            [
              -75.5625598,
              6.176292
            ],
            [
              -75.5627073,
              6.1763267
            ],
            [
              -75.5629112,
              6.1762107
            ],
            [
              -75.5630158,
              6.1760827
            ],
            [
              -75.5631418,
              6.1759507
            ],
            [
              -75.5634345,
              6.1757755
            ],
            [
              -75.5636582,
              6.1757893
            ],
            [
              -75.5637198,
              6.1758973
            ],
            [
              -75.5637882,
              6.1758907
            ],
            [
              -75.563858,
              6.175944
            ],
            [
              -75.5638553,
              6.1759947
            ],
            [
              -75.5639141,
              6.1761087
            ],
            [
              -75.5640938,
              6.1761274
            ],
            [
              -75.5642912,
              6.1758997
            ],
            [
              -75.564361,
              6.1759165
            ],
            [
              -75.5644185,
              6.1760055
            ],
            [
              -75.5644387,
              6.1761987
            ],
            [
              -75.5645232,
              6.1762853
            ],
            [
              -75.5645031,
              6.176368
            ],
            [
              -75.5644816,
              6.1764573
            ],
            [
              -75.5645299,
              6.1765387
            ],
            [
              -75.5647365,
              6.1764691
            ],
            [
              -75.5649087,
              6.1764661
            ],
            [
              -75.5654432,
              6.1763493
            ],
            [
              -75.5658768,
              6.1762727
            ],
            [
              -75.5659391,
              6.1763324
            ],
            [
              -75.5659459,
              6.1765436
            ],
            [
              -75.5660224,
              6.1766485
            ],
            [
              -75.5663222,
              6.1766635
            ],
            [
              -75.5664505,
              6.1768002
            ],
            [
              -75.5666337,
              6.1768344
            ],
            [
              -75.5667544,
              6.176999
            ],
            [
              -75.5668843,
              6.1770949
            ],
            [
              -75.5671458,
              6.1771881
            ],
            [
              -75.5673328,
              6.1773093
            ],
            [
              -75.5674576,
              6.1774151
            ],
            [
              -75.5678783,
              6.1780695
            ],
            [
              -75.5682497,
              6.1783768
            ],
            [
              -75.568478,
              6.1786581
            ],
            [
              -75.5687117,
              6.1787189
            ],
            [
              -75.5689015,
              6.1788959
            ],
            [
              -75.5689868,
              6.1789114
            ],
            [
              -75.5691479,
              6.1788161
            ],
            [
              -75.5693079,
              6.1787971
            ],
            [
              -75.5694816,
              6.1790106
            ],
            [
              -75.5702678,
              6.1793508
            ],
            [
              -75.5703377,
              6.1793438
            ],
            [
              -75.5704316,
              6.1792392
            ],
            [
              -75.5705423,
              6.1792009
            ],
            [
              -75.5710753,
              6.17938
            ],
            [
              -75.5713036,
              6.1793208
            ],
            [
              -75.5715029,
              6.1791519
            ],
            [
              -75.5719206,
              6.179145
            ],
            [
              -75.5722319,
              6.1792221
            ],
            [
              -75.5726694,
              6.1794281
            ],
            [
              -75.5731449,
              6.1798738
            ],
            [
              -75.5734996,
              6.1801421
            ],
            [
              -75.573777,
              6.1802359
            ],
            [
              -75.5741296,
              6.1802707
            ],
            [
              -75.5743389,
              6.1805001
            ],
            [
              -75.5750839,
              6.1808345
            ],
            [
              -75.5757212,
              6.181855
            ],
            [
              -75.5758015,
              6.1819837
            ],
            [
              -75.5766515,
              6.182142
            ],
            [
              -75.5767397,
              6.1821694
            ],
            [
              -75.5767717,
              6.1821794
            ],
            [
              -75.5773625,
              6.1825329
            ],
            [
              -75.5775328,
              6.1826302
            ],
            [
              -75.5779043,
              6.1828609
            ],
            [
              -75.5780344,
              6.1829355
            ],
            [
              -75.5782956,
              6.1830901
            ],
            [
              -75.5787369,
              6.1833513
            ],
            [
              -75.5788831,
              6.1834364
            ],
            [
              -75.5792473,
              6.1836905
            ],
            [
              -75.579314,
              6.1837353
            ],
            [
              -75.5796039,
              6.1838475
            ],
            [
              -75.5798178,
              6.1841301
            ],
            [
              -75.5799276,
              6.1844658
            ],
            [
              -75.5800006,
              6.1848492
            ],
            [
              -75.5801094,
              6.1854202
            ],
            [
              -75.580199,
              6.1858905
            ],
            [
              -75.5804311,
              6.1866429
            ],
            [
              -75.580572,
              6.1868492
            ],
            [
              -75.5807091,
              6.1870043
            ],
            [
              -75.5813598,
              6.1875388
            ],
            [
              -75.5816761,
              6.1878622
            ],
            [
              -75.5827862,
              6.1882259
            ],
            [
              -75.5828731,
              6.1882675
            ],
            [
              -75.5829373,
              6.1883136
            ],
            [
              -75.5830266,
              6.1886147
            ],
            [
              -75.5831287,
              6.188746
            ],
            [
              -75.5832474,
              6.1889
            ],
            [
              -75.5833107,
              6.1889801
            ],
            [
              -75.583491,
              6.1886445
            ],
            [
              -75.583671,
              6.1883309
            ],
            [
              -75.5838719,
              6.188069
            ],
            [
              -75.5842998,
              6.1876799
            ],
            [
              -75.5850199,
              6.1871288
            ],
            [
              -75.5855474,
              6.1867403
            ],
            [
              -75.5863644,
              6.1861331
            ],
            [
              -75.5872179,
              6.185522
            ],
            [
              -75.5874469,
              6.1853345
            ],
            [
              -75.588369,
              6.1843779
            ],
            [
              -75.5888893,
              6.1837624
            ],
            [
              -75.5891278,
              6.1835086
            ],
            [
              -75.5895064,
              6.1830098
            ],
            [
              -75.5900924,
              6.1820692
            ],
            [
              -75.5905853,
              6.1812746
            ],
            [
              -75.5908857,
              6.180786
            ],
            [
              -75.5909967,
              6.1805867
            ],
            [
              -75.591851,
              6.1792399
            ],
            [
              -75.5925128,
              6.1783005
            ],
            [
              -75.5931082,
              6.1776089
            ],
            [
              -75.5932791,
              6.1774169
            ],
            [
              -75.5937389,
              6.1769797
            ],
            [
              -75.5942237,
              6.1765382
            ],
            [
              -75.5949542,
              6.1759294
            ],
            [
              -75.5951664,
              6.1757756
            ],
            [
              -75.5960844,
              6.1751749
            ],
            [
              -75.5970836,
              6.174474
            ],
            [
              -75.5978117,
              6.1739529
            ],
            [
              -75.5989122,
              6.1731667
            ],
            [
              -75.5998007,
              6.1725255
            ],
            [
              -75.6000318,
              6.1723472
            ],
            [
              -75.6007363,
              6.1716996
            ],
            [
              -75.6015434,
              6.1710375
            ],
            [
              -75.6018696,
              6.170659
            ],
            [
              -75.6021011,
              6.1703337
            ],
            [
              -75.6021814,
              6.1701781
            ],
            [
              -75.6023161,
              6.169929
            ],
            [
              -75.602415,
              6.1696606
            ],
            [
              -75.6025678,
              6.1691309
            ],
            [
              -75.6029092,
              6.1675455
            ],
            [
              -75.6030713,
              6.1666998
            ],
            [
              -75.603234,
              6.1659151
            ],
            [
              -75.6033863,
              6.1652498
            ],
            [
              -75.6036066,
              6.1647557
            ],
            [
              -75.6037899,
              6.1644119
            ],
            [
              -75.604095,
              6.1640694
            ],
            [
              -75.6044683,
              6.1637635
            ],
            [
              -75.6049283,
              6.1634166
            ]
          ]
        ]
      }
    }
  ]
}
