{
  "type": "FeatureCollection",
  "features": [
    {
      "type": "Feature",
      "properties": {
        "name": "Ciudad",
        "category": "Tourist",
        "osmType": "relation",
        "osmId": 4206710,
        "stroke": "#f59e0b",
        "stroke-width": 2,
        "stroke-opacity": 0.95,
        "fill": "#f59e0b",
        "fill-opacity": 0.16
      },
      "geometry": {
        "type": "Polygon",
        "coordinates": [
          [
            [
              -69.0902178,
              -32.8634687
            ],
            [
              -69.0891207,
              -32.8641243
            ],
            [
              -69.0870286,
              -32.8667814
            ],
            [
              -69.0815039,
              -32.8682248
            ],
            [
              -69.0825496,
              -32.8694144
            ],
            [
              -69.0797274,
              -32.8723522
            ],
            [
              -69.081865,
              -32.8756171
            ],
            [
              -69.0811279,
              -32.87852
            ],
            [
              -69.0783425,
              -32.8826183
            ],
            [
              -69.0797682,
              -32.8872995
            ],
            [
              -69.0790512,
              -32.8893998
            ],
            [
              -69.0787482,
              -32.8952996
            ],
            [
              -69.0811515,
              -32.8970022
            ],
            [
              -69.0817094,
              -32.9006776
            ],
            [
              -69.084177,
              -32.9036862
            ],
            [
              -69.0840806,
              -32.9046319
            ],
            [
              -68.8955642,
              -32.9045946
            ],
            [
              -68.8948452,
              -32.9008519
            ],
            [
              -68.8931121,
              -32.9007368
            ],
            [
              -68.8873356,
              -32.8993149
            ],
            [
              -68.8857679,
              -32.8993638
            ],
            [
              -68.8816843,
              -32.9000969
            ],
            [
              -68.8778114,
              -32.8998989
            ],
            [
              -68.8739926,
              -32.900602
            ],
            [
              -68.872319,
              -32.9005694
            ],
            [
              -68.8675741,
              -32.9010741
            ],
            [
              -68.8652359,
              -32.9017741
            ],
            [
              -68.8636681,
              -32.9024762
            ],
            [
              -68.8605539,
              -32.9023982
            ],
            [
              -68.8593764,
              -32.9025664
            ],
            [
              -68.8567614,
              -32.9021036
            ],
            [
              -68.8531814,
              -32.9025768
            ],
            [
              -68.8518732,
              -32.9024361
            ],
            [
              -68.851909,
              -32.9030616
            ],
            [
              -68.8376318,
              -32.9045356
            ],
            [
              -68.8368302,
              -32.9016633
            ],
            [
              -68.8308306,
              -32.8927988
            ],
            [
              -68.8297274,
              -32.8888868
            ],
            [
              -68.8282876,
              -32.8850662
            ],
            [
              -68.826383,
              -32.8768486
            ],
            [
              -68.8258184,
              -32.8763656
            ],
            [
              -68.8203576,
              -32.8738981
            ],
            [
              -68.8204322,
              -32.8733866
            ],
            [
              -68.8200638,
              -32.8721349
            ],
            [
              -68.819226,
              -32.87079
            ],
            [
              -68.8180747,
              -32.869617
            ],
            [
              -68.8174832,
              -32.8684362
            ],
            [
              -68.8172589,
              -32.8673581
            ],
            [
              -68.8214365,
              -32.8670339
            ],
            [
              -68.8226638,
              -32.8664743
            ],
            [
              -68.8283834,
              -32.8664357
            ],
            [
              -68.8297204,
              -32.8667826
            ],
            [
              -68.8330973,
              -32.8666487
            ],
            [
              -68.8324504,
              -32.8642816
            ],
            [
              -68.8326938,
              -32.8620361
            ],
            [
              -68.835857,
              -32.8622493
            ],
            [
              -68.8459902,
              -32.8623853
            ],
            [
              -68.8509566,
              -32.8630628
            ],
            [
              -68.8739455,
              -32.8641295
            ],
            [
              -68.882983,
              -32.8642558
            ],
            [
              -68.8833731,
              -32.864286
            ],
            [
              -68.8832337,
              -32.8652206
            ],
            [
              -68.8865178,
              -32.865859
            ],
            [
              -68.8901963,
              -32.8651958
            ],
            [
              -68.8906983,
              -32.8633745
            ],
            [
              -69.0804805,
              -32.8634688
            ],
            [
              -69.0902178,
              -32.8634687
            ]
          ]
        ]
      }
    },
    {
      "type": "Feature",
      "properties": {
        "name": "Quinta Sección",
        "category": "Residential",
        "osmType": "relation",
        "osmId": 2969998,
        "stroke": "#0f766e",
        "stroke-width": 2,
        "stroke-opacity": 0.95,
        "fill": "#0f766e",
        "fill-opacity": 0.16
      },
      "geometry": {
        "type": "Polygon",
        "coordinates": [
          [
            [
              -68.8652359,
              -32.9017741
            ],
            [
              -68.8636681,
              -32.9024762
            ],
            [
              -68.8605539,
              -32.9023982
            ],
            [
              -68.8593764,
              -32.9025664
            ],
            [
              -68.8567614,
              -32.9021036
            ],
            [
              -68.8530236,
              -32.9025851
            ],
            [
              -68.8527682,
              -32.900324
            ],
            [
              -68.8485955,
              -32.8844383
            ],
            [
              -68.8501629,
              -32.8841454
            ],
            [
              -68.8498767,
              -32.8830591
            ],
            [
              -68.8601364,
              -32.8811283
            ],
            [
              -68.8638559,
              -32.900043
            ],
            [
              -68.8649461,
              -32.9014768
            ],
            [
              -68.8652359,
              -32.9017741
            ]
          ]
        ]
      }
    },
    {
      "type": "Feature",
      "properties": {
        "name": "Chacras de Coria",
        "category": "Hip",
        "osmType": "relation",
        "osmId": 2989596,
        "stroke": "#f43f5e",
        "stroke-width": 2,
        "stroke-opacity": 0.95,
        "fill": "#f43f5e",
        "fill-opacity": 0.16
      },
      "geometry": {
        "type": "Polygon",
        "coordinates": [
          [
            [
              -68.904168,
              -32.9980004
            ],
            [
              -68.9030333,
              -32.998028
            ],
            [
              -68.9027474,
              -32.9988396
            ],
            [
              -68.9031368,
              -32.999879
            ],
            [
              -68.9037724,
              -33.000524
            ],
            [
              -68.9034818,
              -33.0058066
            ],
            [
              -68.8926906,
              -33.0054172
            ],
            [
              -68.8868808,
              -33.0054099
            ],
            [
              -68.8860972,
              -33.0092337
            ],
            [
              -68.8860238,
              -33.0154146
            ],
            [
              -68.8848192,
              -33.0209225
            ],
            [
              -68.8830707,
              -33.0217715
            ],
            [
              -68.880748,
              -33.0199559
            ],
            [
              -68.8768985,
              -33.0159007
            ],
            [
              -68.8744955,
              -33.013912
            ],
            [
              -68.8715266,
              -33.0120735
            ],
            [
              -68.8705526,
              -33.0110569
            ],
            [
              -68.8698712,
              -33.0095149
            ],
            [
              -68.8679949,
              -33.0035455
            ],
            [
              -68.8675717,
              -33.0002645
            ],
            [
              -68.8653491,
              -32.994249
            ],
            [
              -68.8645055,
              -32.9883002
            ],
            [
              -68.8638611,
              -32.9870807
            ],
            [
              -68.8629291,
              -32.9844347
            ],
            [
              -68.8625538,
              -32.9839573
            ],
            [
              -68.8615717,
              -32.9812808
            ],
            [
              -68.8602175,
              -32.9768385
            ],
            [
              -68.8600413,
              -32.9753004
            ],
            [
              -68.8577607,
              -32.9697982
            ],
            [
              -68.8577518,
              -32.9689665
            ],
            [
              -68.8570645,
              -32.9673705
            ],
            [
              -68.8678816,
              -32.9676882
            ],
            [
              -68.8675373,
              -32.966695
            ],
            [
              -68.8736376,
              -32.9659782
            ],
            [
              -68.8757113,
              -32.9678476
            ],
            [
              -68.8782088,
              -32.9694962
            ],
            [
              -68.8798893,
              -32.9697021
            ],
            [
              -68.8810377,
              -32.9700777
            ],
            [
              -68.8813012,
              -32.9711447
            ],
            [
              -68.8845439,
              -32.9779387
            ],
            [
              -68.8865046,
              -32.9801341
            ],
            [
              -68.887919,
              -32.9823703
            ],
            [
              -68.8889233,
              -32.9832417
            ],
            [
              -68.8929857,
              -32.9852873
            ],
            [
              -68.8960221,
              -32.9877334
            ],
            [
              -68.8966198,
              -32.988448
            ],
            [
              -68.898453,
              -32.9918876
            ],
            [
              -68.9024775,
              -32.9959148
            ],
            [
              -68.9035356,
              -32.9971968
            ],
            [
              -68.904168,
              -32.9980004
            ]
          ]
        ]
      }
    }
  ]
}
