{
  "type": "FeatureCollection",
  "features": [
    {
      "type": "Feature",
      "properties": {
        "name": "Altabrisa",
        "category": "Hip",
        "osmType": "relation",
        "osmId": 19927213,
        "stroke": "#f43f5e",
        "stroke-width": 2,
        "stroke-opacity": 0.95,
        "fill": "#f43f5e",
        "fill-opacity": 0.16
      },
      "geometry": {
        "type": "Polygon",
        "coordinates": [
          [
            [
              -89.59267,
              21.022364
            ],
            [
              -89.5874571,
              21.0154349
            ],
            [
              -89.5872019,
              21.0153241
            ],
            [
              -89.5872648,
              21.0151001
            ],
            [
              -89.5857757,
              21.0142223
            ],
            [
              -89.5856088,
              21.0156047
            ],
            [
              -89.5835947,
              21.0142117
            ],
            [
              -89.58352,
              21.0157705
            ],
            [
              -89.5831807,
              21.0164973
            ],
            [
              -89.5756521,
              21.0234553
            ],
            [
              -89.5774343,
              21.025191
            ],
            [
              -89.5798246,
              21.0255717
            ],
            [
              -89.58006,
              21.0254521
            ],
            [
              -89.585362,
              21.0275419
            ],
            [
              -89.584522,
              21.0294192
            ],
            [
              -89.5864727,
              21.0312804
            ],
            [
              -89.5869291,
              21.0315149
            ],
            [
              -89.5919545,
              21.0228446
            ],
            [
              -89.5926314,
              21.0223869
            ],
            [
              -89.59267,
              21.022364
            ]
          ]
        ]
      }
    }
  ]
}
