{
  "type": "FeatureCollection",
  "features": [
    {
      "type": "Feature",
      "properties": {
        "name": "Roma Norte",
        "category": "Tourist",
        "osmType": "R",
        "osmId": 16823842,
        "source": "https://www.openstreetmap.org/relation/16823842",
        "retrievedAt": "2026-09-24",
        "stroke": "#f59e0b",
        "stroke-width": 2,
        "stroke-opacity": 0.95,
        "fill": "#f59e0b",
        "fill-opacity": 0.16
      },
      "geometry": {
        "type": "Polygon",
        "coordinates": [
          [
            [
              -99.1769055,
              19.4204648
            ],
            [
              -99.1749851,
              19.4181156
            ],
            [
              -99.1748753,
              19.4180018
            ],
            [
              -99.1717239,
              19.4157189
            ],
            [
              -99.1714784,
              19.4159385
            ],
            [
              -99.1711236,
              19.4161125
            ],
            [
              -99.1707445,
              19.4162261
            ],
            [
              -99.1703264,
              19.4162836
            ],
            [
              -99.1700009,
              19.4158265
            ],
            [
              -99.1696985,
              19.4162094
            ],
            [
              -99.1694394,
              19.4163857
            ],
            [
              -99.1674476,
              19.4167532
            ],
            [
              -99.1654017,
              19.4155177
            ],
            [
              -99.1670577,
              19.4104349
            ],
            [
              -99.1592813,
              19.4119364
            ],
            [
              -99.1588104,
              19.4117006
            ],
            [
              -99.1548009,
              19.4117881
            ],
            [
              -99.1539348,
              19.4225566
            ],
            [
              -99.1536904,
              19.4255955
            ],
            [
              -99.1537303,
              19.4258393
            ],
            [
              -99.1554575,
              19.425452
            ],
            [
              -99.1564382,
              19.4252321
            ],
            [
              -99.1623985,
              19.4238956
            ],
            [
              -99.1623671,
              19.4238069
            ],
            [
              -99.1623555,
              19.4237513
            ],
            [
              -99.1623491,
              19.4236769
            ],
            [
              -99.1623522,
              19.4236072
            ],
            [
              -99.1623638,
              19.4235398
            ],
            [
              -99.1623956,
              19.4234446
            ],
            [
              -99.1624445,
              19.4233555
            ],
            [
              -99.1625181,
              19.423266
            ],
            [
              -99.1625803,
              19.423212
            ],
            [
              -99.1626474,
              19.4231677
            ],
            [
              -99.162762,
              19.4231167
            ],
            [
              -99.1628284,
              19.4230985
            ],
            [
              -99.1628916,
              19.4230879
            ],
            [
              -99.1629632,
              19.4230836
            ],
            [
              -99.1630322,
              19.4230867
            ],
            [
              -99.1630982,
              19.4230967
            ],
            [
              -99.1631592,
              19.4231123
            ],
            [
              -99.1632142,
              19.4231319
            ],
            [
              -99.1633354,
              19.4231979
            ],
            [
              -99.1634064,
              19.4232558
            ],
            [
              -99.16347,
              19.4233267
            ],
            [
              -99.1635226,
              19.4234095
            ],
            [
              -99.16357,
              19.4235278
            ],
            [
              -99.1656194,
              19.4230772
            ],
            [
              -99.1768136,
              19.4206158
            ],
            [
              -99.1769055,
              19.4204648
            ]
          ]
        ]
      }
    },
    {
      "type": "Feature",
      "properties": {
        "name": "Condesa",
        "category": "Hip",
        "osmType": "R",
        "osmId": 16823615,
        "source": "https://www.openstreetmap.org/relation/16823615",
        "retrievedAt": "2026-09-24",
        "stroke": "#f43f5e",
        "stroke-width": 2,
        "stroke-opacity": 0.95,
        "fill": "#f43f5e",
        "fill-opacity": 0.16
      },
      "geometry": {
        "type": "Polygon",
        "coordinates": [
          [
            [
              -99.1822429,
              19.4114133
            ],
            [
              -99.1803363,
              19.4104804
            ],
            [
              -99.1798307,
              19.4113723
            ],
            [
              -99.1743025,
              19.411518
            ],
            [
              -99.1739767,
              19.4114157
            ],
            [
              -99.17215,
              19.4134493
            ],
            [
              -99.1715217,
              19.4131688
            ],
            [
              -99.1710885,
              19.4141438
            ],
            [
              -99.170767,
              19.4147444
            ],
            [
              -99.170254,
              19.4155051
            ],
            [
              -99.1700009,
              19.4158265
            ],
            [
              -99.1703264,
              19.4162836
            ],
            [
              -99.1707445,
              19.4162261
            ],
            [
              -99.1711236,
              19.4161125
            ],
            [
              -99.1714784,
              19.4159385
            ],
            [
              -99.1717239,
              19.4157189
            ],
            [
              -99.1748753,
              19.4180018
            ],
            [
              -99.1749851,
              19.4181156
            ],
            [
              -99.1769055,
              19.4204648
            ],
            [
              -99.1776018,
              19.4193332
            ],
            [
              -99.1783226,
              19.4181617
            ],
            [
              -99.1786723,
              19.4175411
            ],
            [
              -99.1798535,
              19.4154446
            ],
            [
              -99.1807734,
              19.4138117
            ],
            [
              -99.1811773,
              19.4130949
            ],
            [
              -99.1816299,
              19.4123806
            ],
            [
              -99.1822429,
              19.4114133
            ]
          ]
        ]
      }
    }
  ]
}
