{
  "type": "FeatureCollection",
  "features": [
    {
      "type": "Feature",
      "properties": {
        "name": "Centro",
        "category": "Tourist",
        "osmType": "relation",
        "osmId": 11321767,
        "stroke": "#f59e0b",
        "stroke-width": 2,
        "stroke-opacity": 0.95,
        "fill": "#f59e0b",
        "fill-opacity": 0.16
      },
      "geometry": {
        "type": "Polygon",
        "coordinates": [
          [
            [
              -76.2788082,
              8.6441935
            ],
            [
              -76.2743723,
              8.6394773
            ],
            [
              -76.2709076,
              8.6381446
            ],
            [
              -76.2697523,
              8.6372938
            ],
            [
              -76.2674882,
              8.6346248
            ],
            [
              -76.2660787,
              8.6323233
            ],
            [
              -76.2653387,
              8.6300905
            ],
            [
              -76.2652459,
              8.6290547
            ],
            [
              -76.2665603,
              8.62309
            ],
            [
              -76.266259,
              8.6208571
            ],
            [
              -76.2651335,
              8.6190061
            ],
            [
              -76.2636276,
              8.6172857
            ],
            [
              -76.2560716,
              8.6124299
            ],
            [
              -76.2547593,
              8.6108044
            ],
            [
              -76.2530476,
              8.6068278
            ],
            [
              -76.2522976,
              8.6002666
            ],
            [
              -76.2522801,
              8.5971987
            ],
            [
              -76.2530527,
              8.5889926
            ],
            [
              -76.2526025,
              8.5853058
            ],
            [
              -76.2508534,
              8.5811622
            ],
            [
              -76.2496603,
              8.5792205
            ],
            [
              -76.2448637,
              8.573743
            ],
            [
              -76.2425259,
              8.572339
            ],
            [
              -76.2390382,
              8.572645
            ],
            [
              -76.2375347,
              8.5720718
            ],
            [
              -76.2346999,
              8.572429
            ],
            [
              -76.2329712,
              8.5723279
            ],
            [
              -76.2275957,
              8.5732172
            ],
            [
              -76.2257898,
              8.5738275
            ],
            [
              -76.224087,
              8.573837
            ],
            [
              -76.2228066,
              8.5732556
            ],
            [
              -76.2220887,
              8.571753
            ],
            [
              -76.2225611,
              8.5695638
            ],
            [
              -76.2225412,
              8.5681017
            ],
            [
              -76.2293003,
              8.562287
            ],
            [
              -76.2344031,
              8.5555132
            ],
            [
              -76.2347653,
              8.5518208
            ],
            [
              -76.2345805,
              8.5455104
            ],
            [
              -76.2323363,
              8.5386752
            ],
            [
              -76.2285685,
              8.5334859
            ],
            [
              -76.2223809,
              8.5233973
            ],
            [
              -76.2213267,
              8.5220634
            ],
            [
              -76.2201196,
              8.5201348
            ],
            [
              -76.2180021,
              8.5158294
            ],
            [
              -76.2164778,
              8.5106275
            ],
            [
              -76.2148065,
              8.505873
            ],
            [
              -76.213361,
              8.5003594
            ],
            [
              -76.2125316,
              8.493283
            ],
            [
              -76.2126041,
              8.4827946
            ],
            [
              -76.2119385,
              8.4756702
            ],
            [
              -76.2103889,
              8.4643366
            ],
            [
              -76.2105837,
              8.4574639
            ],
            [
              -76.2119821,
              8.4468721
            ],
            [
              -76.2124128,
              8.439788
            ],
            [
              -76.2113625,
              8.4354644
            ],
            [
              -76.2084435,
              8.431046
            ],
            [
              -76.2052016,
              8.4266801
            ],
            [
              -76.1934988,
              8.4082831
            ],
            [
              -76.1912634,
              8.4037185
            ],
            [
              -76.1906524,
              8.401713
            ],
            [
              -76.1801216,
              8.3997632
            ],
            [
              -76.1746447,
              8.3983592
            ],
            [
              -76.1705933,
              8.3943675
            ],
            [
              -76.1679689,
              8.388075
            ],
            [
              -76.1662097,
              8.3820646
            ],
            [
              -76.1639009,
              8.3809301
            ],
            [
              -76.1589969,
              8.3789494
            ],
            [
              -76.154396,
              8.3798336
            ],
            [
              -76.1500904,
              8.3821495
            ],
            [
              -76.1454833,
              8.381887
            ],
            [
              -76.1397158,
              8.3799105
            ],
            [
              -76.1348285,
              8.3810826
            ],
            [
              -76.1342753,
              8.3853854
            ],
            [
              -76.1302649,
              8.3891328
            ],
            [
              -76.1138735,
              8.3923711
            ],
            [
              -76.1110038,
              8.3941058
            ],
            [
              -76.1078996,
              8.3941889
            ],
            [
              -76.1069634,
              8.39212
            ],
            [
              -76.1049349,
              8.3895504
            ],
            [
              -76.100617,
              8.3895726
            ],
            [
              -76.0989211,
              8.3899715
            ],
            [
              -76.0953783,
              8.3888593
            ],
            [
              -76.094672,
              8.3864932
            ],
            [
              -76.0954978,
              8.3840465
            ],
            [
              -76.0971243,
              8.3821371
            ],
            [
              -76.09739,
              8.3778357
            ],
            [
              -76.0959404,
              8.3758365
            ],
            [
              -76.0942967,
              8.3750285
            ],
            [
              -76.0935373,
              8.3735064
            ],
            [
              -76.093542,
              8.3716347
            ],
            [
              -76.0920431,
              8.3697593
            ],
            [
              -76.0886629,
              8.3686278
            ],
            [
              -76.0871631,
              8.3671266
            ],
            [
              -76.0873802,
              8.3654315
            ],
            [
              -76.0889614,
              8.3621119
            ],
            [
              -76.0886471,
              8.3569535
            ],
            [
              -76.0863137,
              8.3509453
            ],
            [
              -76.0828509,
              8.3492428
            ],
            [
              -76.0793954,
              8.3489735
            ],
            [
              -76.0707296,
              8.3509311
            ],
            [
              -76.0655157,
              8.351299
            ],
            [
              -76.0635804,
              8.3521136
            ],
            [
              -76.062335,
              8.3518554
            ],
            [
              -76.0616847,
              8.351224
            ],
            [
              -76.0575048,
              8.3510741
            ],
            [
              -76.0566732,
              8.350864
            ],
            [
              -76.056144,
              8.3503343
            ],
            [
              -76.0556596,
              8.3493951
            ],
            [
              -76.0554715,
              8.3484796
            ],
            [
              -76.0555695,
              8.3476848
            ],
            [
              -76.0572125,
              8.342965
            ],
            [
              -76.0582862,
              8.3419484
            ],
            [
              -76.0603232,
              8.3414676
            ],
            [
              -76.0606141,
              8.3398517
            ],
            [
              -76.0601087,
              8.3379367
            ],
            [
              -76.0600248,
              8.3364984
            ],
            [
              -76.060583,
              8.3338998
            ],
            [
              -76.0605346,
              8.333056
            ],
            [
              -76.0611852,
              8.3323093
            ],
            [
              -76.0630075,
              8.3309334
            ],
            [
              -76.0632726,
              8.3300178
            ],
            [
              -75.981623,
              8.3272739
            ],
            [
              -75.9809238,
              8.327977
            ],
            [
              -75.9799266,
              8.3275736
            ],
            [
              -75.9775834,
              8.3272933
            ],
            [
              -75.9761172,
              8.3267755
            ],
            [
              -75.9727124,
              8.3248675
            ],
            [
              -75.9718891,
              8.3241134
            ],
            [
              -75.9701574,
              8.3235395
            ],
            [
              -75.9689115,
              8.3236567
            ],
            [
              -75.967912,
              8.3241645
            ],
            [
              -75.967432,
              8.3238957
            ],
            [
              -75.9664377,
              8.3237398
            ],
            [
              -75.963114,
              8.3237014
            ],
            [
              -75.9581626,
              8.3231614
            ],
            [
              -75.9527628,
              8.3229122
            ],
            [
              -75.9495235,
              8.3224213
            ],
            [
              -75.9434171,
              8.3229788
            ],
            [
              -75.9409802,
              8.3227969
            ],
            [
              -75.9361277,
              8.322046
            ],
            [
              -75.9285034,
              8.3222425
            ],
            [
              -75.9265863,
              8.3219654
            ],
            [
              -75.9256855,
              8.3216434
            ],
            [
              -75.9231963,
              8.3202706
            ],
            [
              -75.9189518,
              8.3205322
            ],
            [
              -75.9115441,
              8.3205665
            ],
            [
              -75.9094994,
              8.3203215
            ],
            [
              -75.9059186,
              8.3193203
            ],
            [
              -75.9044299,
              8.3198375
            ],
            [
              -75.9027518,
              8.3193634
            ],
            [
              -75.8992581,
              8.3198338
            ],
            [
              -75.8961819,
              8.319065
            ],
            [
              -75.8909265,
              8.3147079
            ],
            [
              -75.8881477,
              8.3129248
            ],
            [
              -75.8857797,
              8.3117213
            ],
            [
              -75.8815939,
              8.3107151
            ],
            [
              -75.8761744,
              8.3109835
            ],
            [
              -75.8753502,
              8.3072353
            ],
            [
              -75.8744084,
              8.2932418
            ],
            [
              -75.8743647,
              8.2836186
            ],
            [
              -75.8767314,
              8.272891
            ],
            [
              -75.8767155,
              8.2693916
            ],
            [
              -75.8727437,
              8.2650351
            ],
            [
              -75.8724081,
              8.2641563
            ],
            [
              -75.8721912,
              8.2640911
            ],
            [
              -75.8693994,
              8.265039
            ],
            [
              -75.856117,
              8.2648438
            ],
            [
              -75.8538252,
              8.2663806
            ],
            [
              -75.848717,
              8.2664033
            ],
            [
              -75.8466748,
              8.2666667
            ],
            [
              -75.8443829,
              8.2682035
            ],
            [
              -75.8428538,
              8.2689735
            ],
            [
              -75.8405664,
              8.2715279
            ],
            [
              -75.8352252,
              8.2766401
            ],
            [
              -75.8329343,
              8.2784312
            ],
            [
              -75.8314052,
              8.2792012
            ],
            [
              -75.8283742,
              8.280052
            ],
            [
              -75.8287687,
              8.2827188
            ],
            [
              -75.8266732,
              8.2882954
            ],
            [
              -75.8274526,
              8.2902118
            ],
            [
              -75.8290064,
              8.2928927
            ],
            [
              -75.8263268,
              8.297128
            ],
            [
              -75.8271147,
              8.3009641
            ],
            [
              -75.8255779,
              8.3021228
            ],
            [
              -75.8201948,
              8.305218
            ],
            [
              -75.8202133,
              8.3094414
            ],
            [
              -75.8190755,
              8.31367
            ],
            [
              -75.8163886,
              8.3167553
            ],
            [
              -75.8152929,
              8.3170392
            ],
            [
              -75.8134681,
              8.3168779
            ],
            [
              -75.8097496,
              8.319867
            ],
            [
              -75.8094117,
              8.3203766
            ],
            [
              -75.8082927,
              8.3200195
            ],
            [
              -75.8070883,
              8.318825
            ],
            [
              -75.806291,
              8.3187512
            ],
            [
              -75.8055007,
              8.318423
            ],
            [
              -75.8026315,
              8.3157123
            ],
            [
              -75.801449,
              8.3148936
            ],
            [
              -75.7974957,
              8.3139213
            ],
            [
              -75.7968434,
              8.3134605
            ],
            [
              -75.7962729,
              8.312577
            ],
            [
              -75.7953408,
              8.3092041
            ],
            [
              -75.7928357,
              8.3027297
            ],
            [
              -75.789422,
              8.3040078
            ],
            [
              -75.7842224,
              8.3065443
            ],
            [
              -75.7825961,
              8.3070785
            ],
            [
              -75.7800402,
              8.3082642
            ],
            [
              -75.7773593,
              8.3090499
            ],
            [
              -75.7759567,
              8.3078091
            ],
            [
              -75.7745571,
              8.305991
            ],
            [
              -75.7743133,
              8.3045891
            ],
            [
              -75.7743996,
              8.3035182
            ],
            [
              -75.773328,
              8.302361
            ],
            [
              -75.7722548,
              8.3016987
            ],
            [
              -75.7693682,
              8.2988045
            ],
            [
              -75.7686256,
              8.2983072
            ],
            [
              -75.7658984,
              8.2973095
            ],
            [
              -75.7655683,
              8.2969785
            ],
            [
              -75.7653232,
              8.2963189
            ],
            [
              -75.7653292,
              8.2945065
            ],
            [
              -75.7650026,
              8.2931043
            ],
            [
              -75.7643812,
              8.2919836
            ],
            [
              -75.7647643,
              8.2900538
            ],
            [
              -75.7653469,
              8.2891495
            ],
            [
              -75.7659304,
              8.2876678
            ],
            [
              -75.7675931,
              8.2853659
            ],
            [
              -75.7687531,
              8.2847935
            ],
            [
              -75.769749,
              8.283808
            ],
            [
              -75.7705019,
              8.281502
            ],
            [
              -75.7704234,
              8.2801843
            ],
            [
              -75.768298,
              8.2725129
            ],
            [
              -75.7669783,
              8.2712724
            ],
            [
              -75.7661538,
              8.2701985
            ],
            [
              -75.7659103,
              8.2690441
            ],
            [
              -75.7648396,
              8.2676394
            ],
            [
              -75.7635197,
              8.2664814
            ],
            [
              -75.7621135,
              8.2663943
            ],
            [
              -75.7612027,
              8.2667213
            ],
            [
              -75.7586369,
              8.2670416
            ],
            [
              -75.7573965,
              8.2668726
            ],
            [
              -75.7562194,
              8.2655345
            ],
            [
              -75.7562165,
              8.2648423
            ],
            [
              -75.7557952,
              8.2638059
            ],
            [
              -75.7549937,
              8.2632209
            ],
            [
              -75.7542054,
              8.263077
            ],
            [
              -75.7534918,
              8.2640332
            ],
            [
              -75.7531519,
              8.2648038
            ],
            [
              -75.7533329,
              8.267025
            ],
            [
              -75.7528372,
              8.2682449
            ],
            [
              -75.7521023,
              8.2693429
            ],
            [
              -75.7483519,
              8.2717357
            ],
            [
              -75.7449021,
              8.2763578
            ],
            [
              -75.7445311,
              8.2798151
            ],
            [
              -75.7418393,
              8.2813622
            ],
            [
              -75.7387668,
              8.2840628
            ],
            [
              -75.7349313,
              8.2886865
            ],
            [
              -75.7307022,
              8.2913918
            ],
            [
              -75.7287876,
              8.2944716
            ],
            [
              -75.7264826,
              8.296401
            ],
            [
              -75.7257245,
              8.299476
            ],
            [
              -75.726889,
              8.301391
            ],
            [
              -75.7261292,
              8.304082
            ],
            [
              -75.7261452,
              8.3079218
            ],
            [
              -75.7265386,
              8.30984
            ],
            [
              -75.7277,
              8.3109872
            ],
            [
              -75.7292629,
              8.3159724
            ],
            [
              -75.729996,
              8.3162124
            ],
            [
              -75.7277425,
              8.3199247
            ],
            [
              -75.7239806,
              8.3299076
            ],
            [
              -75.7247917,
              8.34419
            ],
            [
              -75.7284783,
              8.3561974
            ],
            [
              -75.729317,
              8.3624833
            ],
            [
              -75.7270849,
              8.3782011
            ],
            [
              -75.720618,
              8.3793568
            ],
            [
              -75.715677,
              8.3776299
            ],
            [
              -75.7149973,
              8.3775962
            ],
            [
              -75.7139607,
              8.380082
            ],
            [
              -75.7136194,
              8.3821751
            ],
            [
              -75.712238,
              8.3867127
            ],
            [
              -75.7122453,
              8.3884558
            ],
            [
              -75.7087504,
              8.3898647
            ],
            [
              -75.7052512,
              8.3902278
            ],
            [
              -75.7038567,
              8.3916279
            ],
            [
              -75.7038668,
              8.3940682
            ],
            [
              -75.7024897,
              8.3996517
            ],
            [
              -75.7000536,
              8.4031479
            ],
            [
              -75.697263,
              8.4055997
            ],
            [
              -75.6972963,
              8.4136177
            ],
            [
              -75.6938213,
              8.4199071
            ],
            [
              -75.6899817,
              8.4227118
            ],
            [
              -75.67913,
              8.4231047
            ],
            [
              -75.6773837,
              8.4241576
            ],
            [
              -75.6759904,
              8.4259064
            ],
            [
              -75.6764135,
              8.428325
            ],
            [
              -75.6728923,
              8.4388179
            ],
            [
              -75.6725593,
              8.4430026
            ],
            [
              -75.6730454,
              8.4436138
            ],
            [
              -75.6736738,
              8.4455685
            ],
            [
              -75.6734524,
              8.4480998
            ],
            [
              -75.6718887,
              8.4528748
            ],
            [
              -75.6712742,
              8.4565335
            ],
            [
              -75.6700242,
              8.4587323
            ],
            [
              -75.6694089,
              8.4621821
            ],
            [
              -75.6694128,
              8.4631223
            ],
            [
              -75.6698372,
              8.4642696
            ],
            [
              -75.6717266,
              8.4644709
            ],
            [
              -75.676973,
              8.4645539
            ],
            [
              -75.6782397,
              8.465548
            ],
            [
              -75.679535,
              8.4657411
            ],
            [
              -75.6816507,
              8.4665927
            ],
            [
              -75.6841151,
              8.4689071
            ],
            [
              -75.6814531,
              8.4785833
            ],
            [
              -75.6805921,
              8.4809009
            ],
            [
              -75.6790589,
              8.4832111
            ],
            [
              -75.6767512,
              8.4847565
            ],
            [
              -75.6744497,
              8.4878378
            ],
            [
              -75.6733022,
              8.4901464
            ],
            [
              -75.6729323,
              8.4939877
            ],
            [
              -75.6745084,
              8.5020449
            ],
            [
              -75.675302,
              8.5074175
            ],
            [
              -75.6757116,
              8.5131755
            ],
            [
              -75.6741814,
              8.5162537
            ],
            [
              -75.6704959,
              8.5219754
            ],
            [
              -75.6798454,
              8.5313503
            ],
            [
              -75.6893936,
              8.543662
            ],
            [
              -75.7106853,
              8.5724653
            ],
            [
              -75.7125291,
              8.5740308
            ],
            [
              -75.7166862,
              8.5786311
            ],
            [
              -75.7171321,
              8.5796276
            ],
            [
              -75.7181272,
              8.5810037
            ],
            [
              -75.72385,
              8.5871338
            ],
            [
              -75.7245994,
              8.5882566
            ],
            [
              -75.7251353,
              8.5894897
            ],
            [
              -75.7252178,
              8.5898306
            ],
            [
              -75.7235931,
              8.5894228
            ],
            [
              -75.7219765,
              8.5896267
            ],
            [
              -75.7173529,
              8.592085
            ],
            [
              -75.7128107,
              8.5931609
            ],
            [
              -75.7113891,
              8.5936744
            ],
            [
              -75.7087935,
              8.5954102
            ],
            [
              -75.7069796,
              8.5977927
            ],
            [
              -75.705935,
              8.600665
            ],
            [
              -75.7058141,
              8.6017851
            ],
            [
              -75.705047,
              8.6027923
            ],
            [
              -75.7042866,
              8.6044187
            ],
            [
              -75.7030596,
              8.6051997
            ],
            [
              -75.7042001,
              8.6063376
            ],
            [
              -75.706671,
              8.6068185
            ],
            [
              -75.7078734,
              8.6075857
            ],
            [
              -75.709074,
              8.6079316
            ],
            [
              -75.709641,
              8.608561
            ],
            [
              -75.7095084,
              8.6105272
            ],
            [
              -75.7090864,
              8.6108098
            ],
            [
              -75.7078236,
              8.6124298
            ],
            [
              -75.7070495,
              8.6128543
            ],
            [
              -75.7057147,
              8.6141236
            ],
            [
              -75.7057888,
              8.6149658
            ],
            [
              -75.7055124,
              8.6163008
            ],
            [
              -75.7046026,
              8.6179895
            ],
            [
              -75.7047509,
              8.6196737
            ],
            [
              -75.7053984,
              8.6226195
            ],
            [
              -75.7052334,
              8.6251251
            ],
            [
              -75.7064953,
              8.6256383
            ],
            [
              -75.7076901,
              8.6256882
            ],
            [
              -75.7086611,
              8.6253553
            ],
            [
              -75.7109061,
              8.6240055
            ],
            [
              -75.7127652,
              8.6238427
            ],
            [
              -75.7152579,
              8.6241654
            ],
            [
              -75.7173604,
              8.6238741
            ],
            [
              -75.7189974,
              8.6233806
            ],
            [
              -75.7210468,
              8.6233696
            ],
            [
              -75.7244698,
              8.6247513
            ],
            [
              -75.7260318,
              8.6249642
            ],
            [
              -75.727523,
              8.624678
            ],
            [
              -75.7306221,
              8.6234541
            ],
            [
              -75.7326267,
              8.6232344
            ],
            [
              -75.7375488,
              8.6240664
            ],
            [
              -75.7418387,
              8.6256407
            ],
            [
              -75.7462142,
              8.6265991
            ],
            [
              -75.7484999,
              8.6274774
            ],
            [
              -75.750409,
              8.628626
            ],
            [
              -75.7522487,
              8.6302656
            ],
            [
              -75.7532529,
              8.6328035
            ],
            [
              -75.7532578,
              8.6342255
            ],
            [
              -75.7529156,
              8.635632
            ],
            [
              -75.7540765,
              8.6405837
            ],
            [
              -75.756018,
              8.6434286
            ],
            [
              -75.7588639,
              8.6453589
            ],
            [
              -75.7600381,
              8.6454612
            ],
            [
              -75.7609191,
              8.6457885
            ],
            [
              -75.7629486,
              8.6479058
            ],
            [
              -75.7663909,
              8.6498786
            ],
            [
              -75.767613,
              8.6514444
            ],
            [
              -75.7704924,
              8.6567265
            ],
            [
              -75.7736375,
              8.6660491
            ],
            [
              -75.7739472,
              8.6678756
            ],
            [
              -75.7739068,
              8.6691558
            ],
            [
              -75.7735791,
              8.670356
            ],
            [
              -75.7728531,
              8.671804
            ],
            [
              -75.7693629,
              8.6767549
            ],
            [
              -75.7691789,
              8.6785725
            ],
            [
              -75.7685665,
              8.6794375
            ],
            [
              -75.7679624,
              8.6818741
            ],
            [
              -75.7653184,
              8.6852785
            ],
            [
              -75.7632547,
              8.6874201
            ],
            [
              -75.7625493,
              8.6889026
            ],
            [
              -75.7625143,
              8.690019
            ],
            [
              -75.7629843,
              8.6922591
            ],
            [
              -75.7627316,
              8.6940626
            ],
            [
              -75.7629187,
              8.6948449
            ],
            [
              -75.7617267,
              8.6973193
            ],
            [
              -75.7615766,
              8.6987572
            ],
            [
              -75.7610321,
              8.6995606
            ],
            [
              -75.7609087,
              8.7030868
            ],
            [
              -75.7659771,
              8.7090302
            ],
            [
              -75.7622995,
              8.7119486
            ],
            [
              -75.7617195,
              8.7122263
            ],
            [
              -75.7608592,
              8.7174759
            ],
            [
              -75.7616303,
              8.7183184
            ],
            [
              -75.7629946,
              8.7183774
            ],
            [
              -75.7634798,
              8.7186072
            ],
            [
              -75.7642269,
              8.7195628
            ],
            [
              -75.7663928,
              8.719284
            ],
            [
              -75.7680008,
              8.7194343
            ],
            [
              -75.7681735,
              8.7195698
            ],
            [
              -75.7681332,
              8.7199431
            ],
            [
              -75.771923,
              8.7228901
            ],
            [
              -75.7722353,
              8.7241541
            ],
            [
              -75.7729867,
              8.7243313
            ],
            [
              -75.7830262,
              8.7304528
            ],
            [
              -75.7797935,
              8.7340162
            ],
            [
              -75.779242,
              8.7362747
            ],
            [
              -75.7821744,
              8.7381934
            ],
            [
              -75.7833173,
              8.7396417
            ],
            [
              -75.7841314,
              8.7402032
            ],
            [
              -75.7867278,
              8.74003
            ],
            [
              -75.7882679,
              8.7396193
            ],
            [
              -75.7894864,
              8.7398561
            ],
            [
              -75.7908702,
              8.740738
            ],
            [
              -75.7920108,
              8.7417018
            ],
            [
              -75.7925863,
              8.7433141
            ],
            [
              -75.7930047,
              8.7460576
            ],
            [
              -75.7934983,
              8.7475088
            ],
            [
              -75.7946386,
              8.7483918
            ],
            [
              -75.7954506,
              8.7484689
            ],
            [
              -75.7971575,
              8.7490263
            ],
            [
              -75.7996076,
              8.7523257
            ],
            [
              -75.7998674,
              8.7558774
            ],
            [
              -75.7993871,
              8.757333
            ],
            [
              -75.7970393,
              8.7586356
            ],
            [
              -75.7932321,
              8.7602678
            ],
            [
              -75.7900864,
              8.7645616
            ],
            [
              -75.7905085,
              8.7681125
            ],
            [
              -75.7911648,
              8.7696437
            ],
            [
              -75.7930405,
              8.771573
            ],
            [
              -75.7938629,
              8.7739109
            ],
            [
              -75.7945993,
              8.7751995
            ],
            [
              -75.7961459,
              8.7761614
            ],
            [
              -75.7993241,
              8.7788923
            ],
            [
              -75.8007125,
              8.7807431
            ],
            [
              -75.8017785,
              8.7830798
            ],
            [
              -75.7998446,
              8.786157
            ],
            [
              -75.7988732,
              8.7867266
            ],
            [
              -75.7982268,
              8.7873755
            ],
            [
              -75.7978251,
              8.7882656
            ],
            [
              -75.7975045,
              8.7891552
            ],
            [
              -75.7974278,
              8.7901245
            ],
            [
              -75.7974405,
              8.7928698
            ],
            [
              -75.7976062,
              8.7935958
            ],
            [
              -75.7981785,
              8.7944814
            ],
            [
              -75.7989917,
              8.7948006
            ],
            [
              -75.7997214,
              8.7946358
            ],
            [
              -75.801016,
              8.7937417
            ],
            [
              -75.8024763,
              8.7935735
            ],
            [
              -75.8036146,
              8.793972
            ],
            [
              -75.803943,
              8.794778
            ],
            [
              -75.8037066,
              8.7963132
            ],
            [
              -75.802657,
              8.7975292
            ],
            [
              -75.8012779,
              8.797697
            ],
            [
              -75.798689,
              8.799566
            ],
            [
              -75.7951008,
              8.8017582
            ],
            [
              -75.7915481,
              8.8002461
            ],
            [
              -75.7900207,
              8.8033198
            ],
            [
              -75.7902665,
              8.8038032
            ],
            [
              -75.7914904,
              8.8051703
            ],
            [
              -75.7952254,
              8.8053955
            ],
            [
              -75.7974205,
              8.8061122
            ],
            [
              -75.7991251,
              8.8061044
            ],
            [
              -75.8010751,
              8.8064992
            ],
            [
              -75.8020533,
              8.8073829
            ],
            [
              -75.803437,
              8.808184
            ],
            [
              -75.8041739,
              8.8095533
            ],
            [
              -75.8060457,
              8.8105943
            ],
            [
              -75.8073524,
              8.812284
            ],
            [
              -75.8088188,
              8.8134076
            ],
            [
              -75.8062231,
              8.8138233
            ],
            [
              -75.8034681,
              8.8148857
            ],
            [
              -75.8026586,
              8.8153739
            ],
            [
              -75.8026642,
              8.816585
            ],
            [
              -75.8079759,
              8.8241506
            ],
            [
              -75.8091976,
              8.8250331
            ],
            [
              -75.8104179,
              8.8255927
            ],
            [
              -75.8125293,
              8.8257445
            ],
            [
              -75.8182924,
              8.825637
            ],
            [
              -75.8191,
              8.8247451
            ],
            [
              -75.8195821,
              8.8236932
            ],
            [
              -75.8217537,
              8.8233825
            ],
            [
              -75.824118,
              8.8261438
            ],
            [
              -75.8248613,
              8.8263956
            ],
            [
              -75.8317703,
              8.8339258
            ],
            [
              -75.8317416,
              8.8345564
            ],
            [
              -75.8293887,
              8.8375355
            ],
            [
              -75.8364554,
              8.8383906
            ],
            [
              -75.838731,
              8.8389451
            ],
            [
              -75.841822,
              8.8402225
            ],
            [
              -75.843962,
              8.8419048
            ],
            [
              -75.844499,
              8.8413376
            ],
            [
              -75.845725,
              8.8387547
            ],
            [
              -75.8462333,
              8.835674
            ],
            [
              -75.845852,
              8.8338564
            ],
            [
              -75.8446393,
              8.8324213
            ],
            [
              -75.8424879,
              8.8303777
            ],
            [
              -75.8412216,
              8.8284471
            ],
            [
              -75.8414464,
              8.827402
            ],
            [
              -75.8422798,
              8.826414
            ],
            [
              -75.8437742,
              8.8263089
            ],
            [
              -75.8453766,
              8.8270297
            ],
            [
              -75.8492234,
              8.8302328
            ],
            [
              -75.8502845,
              8.8307234
            ],
            [
              -75.8513875,
              8.8308417
            ],
            [
              -75.8531795,
              8.830338
            ],
            [
              -75.8542436,
              8.8306667
            ],
            [
              -75.8526485,
              8.8323948
            ],
            [
              -75.8526068,
              8.8336261
            ],
            [
              -75.8530901,
              8.835139
            ],
            [
              -75.8552418,
              8.8371176
            ],
            [
              -75.8554393,
              8.8385845
            ],
            [
              -75.854978,
              8.8416644
            ],
            [
              -75.8554141,
              8.8432723
            ],
            [
              -75.8570931,
              8.8459159
            ],
            [
              -75.8571001,
              8.8473837
            ],
            [
              -75.8564405,
              8.8488074
            ],
            [
              -75.8551603,
              8.8499025
            ],
            [
              -75.8550264,
              8.8517498
            ],
            [
              -75.8541663,
              8.8527859
            ],
            [
              -75.8513917,
              8.8535385
            ],
            [
              -75.8509656,
              8.8544616
            ],
            [
              -75.8509975,
              8.8554623
            ],
            [
              -75.8517148,
              8.8561218
            ],
            [
              -75.8525724,
              8.8562598
            ],
            [
              -75.8531059,
              8.8574093
            ],
            [
              -75.8532031,
              8.858719
            ],
            [
              -75.8528263,
              8.8595731
            ],
            [
              -75.8516379,
              8.8609389
            ],
            [
              -75.8519022,
              8.8616299
            ],
            [
              -75.8529492,
              8.8622306
            ],
            [
              -75.8566045,
              8.8624728
            ],
            [
              -75.859645,
              8.8615065
            ],
            [
              -75.8644384,
              8.8632142
            ],
            [
              -75.8696615,
              8.863795
            ],
            [
              -75.8770498,
              8.862375
            ],
            [
              -75.8789639,
              8.8623658
            ],
            [
              -75.8801832,
              8.8626195
            ],
            [
              -75.881927,
              8.8633898
            ],
            [
              -75.8833198,
              8.8635561
            ],
            [
              -75.885668,
              8.8633717
            ],
            [
              -75.8905405,
              8.8634347
            ],
            [
              -75.891242,
              8.8645561
            ],
            [
              -75.892202,
              8.8651572
            ],
            [
              -75.8936183,
              8.8651816
            ],
            [
              -75.8961375,
              8.8683158
            ],
            [
              -75.8985577,
              8.8717753
            ],
            [
              -75.8983416,
              8.8728337
            ],
            [
              -75.8980628,
              8.8730594
            ],
            [
              -75.8996436,
              8.8745526
            ],
            [
              -75.9013875,
              8.8753229
            ],
            [
              -75.9041741,
              8.8758284
            ],
            [
              -75.9055732,
              8.8763714
            ],
            [
              -75.9064647,
              8.8750648
            ],
            [
              -75.9066438,
              8.8745131
            ],
            [
              -75.9091343,
              8.8759102
            ],
            [
              -75.9105969,
              8.8764703
            ],
            [
              -75.91227,
              8.8766144
            ],
            [
              -75.9147126,
              8.8759972
            ],
            [
              -75.9189743,
              8.8734413
            ],
            [
              -75.919674,
              8.8726797
            ],
            [
              -75.9206283,
              8.8720504
            ],
            [
              -75.921194,
              8.8711851
            ],
            [
              -75.9223959,
              8.8708371
            ],
            [
              -75.9244363,
              8.8685513
            ],
            [
              -75.9319806,
              8.8697297
            ],
            [
              -75.9343366,
              8.8705933
            ],
            [
              -75.9406049,
              8.8739905
            ],
            [
              -75.9403113,
              8.8774174
            ],
            [
              -75.9417128,
              8.8825405
            ],
            [
              -75.9419003,
              8.8856176
            ],
            [
              -75.9405437,
              8.8893865
            ],
            [
              -75.9400391,
              8.8916121
            ],
            [
              -75.9407312,
              8.8924637
            ],
            [
              -75.9417629,
              8.8924585
            ],
            [
              -75.9429692,
              8.8929655
            ],
            [
              -75.9441404,
              8.8939987
            ],
            [
              -75.9465667,
              8.8939679
            ],
            [
              -75.9505652,
              8.8931058
            ],
            [
              -75.9545623,
              8.8925447
            ],
            [
              -75.960664,
              8.8904726
            ],
            [
              -75.9666788,
              8.8899313
            ],
            [
              -75.9681659,
              8.8899631
            ],
            [
              -75.9691433,
              8.8902318
            ],
            [
              -75.9700355,
              8.8907671
            ],
            [
              -75.9722757,
              8.8929755
            ],
            [
              -75.9754364,
              8.8953201
            ],
            [
              -75.9794662,
              8.9002743
            ],
            [
              -75.9807126,
              8.8989437
            ],
            [
              -75.9814185,
              8.8988248
            ],
            [
              -75.9822697,
              8.8989483
            ],
            [
              -75.9836819,
              8.8985896
            ],
            [
              -75.984727,
              8.8989556
            ],
            [
              -75.985455,
              8.8995868
            ],
            [
              -75.9864732,
              8.9013857
            ],
            [
              -75.9920909,
              8.9011678
            ],
            [
              -75.994216,
              8.9014642
            ],
            [
              -75.9994778,
              8.9044775
            ],
            [
              -76.0027407,
              8.9044342
            ],
            [
              -76.0056663,
              8.9035841
            ],
            [
              -76.0079524,
              8.903716
            ],
            [
              -76.0083048,
              8.9056585
            ],
            [
              -76.0102996,
              8.9083904
            ],
            [
              -76.0127685,
              8.9099802
            ],
            [
              -76.0142629,
              8.9119074
            ],
            [
              -76.0147873,
              8.9144966
            ],
            [
              -76.015777,
              8.9152948
            ],
            [
              -76.017415,
              8.9157597
            ],
            [
              -76.0198621,
              8.9157271
            ],
            [
              -76.0210172,
              8.9166853
            ],
            [
              -76.0223464,
              8.9184524
            ],
            [
              -76.0255403,
              8.9253869
            ],
            [
              -76.0292085,
              8.9311791
            ],
            [
              -76.0300483,
              8.9329527
            ],
            [
              -76.0300745,
              8.9389182
            ],
            [
              -76.0318409,
              8.9413367
            ],
            [
              -76.034031,
              8.9430312
            ],
            [
              -76.0358073,
              8.9461679
            ],
            [
              -76.0374963,
              8.9463209
            ],
            [
              -76.0418035,
              8.9451533
            ],
            [
              -76.0424422,
              8.9453605
            ],
            [
              -76.0487686,
              8.9431207
            ],
            [
              -76.0545425,
              8.9427557
            ],
            [
              -76.0584425,
              8.9427032
            ],
            [
              -76.0630686,
              8.9429281
            ],
            [
              -76.0705599,
              8.9413905
            ],
            [
              -76.0745846,
              8.9398997
            ],
            [
              -76.0770224,
              8.9385739
            ],
            [
              -76.0799013,
              8.9378167
            ],
            [
              -76.0827901,
              8.9377777
            ],
            [
              -76.0859814,
              8.93874
            ],
            [
              -76.0884664,
              8.940861
            ],
            [
              -76.0918934,
              8.9379417
            ],
            [
              -76.0934734,
              8.9352439
            ],
            [
              -76.0933838,
              8.9286891
            ],
            [
              -76.0941515,
              8.9246796
            ],
            [
              -76.0950317,
              8.9222136
            ],
            [
              -76.0956577,
              8.9212054
            ],
            [
              -76.0968295,
              8.9200079
            ],
            [
              -76.098651,
              8.9195288
            ],
            [
              -76.1004787,
              8.9195041
            ],
            [
              -76.1027757,
              8.9203818
            ],
            [
              -76.1040762,
              8.9219093
            ],
            [
              -76.1075713,
              8.9234978
            ],
            [
              -76.1086853,
              8.9247551
            ],
            [
              -76.1098833,
              8.925466
            ],
            [
              -76.1115269,
              8.9253527
            ],
            [
              -76.1148067,
              8.9245811
            ],
            [
              -76.1163602,
              8.9245599
            ],
            [
              -76.1177385,
              8.9250865
            ],
            [
              -76.1184783,
              8.9257126
            ],
            [
              -76.1223163,
              8.9256604
            ],
            [
              -76.1234229,
              8.9263724
            ],
            [
              -76.1262233,
              8.9306058
            ],
            [
              -76.1290749,
              8.9319302
            ],
            [
              -76.1321819,
              8.9318878
            ],
            [
              -76.1335438,
              8.931233
            ],
            [
              -76.1348144,
              8.9305795
            ],
            [
              -76.1359823,
              8.9291094
            ],
            [
              -76.137831,
              8.9248598
            ],
            [
              -76.138659,
              8.9240034
            ],
            [
              -76.1389599,
              8.9237802
            ],
            [
              -76.1398236,
              8.9236331
            ],
            [
              -76.1424125,
              8.9240503
            ],
            [
              -76.1428263,
              8.9237154
            ],
            [
              -76.1430151,
              8.923268
            ],
            [
              -76.1429802,
              8.9222601
            ],
            [
              -76.1431688,
              8.9218873
            ],
            [
              -76.1440311,
              8.9223001
            ],
            [
              -76.144444,
              8.9223011
            ],
            [
              -76.1447077,
              8.9219285
            ],
            [
              -76.1448599,
              8.9211078
            ],
            [
              -76.145161,
              8.9207726
            ],
            [
              -76.1468448,
              8.9199523
            ],
            [
              -76.1478272,
              8.9198591
            ],
            [
              -76.1487347,
              8.9193923
            ],
            [
              -76.1494343,
              8.9171106
            ],
            [
              -76.1498497,
              8.9141058
            ],
            [
              -76.1495915,
              8.9086564
            ],
            [
              -76.1498418,
              8.9069262
            ],
            [
              -76.1504538,
              8.9049185
            ],
            [
              -76.1505226,
              8.9032817
            ],
            [
              -76.1508767,
              8.9024589
            ],
            [
              -76.1518699,
              8.9011661
            ],
            [
              -76.152552,
              8.9009746
            ],
            [
              -76.1532688,
              8.9000863
            ],
            [
              -76.1533146,
              8.8990458
            ],
            [
              -76.1541769,
              8.8980663
            ],
            [
              -76.154078,
              8.897344
            ],
            [
              -76.1543221,
              8.8969315
            ],
            [
              -76.1548252,
              8.8967175
            ],
            [
              -76.1555275,
              8.8969959
            ],
            [
              -76.1558784,
              8.8968765
            ],
            [
              -76.15597,
              8.8965055
            ],
            [
              -76.1551306,
              8.8951887
            ],
            [
              -76.1555883,
              8.8943729
            ],
            [
              -76.1571066,
              8.8926229
            ],
            [
              -76.1580219,
              8.8919028
            ],
            [
              -76.1594949,
              8.8917828
            ],
            [
              -76.1615852,
              8.8904745
            ],
            [
              -76.1627064,
              8.890309
            ],
            [
              -76.1639729,
              8.8905391
            ],
            [
              -76.1652409,
              8.8913802
            ],
            [
              -76.1658901,
              8.8911399
            ],
            [
              -76.1667799,
              8.8902762
            ],
            [
              -76.1675101,
              8.8900517
            ],
            [
              -76.1685484,
              8.8902424
            ],
            [
              -76.1704362,
              8.8910782
            ],
            [
              -76.1697571,
              8.8890941
            ],
            [
              -76.1694949,
              8.886744
            ],
            [
              -76.1691394,
              8.885763
            ],
            [
              -76.1681328,
              8.8845291
            ],
            [
              -76.1664467,
              8.8836746
            ],
            [
              -76.1652417,
              8.8836882
            ],
            [
              -76.163836,
              8.8840003
            ],
            [
              -76.1634848,
              8.8842552
            ],
            [
              -76.1633778,
              8.8847144
            ],
            [
              -76.1637063,
              8.8863627
            ],
            [
              -76.1634771,
              8.886914
            ],
            [
              -76.1628667,
              8.886826
            ],
            [
              -76.1621801,
              8.8858065
            ],
            [
              -76.1616459,
              8.8855282
            ],
            [
              -76.158335,
              8.8854744
            ],
            [
              -76.1577708,
              8.8860185
            ],
            [
              -76.1573128,
              8.8872861
            ],
            [
              -76.1568626,
              8.8876048
            ],
            [
              -76.1537806,
              8.8885809
            ],
            [
              -76.1514307,
              8.8880732
            ],
            [
              -76.1508504,
              8.8882832
            ],
            [
              -76.1501108,
              8.8890542
            ],
            [
              -76.1492951,
              8.8890752
            ],
            [
              -76.1477627,
              8.8885539
            ],
            [
              -76.1450993,
              8.8871741
            ],
            [
              -76.1425487,
              8.8866019
            ],
            [
              -76.1411236,
              8.8865202
            ],
            [
              -76.1393865,
              8.885937
            ],
            [
              -76.1382568,
              8.8851431
            ],
            [
              -76.1377345,
              8.8841387
            ],
            [
              -76.137683,
              8.8803969
            ],
            [
              -76.1361243,
              8.8779905
            ],
            [
              -76.1359098,
              8.8771842
            ],
            [
              -76.1351897,
              8.8765871
            ],
            [
              -76.1328439,
              8.8761132
            ],
            [
              -76.1322282,
              8.8757169
            ],
            [
              -76.1314008,
              8.8747166
            ],
            [
              -76.1307741,
              8.8735113
            ],
            [
              -76.1288129,
              8.8714138
            ],
            [
              -76.1282864,
              8.8701059
            ],
            [
              -76.1271069,
              8.8656713
            ],
            [
              -76.1273796,
              8.8615826
            ],
            [
              -76.1272463,
              8.8602665
            ],
            [
              -76.1263976,
              8.8571838
            ],
            [
              -76.1264113,
              8.8539747
            ],
            [
              -76.1280916,
              8.8504567
            ],
            [
              -76.1292256,
              8.8491234
            ],
            [
              -76.131215,
              8.8471483
            ],
            [
              -76.1323552,
              8.8462733
            ],
            [
              -76.1337165,
              8.8447078
            ],
            [
              -76.1346106,
              8.8426902
            ],
            [
              -76.1372077,
              8.838816
            ],
            [
              -76.1377034,
              8.8371476
            ],
            [
              -76.1381591,
              8.8325574
            ],
            [
              -76.1387645,
              8.8304864
            ],
            [
              -76.1392343,
              8.8269275
            ],
            [
              -76.142477,
              8.8197212
            ],
            [
              -76.1423419,
              8.8140504
            ],
            [
              -76.1411937,
              8.8101122
            ],
            [
              -76.1399102,
              8.8089263
            ],
            [
              -76.1382244,
              8.807803
            ],
            [
              -76.1372982,
              8.8074717
            ],
            [
              -76.1372154,
              8.8037336
            ],
            [
              -76.1368642,
              8.800262
            ],
            [
              -76.1355708,
              8.794536
            ],
            [
              -76.1346244,
              8.7919794
            ],
            [
              -76.1342404,
              8.78609
            ],
            [
              -76.1337478,
              8.783376
            ],
            [
              -76.1329615,
              8.7814217
            ],
            [
              -76.1317258,
              8.7799269
            ],
            [
              -76.1294246,
              8.7782952
            ],
            [
              -76.1280369,
              8.7768024
            ],
            [
              -76.1275669,
              8.7757507
            ],
            [
              -76.1292112,
              8.7737638
            ],
            [
              -76.1304203,
              8.7732941
            ],
            [
              -76.1313195,
              8.7723752
            ],
            [
              -76.1322104,
              8.7708518
            ],
            [
              -76.1328798,
              8.7641925
            ],
            [
              -76.1331283,
              8.7601083
            ],
            [
              -76.1330915,
              8.7573883
            ],
            [
              -76.1315152,
              8.7531774
            ],
            [
              -76.1314887,
              8.7512129
            ],
            [
              -76.1329729,
              8.7486235
            ],
            [
              -76.1352145,
              8.745873
            ],
            [
              -76.1365652,
              8.7446458
            ],
            [
              -76.1385254,
              8.7435615
            ],
            [
              -76.1403256,
              8.7418748
            ],
            [
              -76.1428607,
              8.7383646
            ],
            [
              -76.1451329,
              8.7378807
            ],
            [
              -76.1472388,
              8.7363411
            ],
            [
              -76.1475221,
              8.7348259
            ],
            [
              -76.1461408,
              8.7337865
            ],
            [
              -76.1411,
              8.731738
            ],
            [
              -76.1397187,
              8.7306985
            ],
            [
              -76.1384853,
              8.7293547
            ],
            [
              -76.1384608,
              8.7275413
            ],
            [
              -76.1399694,
              8.7267655
            ],
            [
              -76.1417859,
              8.7262877
            ],
            [
              -76.1444994,
              8.72474
            ],
            [
              -76.1450824,
              8.7229185
            ],
            [
              -76.1450619,
              8.7214074
            ],
            [
              -76.1437856,
              8.7168903
            ],
            [
              -76.1423902,
              8.7147929
            ],
            [
              -76.1413148,
              8.7139005
            ],
            [
              -76.1402231,
              8.7117991
            ],
            [
              -76.1391477,
              8.7109066
            ],
            [
              -76.1385239,
              8.7097058
            ],
            [
              -76.1371326,
              8.7079106
            ],
            [
              -76.1361928,
              8.7058072
            ],
            [
              -76.1358647,
              8.7039978
            ],
            [
              -76.1358362,
              8.7018822
            ],
            [
              -76.1361054,
              8.6993092
            ],
            [
              -76.1375631,
              8.6947555
            ],
            [
              -76.1369353,
              8.6932525
            ],
            [
              -76.132946,
              8.6902827
            ],
            [
              -76.1326098,
              8.6878689
            ],
            [
              -76.1325428,
              8.682882
            ],
            [
              -76.1336665,
              8.6760657
            ],
            [
              -76.1345433,
              8.6734846
            ],
            [
              -76.13558,
              8.671506
            ],
            [
              -76.137218,
              8.6690659
            ],
            [
              -76.1425027,
              8.6667286
            ],
            [
              -76.152823,
              8.6661379
            ],
            [
              -76.1616286,
              8.6658694
            ],
            [
              -76.1642121,
              8.665986
            ],
            [
              -76.166176,
              8.6652042
            ],
            [
              -76.1679921,
              8.6647265
            ],
            [
              -76.1723897,
              8.6642143
            ],
            [
              -76.1748275,
              8.6647863
            ],
            [
              -76.1768118,
              8.6655154
            ],
            [
              -76.1801484,
              8.6651685
            ],
            [
              -76.1825637,
              8.6640782
            ],
            [
              -76.1843624,
              8.6624854
            ],
            [
              -76.1863179,
              8.6650722
            ],
            [
              -76.1866463,
              8.665905
            ],
            [
              -76.186649,
              8.6668262
            ],
            [
              -76.1877973,
              8.6652061
            ],
            [
              -76.1903345,
              8.6624806
            ],
            [
              -76.1909818,
              8.66112
            ],
            [
              -76.1913009,
              8.6593033
            ],
            [
              -76.1912923,
              8.6580133
            ],
            [
              -76.1898859,
              8.6527217
            ],
            [
              -76.189811,
              8.6516555
            ],
            [
              -76.189998,
              8.6510151
            ],
            [
              -76.1919677,
              8.6478665
            ],
            [
              -76.193124,
              8.6443466
            ],
            [
              -76.1940825,
              8.6401032
            ],
            [
              -76.1951612,
              8.6381395
            ],
            [
              -76.1981372,
              8.6353629
            ],
            [
              -76.1991958,
              8.6337608
            ],
            [
              -76.2001351,
              8.6333492
            ],
            [
              -76.2013316,
              8.6337631
            ],
            [
              -76.2021955,
              8.6331079
            ],
            [
              -76.2047665,
              8.6317235
            ],
            [
              -76.2070938,
              8.63199
            ],
            [
              -76.2081701,
              8.6315768
            ],
            [
              -76.2102462,
              8.6300309
            ],
            [
              -76.2129868,
              8.6271949
            ],
            [
              -76.215363,
              8.625291
            ],
            [
              -76.2164874,
              8.6235568
            ],
            [
              -76.217119,
              8.6232286
            ],
            [
              -76.2193131,
              8.6229117
            ],
            [
              -76.2207182,
              8.6225039
            ],
            [
              -76.2218486,
              8.6218215
            ],
            [
              -76.2221245,
              8.6215481
            ],
            [
              -76.2221251,
              8.6212741
            ],
            [
              -76.2243027,
              8.6201281
            ],
            [
              -76.2272499,
              8.6195867
            ],
            [
              -76.2287363,
              8.6197271
            ],
            [
              -76.2301685,
              8.6194836
            ],
            [
              -76.2311329,
              8.619157
            ],
            [
              -76.2322083,
              8.6183922
            ],
            [
              -76.2327593,
              8.618229
            ],
            [
              -76.2348245,
              8.6180966
            ],
            [
              -76.2395866,
              8.6184907
            ],
            [
              -76.2410716,
              8.6192886
            ],
            [
              -76.2424715,
              8.6212097
            ],
            [
              -76.2442861,
              8.6223097
            ],
            [
              -76.2468178,
              8.6228906
            ],
            [
              -76.2493228,
              8.6230879
            ],
            [
              -76.2499281,
              8.6233084
            ],
            [
              -76.2503946,
              8.6239944
            ],
            [
              -76.2508034,
              8.6259133
            ],
            [
              -76.2513801,
              8.6265996
            ],
            [
              -76.2527003,
              8.6271779
            ],
            [
              -76.2551495,
              8.6277586
            ],
            [
              -76.2565518,
              8.628611
            ],
            [
              -76.2576802,
              8.6288053
            ],
            [
              -76.2584238,
              8.6286973
            ],
            [
              -76.2587263,
              8.6288897
            ],
            [
              -76.2588352,
              8.6294654
            ],
            [
              -76.2594949,
              8.6299326
            ],
            [
              -76.2601278,
              8.6300984
            ],
            [
              -76.2612271,
              8.6310323
            ],
            [
              -76.2618311,
              8.6318282
            ],
            [
              -76.2618275,
              8.6334997
            ],
            [
              -76.2619093,
              8.6338561
            ],
            [
              -76.2623488,
              8.6343228
            ],
            [
              -76.2624538,
              8.6367069
            ],
            [
              -76.265026,
              8.6401442
            ],
            [
              -76.2716958,
              8.6404464
            ],
            [
              -76.2749807,
              8.6414381
            ],
            [
              -76.2781417,
              8.6439793
            ],
            [
              -76.2788082,
              8.6441935
            ]
          ]
        ]
      }
    },
    {
      "type": "Feature",
      "properties": {
        "name": "La Castellana",
        "category": "Hip",
        "osmType": "way",
        "osmId": 910120057,
        "stroke": "#f43f5e",
        "stroke-width": 2,
        "stroke-opacity": 0.95,
        "fill": "#f43f5e",
        "fill-opacity": 0.16
      },
      "geometry": {
        "type": "Polygon",
        "coordinates": [
          [
            [
              -75.869244,
              8.768566
            ],
            [
              -75.866691,
              8.7661682
            ],
            [
              -75.866263,
              8.7649229
            ],
            [
              -75.8631066,
              8.7626987
            ],
            [
              -75.8612156,
              8.7663261
            ],
            [
              -75.8588645,
              8.77322
            ],
            [
              -75.8642779,
              8.776379
            ],
            [
              -75.8686849,
              8.7694409
            ],
            [
              -75.869244,
              8.768566
            ]
          ]
        ]
      }
    }
  ]
}
