{
  "type": "FeatureCollection",
  "features": [
    {
      "type": "Feature",
      "properties": {
        "name": "Punta Carretas",
        "category": "Residential",
        "osmType": "R",
        "osmId": 13353258,
        "source": "https://www.openstreetmap.org/relation/13353258",
        "retrievedAt": "2026-09-24",
        "stroke": "#0f766e",
        "stroke-width": 2,
        "stroke-opacity": 0.95,
        "fill": "#0f766e",
        "fill-opacity": 0.16
      },
      "geometry": {
        "type": "Polygon",
        "coordinates": [
          [
            [
              -56.1724241,
              -34.9199586
            ],
            [
              -56.1721445,
              -34.9206779
            ],
            [
              -56.1717041,
              -34.9209986
            ],
            [
              -56.1717065,
              -34.9210437
            ],
            [
              -56.171594,
              -34.9211208
            ],
            [
              -56.1714815,
              -34.9211056
            ],
            [
              -56.171309,
              -34.9213221
            ],
            [
              -56.1712173,
              -34.9213436
            ],
            [
              -56.1711098,
              -34.9214277
            ],
            [
              -56.1711202,
              -34.9215967
            ],
            [
              -56.171124,
              -34.921639
            ],
            [
              -56.1711363,
              -34.9217772
            ],
            [
              -56.1711636,
              -34.9217764
            ],
            [
              -56.1711859,
              -34.9218893
            ],
            [
              -56.1711605,
              -34.9218944
            ],
            [
              -56.1713123,
              -34.9227352
            ],
            [
              -56.1716115,
              -34.9228084
            ],
            [
              -56.1718168,
              -34.9229418
            ],
            [
              -56.171834,
              -34.9231685
            ],
            [
              -56.1719848,
              -34.9233141
            ],
            [
              -56.1720126,
              -34.9234889
            ],
            [
              -56.1717983,
              -34.9235463
            ],
            [
              -56.1717532,
              -34.9236205
            ],
            [
              -56.1717553,
              -34.9236831
            ],
            [
              -56.1717752,
              -34.9237295
            ],
            [
              -56.1718638,
              -34.9238134
            ],
            [
              -56.1719848,
              -34.9240196
            ],
            [
              -56.1719708,
              -34.9241313
            ],
            [
              -56.1721279,
              -34.9243677
            ],
            [
              -56.1719067,
              -34.9245895
            ],
            [
              -56.1719269,
              -34.924658
            ],
            [
              -56.171858,
              -34.9249078
            ],
            [
              -56.1717551,
              -34.9249087
            ],
            [
              -56.171565,
              -34.9250483
            ],
            [
              -56.1714072,
              -34.9251283
            ],
            [
              -56.1712745,
              -34.9251267
            ],
            [
              -56.1711796,
              -34.9251758
            ],
            [
              -56.1708997,
              -34.9252733
            ],
            [
              -56.1707826,
              -34.9253611
            ],
            [
              -56.1706766,
              -34.9253789
            ],
            [
              -56.1702989,
              -34.9253155
            ],
            [
              -56.1698612,
              -34.9255196
            ],
            [
              -56.1694749,
              -34.9254563
            ],
            [
              -56.1691574,
              -34.9255689
            ],
            [
              -56.1688141,
              -34.9257237
            ],
            [
              -56.1682905,
              -34.9258504
            ],
            [
              -56.1680166,
              -34.9259894
            ],
            [
              -56.1678012,
              -34.92616
            ],
            [
              -56.167415,
              -34.9262656
            ],
            [
              -56.1668485,
              -34.9265822
            ],
            [
              -56.166235,
              -34.926779
            ],
            [
              -56.1658014,
              -34.9270889
            ],
            [
              -56.165604,
              -34.9274337
            ],
            [
              -56.1653036,
              -34.927666
            ],
            [
              -56.1647628,
              -34.9278137
            ],
            [
              -56.1644109,
              -34.9279897
            ],
            [
              -56.1643165,
              -34.9281163
            ],
            [
              -56.1643079,
              -34.9282993
            ],
            [
              -56.1640161,
              -34.9285597
            ],
            [
              -56.1634582,
              -34.9288834
            ],
            [
              -56.1628037,
              -34.9289478
            ],
            [
              -56.1623722,
              -34.9291283
            ],
            [
              -56.1620699,
              -34.9293562
            ],
            [
              -56.1617963,
              -34.9294431
            ],
            [
              -56.1617037,
              -34.9294406
            ],
            [
              -56.1616815,
              -34.9295585
            ],
            [
              -56.1616335,
              -34.9296534
            ],
            [
              -56.1615662,
              -34.9297627
            ],
            [
              -56.1614326,
              -34.9298544
            ],
            [
              -56.1613312,
              -34.9298686
            ],
            [
              -56.1613426,
              -34.9299868
            ],
            [
              -56.16135,
              -34.9300885
            ],
            [
              -56.1614498,
              -34.9300937
            ],
            [
              -56.161656,
              -34.9301562
            ],
            [
              -56.1618206,
              -34.9301942
            ],
            [
              -56.1620689,
              -34.9302593
            ],
            [
              -56.1621992,
              -34.9303079
            ],
            [
              -56.1622086,
              -34.9303618
            ],
            [
              -56.1621577,
              -34.9304014
            ],
            [
              -56.161986,
              -34.9303673
            ],
            [
              -56.1618559,
              -34.9303662
            ],
            [
              -56.1615818,
              -34.9304737
            ],
            [
              -56.1614559,
              -34.9305136
            ],
            [
              -56.1613467,
              -34.9305162
            ],
            [
              -56.1611596,
              -34.9304074
            ],
            [
              -56.1609376,
              -34.9300738
            ],
            [
              -56.1607942,
              -34.9302373
            ],
            [
              -56.1606642,
              -34.9301625
            ],
            [
              -56.1606679,
              -34.9302082
            ],
            [
              -56.1606449,
              -34.9302511
            ],
            [
              -56.1606192,
              -34.9302745
            ],
            [
              -56.1605695,
              -34.9302966
            ],
            [
              -56.1611592,
              -34.9305851
            ],
            [
              -56.1612436,
              -34.930615
            ],
            [
              -56.1613116,
              -34.9306969
            ],
            [
              -56.16138,
              -34.9307676
            ],
            [
              -56.1613455,
              -34.930837
            ],
            [
              -56.1612102,
              -34.9308714
            ],
            [
              -56.1610731,
              -34.9308621
            ],
            [
              -56.1609852,
              -34.9307458
            ],
            [
              -56.1608525,
              -34.9307139
            ],
            [
              -56.1606344,
              -34.9307622
            ],
            [
              -56.1606052,
              -34.9308406
            ],
            [
              -56.1603426,
              -34.9311422
            ],
            [
              -56.1603098,
              -34.9314166
            ],
            [
              -56.1603767,
              -34.931515
            ],
            [
              -56.1603498,
              -34.9316168
            ],
            [
              -56.1602921,
              -34.9320217
            ],
            [
              -56.1601357,
              -34.9320922
            ],
            [
              -56.1601139,
              -34.9321954
            ],
            [
              -56.1602911,
              -34.9325917
            ],
            [
              -56.1608702,
              -34.9328557
            ],
            [
              -56.1614326,
              -34.9329858
            ],
            [
              -56.161675,
              -34.9329098
            ],
            [
              -56.1618867,
              -34.9325472
            ],
            [
              -56.1618921,
              -34.9324707
            ],
            [
              -56.1620173,
              -34.9324705
            ],
            [
              -56.1620188,
              -34.9325423
            ],
            [
              -56.1621207,
              -34.9325482
            ],
            [
              -56.1622357,
              -34.9326055
            ],
            [
              -56.1622757,
              -34.9326617
            ],
            [
              -56.1624235,
              -34.9326664
            ],
            [
              -56.1624264,
              -34.9327368
            ],
            [
              -56.1622866,
              -34.9327416
            ],
            [
              -56.1622197,
              -34.9328347
            ],
            [
              -56.162246,
              -34.9329765
            ],
            [
              -56.1622837,
              -34.9330997
            ],
            [
              -56.1622371,
              -34.9331593
            ],
            [
              -56.1622424,
              -34.9332757
            ],
            [
              -56.1624861,
              -34.9332703
            ],
            [
              -56.1624873,
              -34.9333195
            ],
            [
              -56.1628559,
              -34.9333205
            ],
            [
              -56.1629856,
              -34.9333179
            ],
            [
              -56.1630902,
              -34.93332
            ],
            [
              -56.1632005,
              -34.9333223
            ],
            [
              -56.1633002,
              -34.9333113
            ],
            [
              -56.1633781,
              -34.9332642
            ],
            [
              -56.1634352,
              -34.9331474
            ],
            [
              -56.1634702,
              -34.9330448
            ],
            [
              -56.163487,
              -34.9329308
            ],
            [
              -56.1635247,
              -34.932816
            ],
            [
              -56.1635319,
              -34.9327471
            ],
            [
              -56.1635688,
              -34.9326831
            ],
            [
              -56.1635773,
              -34.9325591
            ],
            [
              -56.1636324,
              -34.9324405
            ],
            [
              -56.163668,
              -34.9322545
            ],
            [
              -56.1637388,
              -34.9320425
            ],
            [
              -56.1637357,
              -34.9318995
            ],
            [
              -56.163749,
              -34.9317979
            ],
            [
              -56.1637979,
              -34.9316963
            ],
            [
              -56.1639166,
              -34.9316651
            ],
            [
              -56.1640049,
              -34.9317336
            ],
            [
              -56.1639793,
              -34.9318277
            ],
            [
              -56.1639952,
              -34.9318928
            ],
            [
              -56.1639815,
              -34.9319599
            ],
            [
              -56.1639637,
              -34.932026
            ],
            [
              -56.1639235,
              -34.9321034
            ],
            [
              -56.163925,
              -34.9322623
            ],
            [
              -56.163933,
              -34.9323337
            ],
            [
              -56.1638855,
              -34.9323779
            ],
            [
              -56.1638795,
              -34.9324366
            ],
            [
              -56.1638622,
              -34.9325368
            ],
            [
              -56.1638805,
              -34.932603
            ],
            [
              -56.1638191,
              -34.9327009
            ],
            [
              -56.1638175,
              -34.9328026
            ],
            [
              -56.1637904,
              -34.9328762
            ],
            [
              -56.1637902,
              -34.9329466
            ],
            [
              -56.1637483,
              -34.9329839
            ],
            [
              -56.1637687,
              -34.9330674
            ],
            [
              -56.1637224,
              -34.9331451
            ],
            [
              -56.16369,
              -34.9331969
            ],
            [
              -56.1636917,
              -34.9333282
            ],
            [
              -56.1636202,
              -34.9334207
            ],
            [
              -56.1635215,
              -34.9334869
            ],
            [
              -56.1628923,
              -34.9335556
            ],
            [
              -56.1625496,
              -34.9335788
            ],
            [
              -56.1623128,
              -34.9335839
            ],
            [
              -56.1622563,
              -34.933667
            ],
            [
              -56.162186,
              -34.9338353
            ],
            [
              -56.1621364,
              -34.9339688
            ],
            [
              -56.1620954,
              -34.934089
            ],
            [
              -56.1619574,
              -34.9342106
            ],
            [
              -56.1619104,
              -34.9343318
            ],
            [
              -56.1618114,
              -34.9344794
            ],
            [
              -56.1616856,
              -34.9345768
            ],
            [
              -56.1615288,
              -34.9346126
            ],
            [
              -56.1613407,
              -34.9345928
            ],
            [
              -56.1611122,
              -34.9349058
            ],
            [
              -56.1611719,
              -34.9349512
            ],
            [
              -56.1611603,
              -34.9349846
            ],
            [
              -56.1610962,
              -34.9350025
            ],
            [
              -56.1610374,
              -34.9350229
            ],
            [
              -56.1609398,
              -34.9352059
            ],
            [
              -56.1609439,
              -34.9353207
            ],
            [
              -56.1609772,
              -34.9353853
            ],
            [
              -56.1610401,
              -34.9354351
            ],
            [
              -56.1611766,
              -34.9354456
            ],
            [
              -56.1612548,
              -34.935476
            ],
            [
              -56.1613475,
              -34.9355317
            ],
            [
              -56.1613042,
              -34.9355553
            ],
            [
              -56.1611889,
              -34.9355351
            ],
            [
              -56.1611127,
              -34.9355722
            ],
            [
              -56.1610613,
              -34.9355266
            ],
            [
              -56.1609533,
              -34.9356197
            ],
            [
              -56.1608258,
              -34.9356514
            ],
            [
              -56.160723,
              -34.9357161
            ],
            [
              -56.1606512,
              -34.935829
            ],
            [
              -56.1605522,
              -34.9358696
            ],
            [
              -56.1605056,
              -34.9359481
            ],
            [
              -56.1604405,
              -34.9363211
            ],
            [
              -56.1604514,
              -34.9366763
            ],
            [
              -56.160437,
              -34.937271
            ],
            [
              -56.1605572,
              -34.9377606
            ],
            [
              -56.1605636,
              -34.9380064
            ],
            [
              -56.1604749,
              -34.938056
            ],
            [
              -56.1604008,
              -34.9380425
            ],
            [
              -56.1603164,
              -34.9379936
            ],
            [
              -56.1602707,
              -34.9377976
            ],
            [
              -56.1600497,
              -34.9377998
            ],
            [
              -56.1600219,
              -34.9378636
            ],
            [
              -56.1599416,
              -34.9379075
            ],
            [
              -56.1598323,
              -34.9378246
            ],
            [
              -56.1598263,
              -34.9368425
            ],
            [
              -56.1598102,
              -34.9357082
            ],
            [
              -56.1597084,
              -34.9354152
            ],
            [
              -56.1595031,
              -34.9351076
            ],
            [
              -56.1592228,
              -34.9347374
            ],
            [
              -56.1590428,
              -34.9344908
            ],
            [
              -56.159029,
              -34.9343304
            ],
            [
              -56.158723,
              -34.9335669
            ],
            [
              -56.158712,
              -34.9334662
            ],
            [
              -56.158686,
              -34.9334432
            ],
            [
              -56.1587408,
              -34.9328754
            ],
            [
              -56.1586978,
              -34.9328122
            ],
            [
              -56.1588375,
              -34.9327151
            ],
            [
              -56.1589117,
              -34.9323775
            ],
            [
              -56.1589181,
              -34.9320859
            ],
            [
              -56.158859,
              -34.9316835
            ],
            [
              -56.1587614,
              -34.9315132
            ],
            [
              -56.1586646,
              -34.9314575
            ],
            [
              -56.1585467,
              -34.9314488
            ],
            [
              -56.158607,
              -34.9312972
            ],
            [
              -56.158558,
              -34.9312268
            ],
            [
              -56.1585769,
              -34.9311661
            ],
            [
              -56.1585658,
              -34.9311216
            ],
            [
              -56.1585164,
              -34.9310761
            ],
            [
              -56.1585256,
              -34.9309878
            ],
            [
              -56.1584917,
              -34.9308668
            ],
            [
              -56.1584343,
              -34.9308319
            ],
            [
              -56.158475,
              -34.9307615
            ],
            [
              -56.1583778,
              -34.9307515
            ],
            [
              -56.1583764,
              -34.9306338
            ],
            [
              -56.1584299,
              -34.9305123
            ],
            [
              -56.158504,
              -34.9303215
            ],
            [
              -56.1584875,
              -34.9302304
            ],
            [
              -56.158539,
              -34.9301173
            ],
            [
              -56.1584944,
              -34.9299853
            ],
            [
              -56.1583928,
              -34.929989
            ],
            [
              -56.1583496,
              -34.9298607
            ],
            [
              -56.1584011,
              -34.9297476
            ],
            [
              -56.158294,
              -34.9296497
            ],
            [
              -56.1584069,
              -34.9294873
            ],
            [
              -56.1582755,
              -34.9293695
            ],
            [
              -56.1582219,
              -34.9292395
            ],
            [
              -56.1583702,
              -34.9291906
            ],
            [
              -56.1584114,
              -34.929091
            ],
            [
              -56.1584711,
              -34.9290674
            ],
            [
              -56.1583887,
              -34.9288668
            ],
            [
              -56.1581375,
              -34.9287365
            ],
            [
              -56.1580881,
              -34.9286504
            ],
            [
              -56.1580519,
              -34.9285692
            ],
            [
              -56.1579625,
              -34.9284968
            ],
            [
              -56.1577422,
              -34.9284681
            ],
            [
              -56.1578349,
              -34.9283938
            ],
            [
              -56.157892,
              -34.9281684
            ],
            [
              -56.1579893,
              -34.9280461
            ],
            [
              -56.1579213,
              -34.927879
            ],
            [
              -56.157777,
              -34.9277
            ],
            [
              -56.1576351,
              -34.9276194
            ],
            [
              -56.1574761,
              -34.9275741
            ],
            [
              -56.1574115,
              -34.9274945
            ],
            [
              -56.1573429,
              -34.9274117
            ],
            [
              -56.1571896,
              -34.9272971
            ],
            [
              -56.1569124,
              -34.9272538
            ],
            [
              -56.156745,
              -34.9272837
            ],
            [
              -56.156517,
              -34.9273091
            ],
            [
              -56.1563772,
              -34.9272578
            ],
            [
              -56.1561283,
              -34.9270045
            ],
            [
              -56.1557599,
              -34.9267528
            ],
            [
              -56.155382,
              -34.9264863
            ],
            [
              -56.1536392,
              -34.9257378
            ],
            [
              -56.1533044,
              -34.9253789
            ],
            [
              -56.1532602,
              -34.9251726
            ],
            [
              -56.1531757,
              -34.9250692
            ],
            [
              -56.1529341,
              -34.9249967
            ],
            [
              -56.1527269,
              -34.925017
            ],
            [
              -56.1524464,
              -34.9250949
            ],
            [
              -56.1521972,
              -34.9250129
            ],
            [
              -56.1519103,
              -34.9248865
            ],
            [
              -56.1517462,
              -34.924806
            ],
            [
              -56.1515159,
              -34.9247991
            ],
            [
              -56.1511784,
              -34.924843
            ],
            [
              -56.1510503,
              -34.9247463
            ],
            [
              -56.1509804,
              -34.9246353
            ],
            [
              -56.1511566,
              -34.9245816
            ],
            [
              -56.1511886,
              -34.9244563
            ],
            [
              -56.1513589,
              -34.9244443
            ],
            [
              -56.1514333,
              -34.9243726
            ],
            [
              -56.151513,
              -34.9240311
            ],
            [
              -56.1513344,
              -34.9239324
            ],
            [
              -56.1513382,
              -34.9239249
            ],
            [
              -56.1514328,
              -34.9237398
            ],
            [
              -56.1515598,
              -34.9237842
            ],
            [
              -56.151621,
              -34.9237436
            ],
            [
              -56.1516996,
              -34.9235516
            ],
            [
              -56.1515332,
              -34.923371
            ],
            [
              -56.1516544,
              -34.9232694
            ],
            [
              -56.1515958,
              -34.923152
            ],
            [
              -56.1514839,
              -34.9230634
            ],
            [
              -56.1513437,
              -34.9230542
            ],
            [
              -56.1511269,
              -34.92293
            ],
            [
              -56.1508466,
              -34.9228829
            ],
            [
              -56.1506007,
              -34.9226544
            ],
            [
              -56.1500411,
              -34.9224862
            ],
            [
              -56.149792,
              -34.9223343
            ],
            [
              -56.1493836,
              -34.9223315
            ],
            [
              -56.1491417,
              -34.9222355
            ],
            [
              -56.1498702,
              -34.9220836
            ],
            [
              -56.149876,
              -34.9220382
            ],
            [
              -56.1498659,
              -34.9219786
            ],
            [
              -56.1498251,
              -34.9219272
            ],
            [
              -56.1497727,
              -34.9219165
            ],
            [
              -56.1496446,
              -34.9219046
            ],
            [
              -56.1495165,
              -34.9219117
            ],
            [
              -56.1494873,
              -34.9218353
            ],
            [
              -56.1494204,
              -34.9217947
            ],
            [
              -56.1493927,
              -34.9217136
            ],
            [
              -56.1492922,
              -34.9217112
            ],
            [
              -56.1491598,
              -34.9216777
            ],
            [
              -56.1491248,
              -34.9215846
            ],
            [
              -56.149126,
              -34.9214819
            ],
            [
              -56.1490622,
              -34.9215023
            ],
            [
              -56.1489749,
              -34.9215226
            ],
            [
              -56.1488664,
              -34.9214838
            ],
            [
              -56.1487727,
              -34.9215736
            ],
            [
              -56.1474264,
              -34.9206067
            ],
            [
              -56.1473178,
              -34.9206937
            ],
            [
              -56.1472066,
              -34.920643
            ],
            [
              -56.1469272,
              -34.9206075
            ],
            [
              -56.1464738,
              -34.9203708
            ],
            [
              -56.1460259,
              -34.9202207
            ],
            [
              -56.1457606,
              -34.9202292
            ],
            [
              -56.1456072,
              -34.9202289
            ],
            [
              -56.1454361,
              -34.9201558
            ],
            [
              -56.1452932,
              -34.9198936
            ],
            [
              -56.1451297,
              -34.9197663
            ],
            [
              -56.1446597,
              -34.919521
            ],
            [
              -56.1445541,
              -34.9192621
            ],
            [
              -56.14476,
              -34.9189994
            ],
            [
              -56.1451804,
              -34.9188532
            ],
            [
              -56.1455849,
              -34.9188053
            ],
            [
              -56.1459448,
              -34.9188601
            ],
            [
              -56.1462542,
              -34.9189192
            ],
            [
              -56.1463166,
              -34.9189761
            ],
            [
              -56.1464573,
              -34.9190024
            ],
            [
              -56.1465542,
              -34.9190754
            ],
            [
              -56.1465953,
              -34.9189976
            ],
            [
              -56.1467123,
              -34.9189568
            ],
            [
              -56.1468194,
              -34.9189525
            ],
            [
              -56.1468975,
              -34.9190026
            ],
            [
              -56.1469448,
              -34.9190948
            ],
            [
              -56.1471209,
              -34.9190377
            ],
            [
              -56.1472292,
              -34.9190256
            ],
            [
              -56.1474222,
              -34.9190761
            ],
            [
              -56.1474804,
              -34.9190808
            ],
            [
              -56.1475762,
              -34.9192164
            ],
            [
              -56.1476995,
              -34.9192052
            ],
            [
              -56.1478106,
              -34.9191739
            ],
            [
              -56.1479015,
              -34.9190961
            ],
            [
              -56.1481783,
              -34.918638
            ],
            [
              -56.1487102,
              -34.918412
            ],
            [
              -56.1496512,
              -34.9182
            ],
            [
              -56.1506119,
              -34.9179815
            ],
            [
              -56.1515421,
              -34.9177767
            ],
            [
              -56.1525764,
              -34.9175367
            ],
            [
              -56.1534891,
              -34.917317
            ],
            [
              -56.1548715,
              -34.9170101
            ],
            [
              -56.1560113,
              -34.9166091
            ],
            [
              -56.1560585,
              -34.9161559
            ],
            [
              -56.1561055,
              -34.9156906
            ],
            [
              -56.1561519,
              -34.9152319
            ],
            [
              -56.156236,
              -34.9143984
            ],
            [
              -56.1562489,
              -34.914271
            ],
            [
              -56.1575463,
              -34.9143689
            ],
            [
              -56.1588208,
              -34.9144571
            ],
            [
              -56.1598633,
              -34.9145361
            ],
            [
              -56.1600987,
              -34.9145568
            ],
            [
              -56.1604133,
              -34.9145814
            ],
            [
              -56.1613729,
              -34.914648
            ],
            [
              -56.1619574,
              -34.9146933
            ],
            [
              -56.162062,
              -34.9146741
            ],
            [
              -56.1623364,
              -34.9146913
            ],
            [
              -56.162455,
              -34.9146982
            ],
            [
              -56.1626775,
              -34.914663
            ],
            [
              -56.1626589,
              -34.9148316
            ],
            [
              -56.1625046,
              -34.916285
            ],
            [
              -56.1624633,
              -34.9166322
            ],
            [
              -56.1624526,
              -34.9167246
            ],
            [
              -56.1623974,
              -34.9171999
            ],
            [
              -56.1623708,
              -34.9174649
            ],
            [
              -56.1623524,
              -34.9176109
            ],
            [
              -56.1622647,
              -34.9184761
            ],
            [
              -56.1621672,
              -34.9193977
            ],
            [
              -56.1620164,
              -34.9206711
            ],
            [
              -56.1620007,
              -34.920827
            ],
            [
              -56.161931,
              -34.9215232
            ],
            [
              -56.1620347,
              -34.9215203
            ],
            [
              -56.1621306,
              -34.9215183
            ],
            [
              -56.1622482,
              -34.9215145
            ],
            [
              -56.1622816,
              -34.9215131
            ],
            [
              -56.1623236,
              -34.9215043
            ],
            [
              -56.1629312,
              -34.9211992
            ],
            [
              -56.1634695,
              -34.9209253
            ],
            [
              -56.1645042,
              -34.9204161
            ],
            [
              -56.164673,
              -34.9203359
            ],
            [
              -56.1655483,
              -34.9199192
            ],
            [
              -56.1657355,
              -34.919851
            ],
            [
              -56.1657601,
              -34.9198471
            ],
            [
              -56.1658424,
              -34.9198307
            ],
            [
              -56.1658609,
              -34.9197849
            ],
            [
              -56.1658664,
              -34.9197344
            ],
            [
              -56.1658561,
              -34.9196812
            ],
            [
              -56.1658106,
              -34.919599
            ],
            [
              -56.1657131,
              -34.9194131
            ],
            [
              -56.1657257,
              -34.9192418
            ],
            [
              -56.1657685,
              -34.9187256
            ],
            [
              -56.1657733,
              -34.9186869
            ],
            [
              -56.1658197,
              -34.9179482
            ],
            [
              -56.1658238,
              -34.9178448
            ],
            [
              -56.1658241,
              -34.9177753
            ],
            [
              -56.1658258,
              -34.9172885
            ],
            [
              -56.165809,
              -34.9168684
            ],
            [
              -56.1657972,
              -34.9159442
            ],
            [
              -56.1657895,
              -34.9156666
            ],
            [
              -56.1657856,
              -34.9152239
            ],
            [
              -56.1657758,
              -34.9149861
            ],
            [
              -56.1658718,
              -34.9150233
            ],
            [
              -56.1659846,
              -34.9150364
            ],
            [
              -56.1660877,
              -34.9150473
            ],
            [
              -56.1664404,
              -34.9151105
            ],
            [
              -56.1666299,
              -34.9151504
            ],
            [
              -56.1671702,
              -34.9152825
            ],
            [
              -56.1673733,
              -34.9153352
            ],
            [
              -56.1676823,
              -34.9154062
            ],
            [
              -56.1677358,
              -34.9154164
            ],
            [
              -56.1678603,
              -34.9154319
            ],
            [
              -56.1683339,
              -34.9154654
            ],
            [
              -56.1692562,
              -34.9155152
            ],
            [
              -56.1694016,
              -34.915523
            ],
            [
              -56.1694898,
              -34.9155234
            ],
            [
              -56.1695536,
              -34.9155131
            ],
            [
              -56.1696356,
              -34.9154776
            ],
            [
              -56.1695391,
              -34.915621
            ],
            [
              -56.1694719,
              -34.9157278
            ],
            [
              -56.169374,
              -34.9159177
            ],
            [
              -56.1692891,
              -34.9161242
            ],
            [
              -56.1692439,
              -34.9162637
            ],
            [
              -56.169187,
              -34.9164797
            ],
            [
              -56.169154,
              -34.9166328
            ],
            [
              -56.1691482,
              -34.9166643
            ],
            [
              -56.1691331,
              -34.916804
            ],
            [
              -56.1691152,
              -34.9170085
            ],
            [
              -56.1691132,
              -34.9172231
            ],
            [
              -56.1691215,
              -34.9173494
            ],
            [
              -56.1691641,
              -34.9176022
            ],
            [
              -56.1692037,
              -34.9177423
            ],
            [
              -56.1692466,
              -34.917879
            ],
            [
              -56.169292,
              -34.9179875
            ],
            [
              -56.1693413,
              -34.9180842
            ],
            [
              -56.1693998,
              -34.9181764
            ],
            [
              -56.1694261,
              -34.9182127
            ],
            [
              -56.1694673,
              -34.9182716
            ],
            [
              -56.1695264,
              -34.9183472
            ],
            [
              -56.1695927,
              -34.9184113
            ],
            [
              -56.1696639,
              -34.9184678
            ],
            [
              -56.1697566,
              -34.9185216
            ],
            [
              -56.1698833,
              -34.9185863
            ],
            [
              -56.1705584,
              -34.9187208
            ],
            [
              -56.1711717,
              -34.9190279
            ],
            [
              -56.1711424,
              -34.9190615
            ],
            [
              -56.1711951,
              -34.9190989
            ],
            [
              -56.1712293,
              -34.9191491
            ],
            [
              -56.1712548,
              -34.9191887
            ],
            [
              -56.1713301,
              -34.9192044
            ],
            [
              -56.1714325,
              -34.9192392
            ],
            [
              -56.1715313,
              -34.9192643
            ],
            [
              -56.17176,
              -34.9193127
            ],
            [
              -56.1719921,
              -34.9194377
            ],
            [
              -56.1721111,
              -34.9195666
            ],
            [
              -56.172301,
              -34.919667
            ],
            [
              -56.1723428,
              -34.9199465
            ],
            [
              -56.1724241,
              -34.9199586
            ]
          ]
        ]
      }
    },
    {
      "type": "Feature",
      "properties": {
        "name": "Cordón",
        "category": "Hip",
        "osmType": "R",
        "osmId": 18003916,
        "source": "https://www.openstreetmap.org/relation/18003916",
        "retrievedAt": "2026-09-24",
        "stroke": "#f43f5e",
        "stroke-width": 2,
        "stroke-opacity": 0.95,
        "fill": "#f43f5e",
        "fill-opacity": 0.16
      },
      "geometry": {
        "type": "Polygon",
        "coordinates": [
          [
            [
              -56.1869556,
              -34.8986002
            ],
            [
              -56.1869301,
              -34.8986502
            ],
            [
              -56.1867863,
              -34.8989328
            ],
            [
              -56.1867636,
              -34.8989744
            ],
            [
              -56.1864579,
              -34.899619
            ],
            [
              -56.186429,
              -34.89968
            ],
            [
              -56.1860913,
              -34.9004834
            ],
            [
              -56.1860662,
              -34.9005432
            ],
            [
              -56.185874,
              -34.9010282
            ],
            [
              -56.1858512,
              -34.9010723
            ],
            [
              -56.1859088,
              -34.9010918
            ],
            [
              -56.185938,
              -34.9011214
            ],
            [
              -56.1859586,
              -34.9011504
            ],
            [
              -56.1859658,
              -34.9011891
            ],
            [
              -56.1859547,
              -34.9012368
            ],
            [
              -56.1858584,
              -34.9017219
            ],
            [
              -56.1856733,
              -34.9026416
            ],
            [
              -56.1854713,
              -34.90356
            ],
            [
              -56.185289,
              -34.9044966
            ],
            [
              -56.1851146,
              -34.9053837
            ],
            [
              -56.185098,
              -34.9054179
            ],
            [
              -56.1850826,
              -34.9054495
            ],
            [
              -56.1850625,
              -34.9054908
            ],
            [
              -56.1850448,
              -34.9055151
            ],
            [
              -56.1850224,
              -34.905535
            ],
            [
              -56.1849893,
              -34.9055555
            ],
            [
              -56.184937,
              -34.9055763
            ],
            [
              -56.1846182,
              -34.9055993
            ],
            [
              -56.1846124,
              -34.905661
            ],
            [
              -56.1845352,
              -34.906387
            ],
            [
              -56.1844353,
              -34.907303
            ],
            [
              -56.184341,
              -34.9082393
            ],
            [
              -56.1830432,
              -34.908146
            ],
            [
              -56.1828478,
              -34.9081316
            ],
            [
              -56.1820795,
              -34.9080762
            ],
            [
              -56.1808832,
              -34.9079874
            ],
            [
              -56.1795521,
              -34.907893
            ],
            [
              -56.1793877,
              -34.907882
            ],
            [
              -56.1784712,
              -34.9078157
            ],
            [
              -56.1773655,
              -34.9077362
            ],
            [
              -56.1774572,
              -34.9067161
            ],
            [
              -56.1774459,
              -34.9066632
            ],
            [
              -56.1762617,
              -34.9068874
            ],
            [
              -56.1762043,
              -34.9075212
            ],
            [
              -56.1761932,
              -34.9076419
            ],
            [
              -56.1757426,
              -34.9076091
            ],
            [
              -56.1752481,
              -34.9075732
            ],
            [
              -56.1743542,
              -34.9075076
            ],
            [
              -56.1739945,
              -34.9074869
            ],
            [
              -56.1739243,
              -34.9074865
            ],
            [
              -56.1738608,
              -34.9074914
            ],
            [
              -56.1737796,
              -34.9074986
            ],
            [
              -56.1737187,
              -34.9074385
            ],
            [
              -56.1734439,
              -34.9074499
            ],
            [
              -56.1731722,
              -34.9074244
            ],
            [
              -56.1720067,
              -34.9073391
            ],
            [
              -56.1707987,
              -34.9072486
            ],
            [
              -56.16971,
              -34.9071707
            ],
            [
              -56.1685438,
              -34.9070927
            ],
            [
              -56.1685363,
              -34.9071753
            ],
            [
              -56.168435,
              -34.9080398
            ],
            [
              -56.1673822,
              -34.9079661
            ],
            [
              -56.1666653,
              -34.9079231
            ],
            [
              -56.1659256,
              -34.9078775
            ],
            [
              -56.164814,
              -34.9077932
            ],
            [
              -56.1636486,
              -34.9077065
            ],
            [
              -56.1637585,
              -34.9067275
            ],
            [
              -56.1637649,
              -34.9066687
            ],
            [
              -56.1638181,
              -34.9061763
            ],
            [
              -56.1638339,
              -34.9059903
            ],
            [
              -56.1638724,
              -34.9056117
            ],
            [
              -56.1638854,
              -34.9055087
            ],
            [
              -56.1639838,
              -34.9046194
            ],
            [
              -56.1640962,
              -34.9035908
            ],
            [
              -56.1641806,
              -34.9028007
            ],
            [
              -56.1642474,
              -34.902206
            ],
            [
              -56.1643962,
              -34.9021677
            ],
            [
              -56.165152,
              -34.9019729
            ],
            [
              -56.1652062,
              -34.9019656
            ],
            [
              -56.1652559,
              -34.9019643
            ],
            [
              -56.1654425,
              -34.901974
            ],
            [
              -56.1665681,
              -34.9020449
            ],
            [
              -56.1679584,
              -34.9021215
            ],
            [
              -56.1691069,
              -34.902184
            ],
            [
              -56.1692149,
              -34.9012111
            ],
            [
              -56.169282,
              -34.9006117
            ],
            [
              -56.1693101,
              -34.900394
            ],
            [
              -56.1693268,
              -34.9003417
            ],
            [
              -56.1695622,
              -34.8999813
            ],
            [
              -56.1695653,
              -34.8999766
            ],
            [
              -56.1696071,
              -34.8999044
            ],
            [
              -56.1698041,
              -34.8995545
            ],
            [
              -56.1698265,
              -34.8995147
            ],
            [
              -56.1698497,
              -34.8994735
            ],
            [
              -56.1703809,
              -34.89853
            ],
            [
              -56.1710613,
              -34.8973264
            ],
            [
              -56.1710908,
              -34.8972785
            ],
            [
              -56.1711032,
              -34.897242
            ],
            [
              -56.1711406,
              -34.8970098
            ],
            [
              -56.1712419,
              -34.8961543
            ],
            [
              -56.1713599,
              -34.8951409
            ],
            [
              -56.1714709,
              -34.8941948
            ],
            [
              -56.1715601,
              -34.8932743
            ],
            [
              -56.1730682,
              -34.8933946
            ],
            [
              -56.1729655,
              -34.8943119
            ],
            [
              -56.1739096,
              -34.8943859
            ],
            [
              -56.1750408,
              -34.8944745
            ],
            [
              -56.1761672,
              -34.8945628
            ],
            [
              -56.1773626,
              -34.894655
            ],
            [
              -56.1783307,
              -34.8947375
            ],
            [
              -56.1784535,
              -34.894748
            ],
            [
              -56.1784388,
              -34.8948426
            ],
            [
              -56.1792363,
              -34.8949201
            ],
            [
              -56.1796252,
              -34.8946071
            ],
            [
              -56.1805078,
              -34.8951129
            ],
            [
              -56.1805826,
              -34.8951558
            ],
            [
              -56.1806644,
              -34.8952026
            ],
            [
              -56.180658,
              -34.8952994
            ],
            [
              -56.1797409,
              -34.8959785
            ],
            [
              -56.1796076,
              -34.896072
            ],
            [
              -56.1803987,
              -34.8967587
            ],
            [
              -56.1806439,
              -34.8968548
            ],
            [
              -56.1819651,
              -34.8973777
            ],
            [
              -56.1823422,
              -34.8968031
            ],
            [
              -56.1826831,
              -34.8962959
            ],
            [
              -56.1834794,
              -34.8967026
            ],
            [
              -56.1843008,
              -34.8971167
            ],
            [
              -56.1851807,
              -34.8975887
            ],
            [
              -56.186214,
              -34.8981323
            ],
            [
              -56.1862963,
              -34.8981756
            ],
            [
              -56.1863605,
              -34.8982097
            ],
            [
              -56.1866258,
              -34.8983507
            ],
            [
              -56.1867623,
              -34.8984232
            ],
            [
              -56.1868187,
              -34.898468
            ],
            [
              -56.1869012,
              -34.8985477
            ],
            [
              -56.1869556,
              -34.8986002
            ]
          ]
        ]
      }
    }
  ]
}
