{
  "type": "FeatureCollection",
  "features": [
    {
      "type": "Feature",
      "properties": {
        "name": "Valle Oriente",
        "category": "Residential",
        "osmType": "way",
        "osmId": 869734226,
        "stroke": "#0f766e",
        "stroke-width": 2,
        "stroke-opacity": 0.95,
        "fill": "#0f766e",
        "fill-opacity": 0.16
      },
      "geometry": {
        "type": "Polygon",
        "coordinates": [
          [
            [
              -100.3343337,
              25.6521837
            ],
            [
              -100.3283262,
              25.6488752
            ],
            [
              -100.3285213,
              25.6480469
            ],
            [
              -100.3290742,
              25.6469694
            ],
            [
              -100.3285539,
              25.6465296
            ],
            [
              -100.3257579,
              25.6458978
            ],
            [
              -100.3250808,
              25.6451526
            ],
            [
              -100.3254524,
              25.6446283
            ],
            [
              -100.3248796,
              25.6443168
            ],
            [
              -100.3248356,
              25.6440789
            ],
            [
              -100.3249122,
              25.6436133
            ],
            [
              -100.3254465,
              25.642746
            ],
            [
              -100.3209474,
              25.6410289
            ],
            [
              -100.3190255,
              25.6388308
            ],
            [
              -100.314074,
              25.63592
            ],
            [
              -100.3116018,
              25.6375281
            ],
            [
              -100.3196875,
              25.6425413
            ],
            [
              -100.3185581,
              25.6455794
            ],
            [
              -100.3253364,
              25.6487013
            ],
            [
              -100.3248927,
              25.6497456
            ],
            [
              -100.3271481,
              25.6508899
            ],
            [
              -100.3336532,
              25.6535727
            ],
            [
              -100.3343337,
              25.6521837
            ]
          ]
        ]
      }
    },
    {
      "type": "Feature",
      "properties": {
        "name": "Barrio Antiguo",
        "category": "Hip",
        "osmType": "way",
        "osmId": 688463601,
        "stroke": "#f43f5e",
        "stroke-width": 2,
        "stroke-opacity": 0.95,
        "fill": "#f43f5e",
        "fill-opacity": 0.16
      },
      "geometry": {
        "type": "Polygon",
        "coordinates": [
          [
            [
              -100.3093392,
              25.6635745
            ],
            [
              -100.30795,
              25.6637092
            ],
            [
              -100.3066162,
              25.6641404
            ],
            [
              -100.3056449,
              25.6646436
            ],
            [
              -100.3033682,
              25.6663842
            ],
            [
              -100.3089062,
              25.6673886
            ],
            [
              -100.3092529,
              25.6643507
            ],
            [
              -100.3093392,
              25.6635745
            ]
          ]
        ]
      }
    }
  ]
}
