{
  "type": "FeatureCollection",
  "features": [
    {
      "type": "Feature",
      "properties": {
        "name": "Centro",
        "category": "Tourist",
        "osmType": "relation",
        "osmId": 19859956,
        "stroke": "#f59e0b",
        "stroke-width": 2,
        "stroke-opacity": 0.95,
        "fill": "#f59e0b",
        "fill-opacity": 0.16
      },
      "geometry": {
        "type": "Polygon",
        "coordinates": [
          [
            [
              -77.2660628,
              1.2207892
            ],
            [
              -77.2652354,
              1.2192638
            ],
            [
              -77.2651076,
              1.2193066
            ],
            [
              -77.2649501,
              1.2197728
            ],
            [
              -77.2655861,
              1.2211909
            ],
            [
              -77.265608,
              1.2210721
            ],
            [
              -77.2660628,
              1.2207892
            ]
          ]
        ]
      }
    },
    {
      "type": "Feature",
      "properties": {
        "name": "Santiago",
        "category": "Residential",
        "osmType": "relation",
        "osmId": 19766086,
        "stroke": "#0f766e",
        "stroke-width": 2,
        "stroke-opacity": 0.95,
        "fill": "#0f766e",
        "fill-opacity": 0.16
      },
      "geometry": {
        "type": "Polygon",
        "coordinates": [
          [
            [
              -77.2857743,
              1.2126586
            ],
            [
              -77.2845842,
              1.2098227
            ],
            [
              -77.2850898,
              1.2096052
            ],
            [
              -77.2847928,
              1.2089725
            ],
            [
              -77.2840541,
              1.209081
            ],
            [
              -77.2838509,
              1.2084816
            ],
            [
              -77.2823596,
              1.2090286
            ],
            [
              -77.2842569,
              1.2135353
            ],
            [
              -77.2853396,
              1.2131838
            ],
            [
              -77.2855783,
              1.2128258
            ],
            [
              -77.2857743,
              1.2126586
            ]
          ]
        ]
      }
    }
  ]
}
