{
  "type": "FeatureCollection",
  "features": [
    {
      "type": "Feature",
      "properties": {
        "name": "Centro",
        "category": "Tourist",
        "osmType": "relation",
        "osmId": 7811969,
        "stroke": "#f59e0b",
        "stroke-width": 2,
        "stroke-opacity": 0.95,
        "fill": "#f59e0b",
        "fill-opacity": 0.16
      },
      "geometry": {
        "type": "Polygon",
        "coordinates": [
          [
            [
              -75.7184357,
              4.8157538
            ],
            [
              -75.7164816,
              4.8148557
            ],
            [
              -75.7149556,
              4.8146024
            ],
            [
              -75.7126591,
              4.8133286
            ],
            [
              -75.7072296,
              4.812039
            ],
            [
              -75.7050028,
              4.811806
            ],
            [
              -75.7029487,
              4.810717
            ],
            [
              -75.698417,
              4.8101021
            ],
            [
              -75.6971626,
              4.8088076
            ],
            [
              -75.6935624,
              4.8083893
            ],
            [
              -75.6932612,
              4.8085444
            ],
            [
              -75.6932433,
              4.8088477
            ],
            [
              -75.6921227,
              4.8103019
            ],
            [
              -75.6916845,
              4.810346
            ],
            [
              -75.6901112,
              4.8096776
            ],
            [
              -75.6892773,
              4.810029
            ],
            [
              -75.6877253,
              4.8121619
            ],
            [
              -75.6874571,
              4.8137436
            ],
            [
              -75.6867898,
              4.8146431
            ],
            [
              -75.6865488,
              4.8146166
            ],
            [
              -75.686366,
              4.816341
            ],
            [
              -75.6997741,
              4.8178818
            ],
            [
              -75.6998856,
              4.8170466
            ],
            [
              -75.7040619,
              4.8175186
            ],
            [
              -75.7041538,
              4.8166591
            ],
            [
              -75.7116904,
              4.8175486
            ],
            [
              -75.7118009,
              4.8166529
            ],
            [
              -75.7126108,
              4.8167546
            ],
            [
              -75.7126878,
              4.8161009
            ],
            [
              -75.7162526,
              4.816421
            ],
            [
              -75.7174545,
              4.8161183
            ],
            [
              -75.7184357,
              4.8157538
            ]
          ]
        ]
      }
    },
    {
      "type": "Feature",
      "properties": {
        "name": "Pinares",
        "category": "Residential",
        "osmType": "way",
        "osmId": 1514039153,
        "stroke": "#0f766e",
        "stroke-width": 2,
        "stroke-opacity": 0.95,
        "fill": "#0f766e",
        "fill-opacity": 0.16
      },
      "geometry": {
        "type": "Polygon",
        "coordinates": [
          [
            [
              -75.691297,
              4.8031136
            ],
            [
              -75.6904605,
              4.802691
            ],
            [
              -75.6902392,
              4.8016499
            ],
            [
              -75.6895821,
              4.8017127
            ],
            [
              -75.6893108,
              4.8011843
            ],
            [
              -75.6888159,
              4.8014823
            ],
            [
              -75.6883925,
              4.8008067
            ],
            [
              -75.6879805,
              4.8006457
            ],
            [
              -75.6868532,
              4.8010976
            ],
            [
              -75.6857466,
              4.8020896
            ],
            [
              -75.6832066,
              4.8051099
            ],
            [
              -75.6846777,
              4.8052936
            ],
            [
              -75.685764,
              4.8050764
            ],
            [
              -75.6857559,
              4.8052007
            ],
            [
              -75.6872848,
              4.8053818
            ],
            [
              -75.6880385,
              4.8059277
            ],
            [
              -75.6884649,
              4.8057901
            ],
            [
              -75.6900132,
              4.806497
            ],
            [
              -75.6909239,
              4.8064723
            ],
            [
              -75.6911197,
              4.8048653
            ],
            [
              -75.691297,
              4.8031136
            ]
          ]
        ]
      }
    },
    {
      "type": "Feature",
      "properties": {
        "name": "Álamos",
        "category": "Hip",
        "osmType": "relation",
        "osmId": 7764120,
        "stroke": "#f43f5e",
        "stroke-width": 2,
        "stroke-opacity": 0.95,
        "fill": "#f43f5e",
        "fill-opacity": 0.16
      },
      "geometry": {
        "type": "Polygon",
        "coordinates": [
          [
            [
              -75.7356212,
              4.8203161
            ],
            [
              -75.7349798,
              4.8199209
            ],
            [
              -75.7339948,
              4.819649
            ],
            [
              -75.7338558,
              4.8203848
            ],
            [
              -75.7335311,
              4.8203361
            ],
            [
              -75.7333877,
              4.8212163
            ],
            [
              -75.7345689,
              4.8211149
            ],
            [
              -75.7353088,
              4.8208475
            ],
            [
              -75.7356149,
              4.8204926
            ],
            [
              -75.7356212,
              4.8203161
            ]
          ]
        ]
      }
    }
  ]
}
