{
  "type": "FeatureCollection",
  "features": [
    {
      "type": "Feature",
      "properties": {
        "name": "Castilla",
        "category": "Residential",
        "osmType": "relation",
        "osmId": 1986173,
        "stroke": "#0f766e",
        "stroke-width": 2,
        "stroke-opacity": 0.95,
        "fill": "#0f766e",
        "fill-opacity": 0.16
      },
      "geometry": {
        "type": "Polygon",
        "coordinates": [
          [
            [
              -80.6485507,
              -5.2259085
            ],
            [
              -80.6381089,
              -5.2331765
            ],
            [
              -80.6357029,
              -5.2311385
            ],
            [
              -80.6300139,
              -5.2353827
            ],
            [
              -80.6291127,
              -5.2345013
            ],
            [
              -80.6218815,
              -5.2489781
            ],
            [
              -80.600228,
              -5.2479791
            ],
            [
              -80.5671001,
              -5.2561789
            ],
            [
              -80.5554316,
              -5.2581016
            ],
            [
              -80.5537187,
              -5.2574121
            ],
            [
              -80.5511739,
              -5.2558731
            ],
            [
              -80.5466739,
              -5.2525762
            ],
            [
              -80.5452129,
              -5.2517617
            ],
            [
              -80.542586,
              -5.2517871
            ],
            [
              -80.541459,
              -5.251334
            ],
            [
              -80.5345332,
              -5.2453457
            ],
            [
              -80.5330176,
              -5.2447051
            ],
            [
              -80.5306426,
              -5.2446406
            ],
            [
              -80.528957,
              -5.244086
            ],
            [
              -80.5249082,
              -5.2406191
            ],
            [
              -80.5201895,
              -5.2381915
            ],
            [
              -80.516873,
              -5.2356055
            ],
            [
              -80.5109629,
              -5.2375566
            ],
            [
              -80.4995605,
              -5.2393985
            ],
            [
              -80.4920215,
              -5.2409766
            ],
            [
              -80.4870664,
              -5.2409766
            ],
            [
              -80.4843049,
              -5.2407128
            ],
            [
              -80.4772461,
              -5.2392226
            ],
            [
              -80.4726426,
              -5.2393985
            ],
            [
              -80.4687402,
              -5.2384766
            ],
            [
              -80.4597949,
              -5.2342246
            ],
            [
              -80.4532617,
              -5.2326016
            ],
            [
              -80.4476954,
              -5.2320762
            ],
            [
              -80.436207,
              -5.2328652
            ],
            [
              -80.4225274,
              -5.2316816
            ],
            [
              -80.4145039,
              -5.2324277
            ],
            [
              -80.4116114,
              -5.2314628
            ],
            [
              -80.4029726,
              -5.2310235
            ],
            [
              -80.3938965,
              -5.2311231
            ],
            [
              -80.3866191,
              -5.230586
            ],
            [
              -80.3760527,
              -5.2312402
            ],
            [
              -80.3650176,
              -5.2324218
            ],
            [
              -80.36325,
              -5.2269923
            ],
            [
              -80.3624979,
              -5.223295
            ],
            [
              -80.3618086,
              -5.2164647
            ],
            [
              -80.3605547,
              -5.2082538
            ],
            [
              -80.3572325,
              -5.1968496
            ],
            [
              -80.3569824,
              -5.1897051
            ],
            [
              -80.3523732,
              -5.1733532
            ],
            [
              -80.3497339,
              -5.1480717
            ],
            [
              -80.353711,
              -5.1400726
            ],
            [
              -80.3884824,
              -5.1466288
            ],
            [
              -80.4032402,
              -5.1472871
            ],
            [
              -80.4464257,
              -5.1443281
            ],
            [
              -80.4441661,
              -5.1408788
            ],
            [
              -80.4423809,
              -5.1362383
            ],
            [
              -80.4411914,
              -5.1311231
            ],
            [
              -80.4404767,
              -5.125293
            ],
            [
              -80.4385742,
              -5.1197012
            ],
            [
              -80.4370274,
              -5.1164882
            ],
            [
              -80.4369082,
              -5.1133945
            ],
            [
              -80.4353614,
              -5.1067325
            ],
            [
              -80.4339336,
              -5.1018555
            ],
            [
              -80.4329824,
              -5.0937656
            ],
            [
              -80.4329824,
              -5.0893632
            ],
            [
              -80.4335761,
              -5.0869843
            ],
            [
              -80.4325059,
              -5.0828203
            ],
            [
              -80.4308399,
              -5.0781797
            ],
            [
              -80.4217989,
              -5.0624746
            ],
            [
              -80.420998,
              -5.0575586
            ],
            [
              -80.4998303,
              -4.9858124
            ],
            [
              -80.5006135,
              -4.9845726
            ],
            [
              -80.5024481,
              -4.9824884
            ],
            [
              -80.503521,
              -4.9997604
            ],
            [
              -80.5038643,
              -5.0008292
            ],
            [
              -80.5065251,
              -5.0041638
            ],
            [
              -80.5092717,
              -5.0064297
            ],
            [
              -80.5201722,
              -5.003266
            ],
            [
              -80.5306435,
              -5.0010857
            ],
            [
              -80.5386258,
              -4.9983068
            ],
            [
              -80.5426169,
              -4.9980503
            ],
            [
              -80.5521441,
              -4.9960409
            ],
            [
              -80.5532974,
              -4.9786619
            ],
            [
              -80.5552582,
              -4.9789393
            ],
            [
              -80.5591393,
              -4.9739697
            ],
            [
              -80.5623901,
              -4.9672039
            ],
            [
              -80.5639136,
              -4.9667657
            ],
            [
              -80.5666709,
              -4.9669474
            ],
            [
              -80.5695677,
              -4.9688072
            ],
            [
              -80.5739236,
              -4.9744935
            ],
            [
              -80.5772495,
              -4.9774862
            ],
            [
              -80.5796528,
              -4.9770373
            ],
            [
              -80.5815196,
              -4.9736598
            ],
            [
              -80.5829573,
              -4.9722916
            ],
            [
              -80.5860472,
              -4.9720779
            ],
            [
              -80.5898023,
              -4.9730612
            ],
            [
              -80.5912829,
              -4.9732322
            ],
            [
              -80.5927205,
              -4.9743438
            ],
            [
              -80.5930853,
              -4.975092
            ],
            [
              -80.6027225,
              -4.9751054
            ],
            [
              -80.6020975,
              -4.9866033
            ],
            [
              -80.6015933,
              -4.9898205
            ],
            [
              -80.5978811,
              -4.9925994
            ],
            [
              -80.5957568,
              -4.9933476
            ],
            [
              -80.5942547,
              -4.9951111
            ],
            [
              -80.5941635,
              -4.9969976
            ],
            [
              -80.5935788,
              -4.9998032
            ],
            [
              -80.5934715,
              -5.0015346
            ],
            [
              -80.5934715,
              -5.004741
            ],
            [
              -80.5941153,
              -5.0082894
            ],
            [
              -80.5948449,
              -5.0098925
            ],
            [
              -80.5974412,
              -5.0112179
            ],
            [
              -80.6024194,
              -5.0148945
            ],
            [
              -80.6048656,
              -5.0172137
            ],
            [
              -80.6069684,
              -5.0198963
            ],
            [
              -80.6075692,
              -5.0210078
            ],
            [
              -80.6084705,
              -5.0247699
            ],
            [
              -80.6086636,
              -5.0259883
            ],
            [
              -80.6086636,
              -5.0309259
            ],
            [
              -80.6090284,
              -5.0327214
            ],
            [
              -80.6098223,
              -5.0343032
            ],
            [
              -80.612762,
              -5.0382361
            ],
            [
              -80.6202293,
              -5.0456104
            ],
            [
              -80.6236196,
              -5.0492868
            ],
            [
              -80.6277395,
              -5.0541601
            ],
            [
              -80.629735,
              -5.0572594
            ],
            [
              -80.6295204,
              -5.059525
            ],
            [
              -80.6285978,
              -5.0609571
            ],
            [
              -80.6248856,
              -5.0644411
            ],
            [
              -80.6179118,
              -5.0704044
            ],
            [
              -80.6167317,
              -5.0724135
            ],
            [
              -80.6164527,
              -5.0734822
            ],
            [
              -80.6172896,
              -5.0747432
            ],
            [
              -80.6201649,
              -5.0759615
            ],
            [
              -80.6203151,
              -5.077821
            ],
            [
              -80.6186092,
              -5.0825979
            ],
            [
              -80.6186038,
              -5.083314
            ],
            [
              -80.6176865,
              -5.0856436
            ],
            [
              -80.6176865,
              -5.0869421
            ],
            [
              -80.618062,
              -5.0878825
            ],
            [
              -80.6187755,
              -5.0888282
            ],
            [
              -80.6234908,
              -5.0932845
            ],
            [
              -80.6273532,
              -5.0965866
            ],
            [
              -80.6292361,
              -5.0974309
            ],
            [
              -80.6307784,
              -5.0986758
            ],
            [
              -80.6317225,
              -5.099854
            ],
            [
              -80.6317467,
              -5.1002547
            ],
            [
              -80.6329537,
              -5.1022825
            ],
            [
              -80.634445,
              -5.1062471
            ],
            [
              -80.6348097,
              -5.1080744
            ],
            [
              -80.6340695,
              -5.1137701
            ],
            [
              -80.6322348,
              -5.1165058
            ],
            [
              -80.6299818,
              -5.1191987
            ],
            [
              -80.6285763,
              -5.1196582
            ],
            [
              -80.6272352,
              -5.1197864
            ],
            [
              -80.6260443,
              -5.1197544
            ],
            [
              -80.6245315,
              -5.1189529
            ],
            [
              -80.623169,
              -5.1191666
            ],
            [
              -80.6191993,
              -5.121058
            ],
            [
              -80.6185556,
              -5.1220625
            ],
            [
              -80.6183732,
              -5.1236227
            ],
            [
              -80.6185395,
              -5.1264732
            ],
            [
              -80.6171957,
              -5.1412917
            ],
            [
              -80.6166887,
              -5.1432685
            ],
            [
              -80.6166995,
              -5.1440993
            ],
            [
              -80.6174666,
              -5.1460628
            ],
            [
              -80.6178877,
              -5.1486247
            ],
            [
              -80.6176221,
              -5.1493086
            ],
            [
              -80.6173888,
              -5.1510183
            ],
            [
              -80.6151599,
              -5.1542186
            ],
            [
              -80.614787,
              -5.155068
            ],
            [
              -80.6144491,
              -5.1571063
            ],
            [
              -80.6151545,
              -5.1591525
            ],
            [
              -80.6161845,
              -5.1606699
            ],
            [
              -80.6166995,
              -5.162091
            ],
            [
              -80.6200791,
              -5.1688655
            ],
            [
              -80.6218278,
              -5.1728457
            ],
            [
              -80.6227022,
              -5.1754956
            ],
            [
              -80.6233192,
              -5.1789255
            ],
            [
              -80.6251726,
              -5.1816422
            ],
            [
              -80.6253818,
              -5.1827935
            ],
            [
              -80.6246656,
              -5.1848984
            ],
            [
              -80.6244028,
              -5.1863436
            ],
            [
              -80.6243706,
              -5.1884191
            ],
            [
              -80.623869,
              -5.1924847
            ],
            [
              -80.6238288,
              -5.1951238
            ],
            [
              -80.6245852,
              -5.1989543
            ],
            [
              -80.6250492,
              -5.2002231
            ],
            [
              -80.6276,
              -5.2052369
            ],
            [
              -80.6298316,
              -5.2103975
            ],
            [
              -80.6313872,
              -5.2134319
            ],
            [
              -80.6338227,
              -5.2161778
            ],
            [
              -80.635829,
              -5.2173103
            ],
            [
              -80.6392086,
              -5.2184536
            ],
            [
              -80.6419122,
              -5.2197624
            ],
            [
              -80.6450075,
              -5.2222786
            ],
            [
              -80.6478506,
              -5.2238011
            ],
            [
              -80.6482154,
              -5.2242071
            ],
            [
              -80.64854,
              -5.2252995
            ],
            [
              -80.6485507,
              -5.2259085
            ]
          ]
        ]
      }
    }
  ]
}
