{
  "type": "FeatureCollection",
  "features": [
    {
      "type": "Feature",
      "properties": {
        "name": "Moinhos de Vento",
        "category": "Tourist",
        "osmType": "relation",
        "osmId": 5320177,
        "stroke": "#f59e0b",
        "stroke-width": 2,
        "stroke-opacity": 0.95,
        "fill": "#f59e0b",
        "fill-opacity": 0.16
      },
      "geometry": {
        "type": "Polygon",
        "coordinates": [
          [
            [
              -51.2104124,
              -30.0238953
            ],
            [
              -51.2085071,
              -30.0290039
            ],
            [
              -51.1960041,
              -30.0282535
            ],
            [
              -51.1976285,
              -30.0179247
            ],
            [
              -51.2053258,
              -30.0183598
            ],
            [
              -51.2103334,
              -30.0238157
            ],
            [
              -51.2104124,
              -30.0238953
            ]
          ]
        ]
      }
    },
    {
      "type": "Feature",
      "properties": {
        "name": "Bela Vista",
        "category": "Residential",
        "osmType": "relation",
        "osmId": 5320134,
        "stroke": "#0f766e",
        "stroke-width": 2,
        "stroke-opacity": 0.95,
        "fill": "#0f766e",
        "fill-opacity": 0.16
      },
      "geometry": {
        "type": "Polygon",
        "coordinates": [
          [
            [
              -51.1959483,
              -30.033971
            ],
            [
              -51.1957356,
              -30.0349779
            ],
            [
              -51.1958489,
              -30.0388971
            ],
            [
              -51.1947216,
              -30.0384893
            ],
            [
              -51.1909262,
              -30.0384225
            ],
            [
              -51.1894552,
              -30.0382221
            ],
            [
              -51.1877693,
              -30.0374943
            ],
            [
              -51.1858076,
              -30.0356127
            ],
            [
              -51.1828065,
              -30.0302813
            ],
            [
              -51.1808957,
              -30.0294825
            ],
            [
              -51.1818595,
              -30.0273216
            ],
            [
              -51.1852263,
              -30.0284628
            ],
            [
              -51.185169,
              -30.0291742
            ],
            [
              -51.1868891,
              -30.029282
            ],
            [
              -51.1868045,
              -30.0305265
            ],
            [
              -51.1895369,
              -30.031246
            ],
            [
              -51.18956,
              -30.0305777
            ],
            [
              -51.1929519,
              -30.0306901
            ],
            [
              -51.1929237,
              -30.0295069
            ],
            [
              -51.1945033,
              -30.0294818
            ],
            [
              -51.1945818,
              -30.0286539
            ],
            [
              -51.1952685,
              -30.0287426
            ],
            [
              -51.1952863,
              -30.0292027
            ],
            [
              -51.1958626,
              -30.0292551
            ],
            [
              -51.1959147,
              -30.0332464
            ],
            [
              -51.1959483,
              -30.033971
            ]
          ]
        ]
      }
    },
    {
      "type": "Feature",
      "properties": {
        "name": "Cidade Baixa",
        "category": "Hip",
        "osmType": "relation",
        "osmId": 5320146,
        "stroke": "#f43f5e",
        "stroke-width": 2,
        "stroke-opacity": 0.95,
        "fill": "#f43f5e",
        "fill-opacity": 0.16
      },
      "geometry": {
        "type": "Polygon",
        "coordinates": [
          [
            [
              -51.2285541,
              -30.0400929
            ],
            [
              -51.228061,
              -30.0411906
            ],
            [
              -51.2277632,
              -30.0431326
            ],
            [
              -51.2215825,
              -30.0437289
            ],
            [
              -51.2209711,
              -30.0439258
            ],
            [
              -51.2163705,
              -30.0411821
            ],
            [
              -51.2212979,
              -30.0347503
            ],
            [
              -51.2240323,
              -30.0353152
            ],
            [
              -51.2246979,
              -30.0357979
            ],
            [
              -51.2271538,
              -30.0383783
            ],
            [
              -51.228344,
              -30.0387145
            ],
            [
              -51.2284505,
              -30.039426
            ],
            [
              -51.2285541,
              -30.0400929
            ]
          ]
        ]
      }
    }
  ]
}
