{
  "type": "FeatureCollection",
  "features": [
    {
      "type": "Feature",
      "properties": {
        "name": "Centro Histórico",
        "category": "Tourist",
        "osmType": "way",
        "osmId": 720325991,
        "stroke": "#f59e0b",
        "stroke-width": 2,
        "stroke-opacity": 0.95,
        "fill": "#f59e0b",
        "fill-opacity": 0.16
      },
      "geometry": {
        "type": "Polygon",
        "coordinates": [
          [
            [
              -98.2151104,
              19.0420633
            ],
            [
              -98.2135746,
              19.0411658
            ],
            [
              -98.2109725,
              19.0400279
            ],
            [
              -98.2091731,
              19.0430077
            ],
            [
              -98.2033424,
              19.0399031
            ],
            [
              -98.2041762,
              19.0384183
            ],
            [
              -98.2010869,
              19.0368557
            ],
            [
              -98.2001334,
              19.038345
            ],
            [
              -98.1987813,
              19.0376745
            ],
            [
              -98.197361,
              19.0399019
            ],
            [
              -98.1951262,
              19.0386672
            ],
            [
              -98.1955536,
              19.0379472
            ],
            [
              -98.1908827,
              19.0356124
            ],
            [
              -98.1892276,
              19.0387377
            ],
            [
              -98.1876456,
              19.0379749
            ],
            [
              -98.1873412,
              19.0385838
            ],
            [
              -98.1847894,
              19.0373191
            ],
            [
              -98.1825314,
              19.0432207
            ],
            [
              -98.1840162,
              19.0434577
            ],
            [
              -98.1849445,
              19.0439507
            ],
            [
              -98.1845393,
              19.0451365
            ],
            [
              -98.1840844,
              19.0458812
            ],
            [
              -98.1832656,
              19.0458078
            ],
            [
              -98.1822042,
              19.0461434
            ],
            [
              -98.1816754,
              19.0454092
            ],
            [
              -98.1794878,
              19.045852
            ],
            [
              -98.179276,
              19.0464982
            ],
            [
              -98.1781991,
              19.0462212
            ],
            [
              -98.1780493,
              19.0465928
            ],
            [
              -98.182482,
              19.0487648
            ],
            [
              -98.1818353,
              19.050054
            ],
            [
              -98.1813358,
              19.0499561
            ],
            [
              -98.1806017,
              19.0504144
            ],
            [
              -98.1803624,
              19.0512779
            ],
            [
              -98.1789692,
              19.0511559
            ],
            [
              -98.1782902,
              19.0513107
            ],
            [
              -98.1778041,
              19.0506559
            ],
            [
              -98.1774703,
              19.0508967
            ],
            [
              -98.1766808,
              19.0523272
            ],
            [
              -98.1767047,
              19.0532902
            ],
            [
              -98.1770811,
              19.0537692
            ],
            [
              -98.1777261,
              19.0539789
            ],
            [
              -98.1770469,
              19.0557173
            ],
            [
              -98.1796595,
              19.0600716
            ],
            [
              -98.1812419,
              19.059134
            ],
            [
              -98.1824802,
              19.061246
            ],
            [
              -98.1812003,
              19.0631733
            ],
            [
              -98.1813506,
              19.0635494
            ],
            [
              -98.1817589,
              19.0633931
            ],
            [
              -98.1816496,
              19.0631339
            ],
            [
              -98.1851973,
              19.0638144
            ],
            [
              -98.1862156,
              19.0602526
            ],
            [
              -98.1863992,
              19.0601383
            ],
            [
              -98.1873488,
              19.0606178
            ],
            [
              -98.1906387,
              19.0546306
            ],
            [
              -98.1918183,
              19.0529659
            ],
            [
              -98.1929018,
              19.0541548
            ],
            [
              -98.1931877,
              19.0549275
            ],
            [
              -98.1930887,
              19.0562592
            ],
            [
              -98.1935167,
              19.0564399
            ],
            [
              -98.1944077,
              19.0550029
            ],
            [
              -98.1955964,
              19.0562435
            ],
            [
              -98.1951126,
              19.0570848
            ],
            [
              -98.1970423,
              19.0583024
            ],
            [
              -98.1978146,
              19.0577182
            ],
            [
              -98.2010897,
              19.060328
            ],
            [
              -98.2028939,
              19.0574432
            ],
            [
              -98.2031636,
              19.0568418
            ],
            [
              -98.2029934,
              19.0567591
            ],
            [
              -98.2035804,
              19.0558217
            ],
            [
              -98.2051434,
              19.0565881
            ],
            [
              -98.2063912,
              19.0543516
            ],
            [
              -98.2077842,
              19.0550543
            ],
            [
              -98.2094817,
              19.0520947
            ],
            [
              -98.2111235,
              19.0529144
            ],
            [
              -98.2146335,
              19.0466079
            ],
            [
              -98.2130916,
              19.0457979
            ],
            [
              -98.2139566,
              19.0442787
            ],
            [
              -98.2151104,
              19.0420633
            ]
          ]
        ]
      }
    },
    {
      "type": "Feature",
      "properties": {
        "name": "Analco",
        "category": "Residential",
        "osmType": "relation",
        "osmId": 21217362,
        "stroke": "#0f766e",
        "stroke-width": 2,
        "stroke-opacity": 0.95,
        "fill": "#0f766e",
        "fill-opacity": 0.16
      },
      "geometry": {
        "type": "Polygon",
        "coordinates": [
          [
            [
              -98.1963077,
              19.038294
            ],
            [
              -98.1923992,
              19.0363453
            ],
            [
              -98.1920972,
              19.035067
            ],
            [
              -98.1913919,
              19.0345877
            ],
            [
              -98.1918209,
              19.0338094
            ],
            [
              -98.1914462,
              19.0336303
            ],
            [
              -98.1915317,
              19.0334504
            ],
            [
              -98.1911742,
              19.0325124
            ],
            [
              -98.1906609,
              19.032232
            ],
            [
              -98.1893103,
              19.0347606
            ],
            [
              -98.1908553,
              19.0355592
            ],
            [
              -98.1904146,
              19.03642
            ],
            [
              -98.188818,
              19.0356813
            ],
            [
              -98.1872913,
              19.0385733
            ],
            [
              -98.1930417,
              19.0415741
            ],
            [
              -98.1948236,
              19.0402777
            ],
            [
              -98.1945442,
              19.0400903
            ],
            [
              -98.1952071,
              19.0397563
            ],
            [
              -98.1958701,
              19.0390717
            ],
            [
              -98.1963077,
              19.038294
            ]
          ]
        ]
      }
    }
  ]
}
