{
  "type": "FeatureCollection",
  "features": [
    {
      "type": "Feature",
      "properties": {
        "name": "La Carolina",
        "category": "Tourist",
        "osmType": "R",
        "osmId": 10326498,
        "source": "https://www.openstreetmap.org/relation/10326498",
        "retrievedAt": "2026-09-24",
        "stroke": "#f59e0b",
        "stroke-width": 2,
        "stroke-opacity": 0.95,
        "fill": "#f59e0b",
        "fill-opacity": 0.16
      },
      "geometry": {
        "type": "Polygon",
        "coordinates": [
          [
            [
              -78.4920276,
              -0.1885059
            ],
            [
              -78.4898932,
              -0.1893626
            ],
            [
              -78.4882101,
              -0.1900139
            ],
            [
              -78.4881121,
              -0.1900576
            ],
            [
              -78.4880737,
              -0.1900747
            ],
            [
              -78.4878852,
              -0.1901588
            ],
            [
              -78.4877602,
              -0.1902821
            ],
            [
              -78.4871591,
              -0.1915517
            ],
            [
              -78.4861591,
              -0.1910131
            ],
            [
              -78.4858879,
              -0.1916284
            ],
            [
              -78.4856209,
              -0.1922407
            ],
            [
              -78.485348,
              -0.1928574
            ],
            [
              -78.4850773,
              -0.1934821
            ],
            [
              -78.4845414,
              -0.194716
            ],
            [
              -78.4835123,
              -0.1970587
            ],
            [
              -78.483204,
              -0.1965166
            ],
            [
              -78.4827798,
              -0.1956566
            ],
            [
              -78.4825023,
              -0.195088
            ],
            [
              -78.4823158,
              -0.1947025
            ],
            [
              -78.4820757,
              -0.1941907
            ],
            [
              -78.4818457,
              -0.1936912
            ],
            [
              -78.4811464,
              -0.1918956
            ],
            [
              -78.4808591,
              -0.191017
            ],
            [
              -78.4808705,
              -0.1908824
            ],
            [
              -78.4808927,
              -0.1907506
            ],
            [
              -78.4809936,
              -0.1904411
            ],
            [
              -78.4809913,
              -0.1904041
            ],
            [
              -78.4809699,
              -0.1900538
            ],
            [
              -78.4807203,
              -0.1895257
            ],
            [
              -78.4803168,
              -0.1886379
            ],
            [
              -78.4797302,
              -0.1873899
            ],
            [
              -78.4795656,
              -0.1869418
            ],
            [
              -78.4795549,
              -0.1869126
            ],
            [
              -78.4795469,
              -0.1868751
            ],
            [
              -78.4792822,
              -0.1856341
            ],
            [
              -78.4790558,
              -0.18448
            ],
            [
              -78.4789865,
              -0.184013
            ],
            [
              -78.4788396,
              -0.1830637
            ],
            [
              -78.4787373,
              -0.1821221
            ],
            [
              -78.4785709,
              -0.1809257
            ],
            [
              -78.4783444,
              -0.1794591
            ],
            [
              -78.4782522,
              -0.1789261
            ],
            [
              -78.4781337,
              -0.1781606
            ],
            [
              -78.4779771,
              -0.1773865
            ],
            [
              -78.4779723,
              -0.177363
            ],
            [
              -78.4810132,
              -0.1767596
            ],
            [
              -78.4837514,
              -0.1762027
            ],
            [
              -78.4855912,
              -0.1758506
            ],
            [
              -78.4882888,
              -0.1753464
            ],
            [
              -78.4887506,
              -0.177808
            ],
            [
              -78.4889611,
              -0.1789428
            ],
            [
              -78.4899637,
              -0.1822203
            ],
            [
              -78.4903576,
              -0.1834089
            ],
            [
              -78.4906297,
              -0.1843694
            ],
            [
              -78.4909562,
              -0.1854625
            ],
            [
              -78.4914996,
              -0.1872713
            ],
            [
              -78.4920276,
              -0.1885059
            ]
          ]
        ]
      }
    },
    {
      "type": "Feature",
      "properties": {
        "name": "Cumbayá",
        "category": "Residential",
        "osmType": "R",
        "osmId": 2673307,
        "source": "https://www.openstreetmap.org/relation/2673307",
        "retrievedAt": "2026-09-24",
        "stroke": "#0f766e",
        "stroke-width": 2,
        "stroke-opacity": 0.95,
        "fill": "#0f766e",
        "fill-opacity": 0.16
      },
      "geometry": {
        "type": "Polygon",
        "coordinates": [
          [
            [
              -78.473073,
              -0.2362287
            ],
            [
              -78.4722171,
              -0.2363436
            ],
            [
              -78.4718668,
              -0.2365562
            ],
            [
              -78.4718295,
              -0.236586
            ],
            [
              -78.4716812,
              -0.2367033
            ],
            [
              -78.4714876,
              -0.2368585
            ],
            [
              -78.4714876,
              -0.2371185
            ],
            [
              -78.4713,
              -0.2373127
            ],
            [
              -78.4711716,
              -0.2376518
            ],
            [
              -78.4707997,
              -0.2381257
            ],
            [
              -78.4705397,
              -0.2382343
            ],
            [
              -78.4703521,
              -0.2385437
            ],
            [
              -78.4701743,
              -0.2385931
            ],
            [
              -78.4699011,
              -0.2385964
            ],
            [
              -78.4696675,
              -0.2387511
            ],
            [
              -78.4695848,
              -0.2387772
            ],
            [
              -78.4693449,
              -0.2388531
            ],
            [
              -78.4689466,
              -0.2389354
            ],
            [
              -78.4687853,
              -0.2390868
            ],
            [
              -78.4687229,
              -0.2391003
            ],
            [
              -78.4685879,
              -0.2391296
            ],
            [
              -78.4685177,
              -0.2391127
            ],
            [
              -78.4684101,
              -0.2390868
            ],
            [
              -78.4680876,
              -0.239123
            ],
            [
              -78.4679263,
              -0.2391823
            ],
            [
              -78.4678048,
              -0.2391832
            ],
            [
              -78.4676892,
              -0.2391841
            ],
            [
              -78.4676549,
              -0.239178
            ],
            [
              -78.4673832,
              -0.2391296
            ],
            [
              -78.4671067,
              -0.2393073
            ],
            [
              -78.4667841,
              -0.2392086
            ],
            [
              -78.466511,
              -0.2393534
            ],
            [
              -78.4662937,
              -0.2393436
            ],
            [
              -78.4660074,
              -0.2394653
            ],
            [
              -78.4656834,
              -0.2397092
            ],
            [
              -78.4653839,
              -0.2398211
            ],
            [
              -78.4650383,
              -0.2398047
            ],
            [
              -78.464719,
              -0.2398541
            ],
            [
              -78.4644721,
              -0.2400516
            ],
            [
              -78.4639949,
              -0.2402589
            ],
            [
              -78.4636558,
              -0.2404103
            ],
            [
              -78.4632707,
              -0.2404432
            ],
            [
              -78.4630041,
              -0.2406572
            ],
            [
              -78.4627375,
              -0.2406934
            ],
            [
              -78.462652,
              -0.2409238
            ],
            [
              -78.4625433,
              -0.2409764
            ],
            [
              -78.4623821,
              -0.2409369
            ],
            [
              -78.4622537,
              -0.2410423
            ],
            [
              -78.4621582,
              -0.2412134
            ],
            [
              -78.4619805,
              -0.2412924
            ],
            [
              -78.4615296,
              -0.2413418
            ],
            [
              -78.4614177,
              -0.2415162
            ],
            [
              -78.4612531,
              -0.2415854
            ],
            [
              -78.4610769,
              -0.2415727
            ],
            [
              -78.4609961,
              -0.2416198
            ],
            [
              -78.460939,
              -0.2418115
            ],
            [
              -78.4607371,
              -0.2418788
            ],
            [
              -78.4606463,
              -0.2420167
            ],
            [
              -78.4605925,
              -0.242205
            ],
            [
              -78.4604411,
              -0.242306
            ],
            [
              -78.4602763,
              -0.2423497
            ],
            [
              -78.4602158,
              -0.2424775
            ],
            [
              -78.460209,
              -0.2426457
            ],
            [
              -78.4600778,
              -0.2429215
            ],
            [
              -78.4598323,
              -0.2431132
            ],
            [
              -78.4599231,
              -0.2432142
            ],
            [
              -78.4600812,
              -0.2433083
            ],
            [
              -78.460098,
              -0.2434698
            ],
            [
              -78.4599769,
              -0.2436683
            ],
            [
              -78.4598188,
              -0.2437591
            ],
            [
              -78.4595935,
              -0.2438633
            ],
            [
              -78.4593365,
              -0.2440981
            ],
            [
              -78.459168,
              -0.2441256
            ],
            [
              -78.459034,
              -0.2440603
            ],
            [
              -78.4588861,
              -0.2441703
            ],
            [
              -78.4587796,
              -0.2443422
            ],
            [
              -78.458728,
              -0.2447065
            ],
            [
              -78.4585561,
              -0.2448819
            ],
            [
              -78.4583602,
              -0.2449781
            ],
            [
              -78.4582055,
              -0.244985
            ],
            [
              -78.4581643,
              -0.2451534
            ],
            [
              -78.4580371,
              -0.2453287
            ],
            [
              -78.4576968,
              -0.2456106
            ],
            [
              -78.4572808,
              -0.2457894
            ],
            [
              -78.4570368,
              -0.2459647
            ],
            [
              -78.4569715,
              -0.2461331
            ],
            [
              -78.4566827,
              -0.2462465
            ],
            [
              -78.4564971,
              -0.2462397
            ],
            [
              -78.4563183,
              -0.2462981
            ],
            [
              -78.4562908,
              -0.2464665
            ],
            [
              -78.4563458,
              -0.24669
            ],
            [
              -78.4562416,
              -0.2468234
            ],
            [
              -78.456174,
              -0.24691
            ],
            [
              -78.455868,
              -0.2470097
            ],
            [
              -78.4551049,
              -0.2468722
            ],
            [
              -78.454799,
              -0.2468825
            ],
            [
              -78.4545996,
              -0.2467622
            ],
            [
              -78.4543796,
              -0.2466969
            ],
            [
              -78.4541424,
              -0.2467072
            ],
            [
              -78.453919,
              -0.2468378
            ],
            [
              -78.4536611,
              -0.2468722
            ],
            [
              -78.4531833,
              -0.2470922
            ],
            [
              -78.4527571,
              -0.2471128
            ],
            [
              -78.4524076,
              -0.2471052
            ],
            [
              -78.4523152,
              -0.2468993
            ],
            [
              -78.4498336,
              -0.2459939
            ],
            [
              -78.4475513,
              -0.244156
            ],
            [
              -78.447414,
              -0.2437342
            ],
            [
              -78.447167,
              -0.2435372
            ],
            [
              -78.4459486,
              -0.2423588
            ],
            [
              -78.4459102,
              -0.2422083
            ],
            [
              -78.4465409,
              -0.2407816
            ],
            [
              -78.4458739,
              -0.2394083
            ],
            [
              -78.4448243,
              -0.2390649
            ],
            [
              -78.4440591,
              -0.2396045
            ],
            [
              -78.4436962,
              -0.2392906
            ],
            [
              -78.443549,
              -0.2383587
            ],
            [
              -78.4439236,
              -0.2375506
            ],
            [
              -78.4439783,
              -0.2371428
            ],
            [
              -78.4436631,
              -0.2369751
            ],
            [
              -78.4434363,
              -0.2370633
            ],
            [
              -78.4427999,
              -0.2369191
            ],
            [
              -78.4423723,
              -0.2367252
            ],
            [
              -78.442069,
              -0.2363175
            ],
            [
              -78.4417508,
              -0.236044
            ],
            [
              -78.4405625,
              -0.2354424
            ],
            [
              -78.4403138,
              -0.2352236
            ],
            [
              -78.4402492,
              -0.2347712
            ],
            [
              -78.4403188,
              -0.2334138
            ],
            [
              -78.4401945,
              -0.2331851
            ],
            [
              -78.4398465,
              -0.232663
            ],
            [
              -78.4392525,
              -0.2320414
            ],
            [
              -78.4384592,
              -0.2318178
            ],
            [
              -78.437061,
              -0.2314338
            ],
            [
              -78.4369522,
              -0.2313097
            ],
            [
              -78.4368907,
              -0.2311702
            ],
            [
              -78.4366922,
              -0.2306877
            ],
            [
              -78.4363523,
              -0.2302592
            ],
            [
              -78.4359841,
              -0.2299843
            ],
            [
              -78.4354659,
              -0.2302403
            ],
            [
              -78.4349921,
              -0.2306182
            ],
            [
              -78.4339358,
              -0.2316
            ],
            [
              -78.4328469,
              -0.2319335
            ],
            [
              -78.4312087,
              -0.2306779
            ],
            [
              -78.431709,
              -0.2304033
            ],
            [
              -78.4318021,
              -0.2298861
            ],
            [
              -78.4316227,
              -0.2292453
            ],
            [
              -78.4309703,
              -0.2279025
            ],
            [
              -78.4300241,
              -0.2269884
            ],
            [
              -78.4298676,
              -0.2266048
            ],
            [
              -78.4299204,
              -0.2262158
            ],
            [
              -78.4300143,
              -0.2260752
            ],
            [
              -78.4301598,
              -0.2258576
            ],
            [
              -78.4301907,
              -0.2258307
            ],
            [
              -78.4307155,
              -0.2253747
            ],
            [
              -78.4317042,
              -0.2243861
            ],
            [
              -78.4314188,
              -0.2239886
            ],
            [
              -78.4312567,
              -0.2233522
            ],
            [
              -78.4310621,
              -0.222796
            ],
            [
              -78.4304976,
              -0.222554
            ],
            [
              -78.4300938,
              -0.2223985
            ],
            [
              -78.4301945,
              -0.2221184
            ],
            [
              -78.4302365,
              -0.2218379
            ],
            [
              -78.4300836,
              -0.2210735
            ],
            [
              -78.4295026,
              -0.2209716
            ],
            [
              -78.4291357,
              -0.2205741
            ],
            [
              -78.429186,
              -0.220037
            ],
            [
              -78.4291255,
              -0.2195956
            ],
            [
              -78.4288105,
              -0.2192538
            ],
            [
              -78.4285241,
              -0.2189636
            ],
            [
              -78.4282982,
              -0.2191851
            ],
            [
              -78.4276416,
              -0.2196615
            ],
            [
              -78.427073,
              -0.2201121
            ],
            [
              -78.4268691,
              -0.2203911
            ],
            [
              -78.4266181,
              -0.2205027
            ],
            [
              -78.4260451,
              -0.2205262
            ],
            [
              -78.4254872,
              -0.2205799
            ],
            [
              -78.4249487,
              -0.2206485
            ],
            [
              -78.4246577,
              -0.2205878
            ],
            [
              -78.4246119,
              -0.2204681
            ],
            [
              -78.4246482,
              -0.2202301
            ],
            [
              -78.4247663,
              -0.219801
            ],
            [
              -78.4248242,
              -0.2196058
            ],
            [
              -78.4247555,
              -0.2192645
            ],
            [
              -78.4246407,
              -0.2190248
            ],
            [
              -78.424468,
              -0.2189598
            ],
            [
              -78.4242024,
              -0.2188923
            ],
            [
              -78.4237706,
              -0.2188096
            ],
            [
              -78.4232556,
              -0.2188526
            ],
            [
              -78.4226205,
              -0.2188998
            ],
            [
              -78.4223168,
              -0.2189331
            ],
            [
              -78.421966,
              -0.2185564
            ],
            [
              -78.4215583,
              -0.2181702
            ],
            [
              -78.4213485,
              -0.2177507
            ],
            [
              -78.4215262,
              -0.2175265
            ],
            [
              -78.4219553,
              -0.217269
            ],
            [
              -78.422599,
              -0.2167326
            ],
            [
              -78.4228264,
              -0.2164155
            ],
            [
              -78.4228243,
              -0.2160781
            ],
            [
              -78.4226634,
              -0.2153378
            ],
            [
              -78.422643,
              -0.2147949
            ],
            [
              -78.4228351,
              -0.21434
            ],
            [
              -78.4230282,
              -0.2138572
            ],
            [
              -78.423122,
              -0.213531
            ],
            [
              -78.4232535,
              -0.2131062
            ],
            [
              -78.4233179,
              -0.2125698
            ],
            [
              -78.4232953,
              -0.211839
            ],
            [
              -78.4230638,
              -0.2111626
            ],
            [
              -78.4230926,
              -0.2106499
            ],
            [
              -78.4230711,
              -0.2097809
            ],
            [
              -78.4229456,
              -0.209216
            ],
            [
              -78.4227814,
              -0.2087294
            ],
            [
              -78.4226078,
              -0.2081689
            ],
            [
              -78.4223952,
              -0.2078282
            ],
            [
              -78.42216,
              -0.2073984
            ],
            [
              -78.4218695,
              -0.2074742
            ],
            [
              -78.4211099,
              -0.2076732
            ],
            [
              -78.4204125,
              -0.2079629
            ],
            [
              -78.4201134,
              -0.2080408
            ],
            [
              -78.4194233,
              -0.2078068
            ],
            [
              -78.4189942,
              -0.2075493
            ],
            [
              -78.4186691,
              -0.2073549
            ],
            [
              -78.4185006,
              -0.2069485
            ],
            [
              -78.4184041,
              -0.2065944
            ],
            [
              -78.4183506,
              -0.20639
            ],
            [
              -78.4184577,
              -0.2060472
            ],
            [
              -78.418801,
              -0.2053391
            ],
            [
              -78.4190371,
              -0.2048349
            ],
            [
              -78.4191187,
              -0.2047038
            ],
            [
              -78.4191658,
              -0.2042877
            ],
            [
              -78.4191375,
              -0.2038233
            ],
            [
              -78.4185473,
              -0.2040856
            ],
            [
              -78.4177417,
              -0.20402
            ],
            [
              -78.4174794,
              -0.2037765
            ],
            [
              -78.4177174,
              -0.2036118
            ],
            [
              -78.4179478,
              -0.2034861
            ],
            [
              -78.4178635,
              -0.2030551
            ],
            [
              -78.4175994,
              -0.2027642
            ],
            [
              -78.4173634,
              -0.2026248
            ],
            [
              -78.4171047,
              -0.2025868
            ],
            [
              -78.4165265,
              -0.2027535
            ],
            [
              -78.4161639,
              -0.2029203
            ],
            [
              -78.4158681,
              -0.2030458
            ],
            [
              -78.4156897,
              -0.2029574
            ],
            [
              -78.4155895,
              -0.2027969
            ],
            [
              -78.4154858,
              -0.2023136
            ],
            [
              -78.4154279,
              -0.2018374
            ],
            [
              -78.415282,
              -0.201348
            ],
            [
              -78.415003,
              -0.2008974
            ],
            [
              -78.4147066,
              -0.2006102
            ],
            [
              -78.4141662,
              -0.2004361
            ],
            [
              -78.413501,
              -0.2000928
            ],
            [
              -78.4133716,
              -0.2000256
            ],
            [
              -78.413293,
              -0.1999063
            ],
            [
              -78.4136941,
              -0.1994705
            ],
            [
              -78.4146376,
              -0.1990936
            ],
            [
              -78.4146663,
              -0.1989193
            ],
            [
              -78.41443,
              -0.1986441
            ],
            [
              -78.41398,
              -0.1984445
            ],
            [
              -78.413737,
              -0.1979792
            ],
            [
              -78.4135492,
              -0.1974
            ],
            [
              -78.413104,
              -0.1970673
            ],
            [
              -78.4128237,
              -0.1967882
            ],
            [
              -78.4126341,
              -0.1968049
            ],
            [
              -78.4123553,
              -0.1968913
            ],
            [
              -78.4121513,
              -0.1970732
            ],
            [
              -78.4118869,
              -0.1972004
            ],
            [
              -78.4115162,
              -0.1971531
            ],
            [
              -78.4110548,
              -0.1970673
            ],
            [
              -78.4108283,
              -0.197013
            ],
            [
              -78.4104561,
              -0.1973414
            ],
            [
              -78.4101665,
              -0.1976203
            ],
            [
              -78.409929,
              -0.1978655
            ],
            [
              -78.4095657,
              -0.1980173
            ],
            [
              -78.4091,
              -0.1981612
            ],
            [
              -78.4089461,
              -0.1981227
            ],
            [
              -78.4087159,
              -0.198065
            ],
            [
              -78.4086574,
              -0.1978088
            ],
            [
              -78.4087524,
              -0.197488
            ],
            [
              -78.4086867,
              -0.1971487
            ],
            [
              -78.4083726,
              -0.196563
            ],
            [
              -78.4080462,
              -0.1961569
            ],
            [
              -78.4077448,
              -0.1959368
            ],
            [
              -78.40754,
              -0.1956094
            ],
            [
              -78.4074392,
              -0.1950288
            ],
            [
              -78.407354,
              -0.1945969
            ],
            [
              -78.4074499,
              -0.1940096
            ],
            [
              -78.407447,
              -0.1935844
            ],
            [
              -78.4071388,
              -0.1930547
            ],
            [
              -78.4069097,
              -0.1928819
            ],
            [
              -78.4064757,
              -0.193007
            ],
            [
              -78.4060316,
              -0.1931712
            ],
            [
              -78.4058084,
              -0.1934195
            ],
            [
              -78.4054014,
              -0.1936361
            ],
            [
              -78.4049955,
              -0.1937436
            ],
            [
              -78.4046885,
              -0.1937807
            ],
            [
              -78.4047505,
              -0.1931402
            ],
            [
              -78.4037935,
              -0.1930713
            ],
            [
              -78.4032013,
              -0.193044
            ],
            [
              -78.4025809,
              -0.1929129
            ],
            [
              -78.4022606,
              -0.1922104
            ],
            [
              -78.4027978,
              -0.1916938
            ],
            [
              -78.403645,
              -0.1920967
            ],
            [
              -78.4044302,
              -0.1916525
            ],
            [
              -78.4051121,
              -0.1914975
            ],
            [
              -78.4055976,
              -0.1910739
            ],
            [
              -78.4053685,
              -0.1903618
            ],
            [
              -78.405236,
              -0.1897205
            ],
            [
              -78.4049286,
              -0.1891494
            ],
            [
              -78.4047355,
              -0.1886344
            ],
            [
              -78.4045748,
              -0.1883878
            ],
            [
              -78.4051121,
              -0.1881191
            ],
            [
              -78.40539,
              -0.1883019
            ],
            [
              -78.4058766,
              -0.1886047
            ],
            [
              -78.4063561,
              -0.188691
            ],
            [
              -78.4068079,
              -0.1887267
            ],
            [
              -78.4070386,
              -0.1886385
            ],
            [
              -78.4071954,
              -0.1884215
            ],
            [
              -78.4071286,
              -0.1881808
            ],
            [
              -78.4068598,
              -0.1877869
            ],
            [
              -78.406538,
              -0.1873684
            ],
            [
              -78.4064035,
              -0.187055
            ],
            [
              -78.4066453,
              -0.18695
            ],
            [
              -78.4068581,
              -0.1868587
            ],
            [
              -78.4069886,
              -0.1871217
            ],
            [
              -78.4069614,
              -0.187365
            ],
            [
              -78.4074821,
              -0.187347
            ],
            [
              -78.4076949,
              -0.187303
            ],
            [
              -78.4082224,
              -0.1867676
            ],
            [
              -78.4084078,
              -0.1864558
            ],
            [
              -78.4079649,
              -0.1861346
            ],
            [
              -78.4076019,
              -0.1858669
            ],
            [
              -78.4071817,
              -0.1852978
            ],
            [
              -78.4069135,
              -0.1849867
            ],
            [
              -78.4066515,
              -0.1845858
            ],
            [
              -78.4064521,
              -0.1839245
            ],
            [
              -78.4061088,
              -0.1831628
            ],
            [
              -78.4057762,
              -0.1825941
            ],
            [
              -78.4056803,
              -0.1821786
            ],
            [
              -78.4060766,
              -0.1820684
            ],
            [
              -78.4068064,
              -0.181941
            ],
            [
              -78.4071924,
              -0.1819933
            ],
            [
              -78.4076639,
              -0.18191
            ],
            [
              -78.4079113,
              -0.181532
            ],
            [
              -78.4082218,
              -0.1807426
            ],
            [
              -78.4082117,
              -0.1798368
            ],
            [
              -78.408289,
              -0.1793909
            ],
            [
              -78.4087588,
              -0.1789785
            ],
            [
              -78.4091648,
              -0.1787384
            ],
            [
              -78.409637,
              -0.17885
            ],
            [
              -78.409703,
              -0.1791717
            ],
            [
              -78.4099804,
              -0.1795626
            ],
            [
              -78.4102609,
              -0.1795579
            ],
            [
              -78.4105385,
              -0.1795283
            ],
            [
              -78.4108939,
              -0.1789034
            ],
            [
              -78.4115376,
              -0.1781524
            ],
            [
              -78.4118702,
              -0.1775945
            ],
            [
              -78.4121011,
              -0.177253
            ],
            [
              -78.4119208,
              -0.1767636
            ],
            [
              -78.4112157,
              -0.1765431
            ],
            [
              -78.4109249,
              -0.1763601
            ],
            [
              -78.4110012,
              -0.1759638
            ],
            [
              -78.411234,
              -0.1756904
            ],
            [
              -78.4121062,
              -0.1753951
            ],
            [
              -78.4125998,
              -0.1753737
            ],
            [
              -78.4129597,
              -0.1753384
            ],
            [
              -78.4133461,
              -0.1756046
            ],
            [
              -78.4132993,
              -0.175916
            ],
            [
              -78.4130289,
              -0.1763071
            ],
            [
              -78.4129254,
              -0.176549
            ],
            [
              -78.412986,
              -0.1768864
            ],
            [
              -78.4131057,
              -0.1773131
            ],
            [
              -78.4134577,
              -0.1775106
            ],
            [
              -78.4138011,
              -0.1770556
            ],
            [
              -78.4146082,
              -0.1770899
            ],
            [
              -78.415235,
              -0.1774333
            ],
            [
              -78.4134978,
              -0.1777414
            ],
            [
              -78.4134657,
              -0.1788906
            ],
            [
              -78.413705,
              -0.1792918
            ],
            [
              -78.4137509,
              -0.1795086
            ],
            [
              -78.4132142,
              -0.1808439
            ],
            [
              -78.4132686,
              -0.1813416
            ],
            [
              -78.4136027,
              -0.1817601
            ],
            [
              -78.4138704,
              -0.1820106
            ],
            [
              -78.4139973,
              -0.1823017
            ],
            [
              -78.413862,
              -0.1825817
            ],
            [
              -78.41339,
              -0.1830684
            ],
            [
              -78.4132903,
              -0.1832905
            ],
            [
              -78.4135662,
              -0.1838304
            ],
            [
              -78.4135913,
              -0.1840953
            ],
            [
              -78.4132921,
              -0.184704
            ],
            [
              -78.4133578,
              -0.1849301
            ],
            [
              -78.4135113,
              -0.1851111
            ],
            [
              -78.4138432,
              -0.1851624
            ],
            [
              -78.4144654,
              -0.1850023
            ],
            [
              -78.4146946,
              -0.1850028
            ],
            [
              -78.4153197,
              -0.1857303
            ],
            [
              -78.4161291,
              -0.1856483
            ],
            [
              -78.41651,
              -0.1855186
            ],
            [
              -78.4178915,
              -0.185054
            ],
            [
              -78.4190878,
              -0.1854119
            ],
            [
              -78.4196457,
              -0.1854205
            ],
            [
              -78.4204019,
              -0.1858225
            ],
            [
              -78.4211089,
              -0.1852897
            ],
            [
              -78.4210166,
              -0.1846237
            ],
            [
              -78.4214053,
              -0.1846137
            ],
            [
              -78.4218859,
              -0.1844421
            ],
            [
              -78.4224696,
              -0.1845708
            ],
            [
              -78.4233528,
              -0.1843163
            ],
            [
              -78.4240906,
              -0.1849823
            ],
            [
              -78.4245516,
              -0.1849413
            ],
            [
              -78.424941,
              -0.1852999
            ],
            [
              -78.4258084,
              -0.1851115
            ],
            [
              -78.426273,
              -0.1850847
            ],
            [
              -78.426289,
              -0.1856265
            ],
            [
              -78.426437,
              -0.1860376
            ],
            [
              -78.4267853,
              -0.1861076
            ],
            [
              -78.427299,
              -0.1858809
            ],
            [
              -78.4278504,
              -0.185473
            ],
            [
              -78.4284699,
              -0.1856845
            ],
            [
              -78.4289836,
              -0.185541
            ],
            [
              -78.4292858,
              -0.1860018
            ],
            [
              -78.4301621,
              -0.1862813
            ],
            [
              -78.4306179,
              -0.1856134
            ],
            [
              -78.4307438,
              -0.1856467
            ],
            [
              -78.4310006,
              -0.1861604
            ],
            [
              -78.4310157,
              -0.1866288
            ],
            [
              -78.4316792,
              -0.1867681
            ],
            [
              -78.4319223,
              -0.1868857
            ],
            [
              -78.4323052,
              -0.1869161
            ],
            [
              -78.4325478,
              -0.1869266
            ],
            [
              -78.4326974,
              -0.1870746
            ],
            [
              -78.4327119,
              -0.1872973
            ],
            [
              -78.432436,
              -0.187981
            ],
            [
              -78.4325569,
              -0.188253
            ],
            [
              -78.4327778,
              -0.1883044
            ],
            [
              -78.4330554,
              -0.1882832
            ],
            [
              -78.4333803,
              -0.1879735
            ],
            [
              -78.4335587,
              -0.1880396
            ],
            [
              -78.4336224,
              -0.1881678
            ],
            [
              -78.433783,
              -0.1891365
            ],
            [
              -78.4338525,
              -0.1892602
            ],
            [
              -78.4339653,
              -0.1893462
            ],
            [
              -78.4342635,
              -0.1891833
            ],
            [
              -78.4345637,
              -0.1890774
            ],
            [
              -78.4347636,
              -0.1890596
            ],
            [
              -78.4349181,
              -0.1891525
            ],
            [
              -78.4349643,
              -0.189422
            ],
            [
              -78.4348986,
              -0.1897063
            ],
            [
              -78.4349258,
              -0.1898957
            ],
            [
              -78.4350438,
              -0.1900338
            ],
            [
              -78.4355796,
              -0.1898113
            ],
            [
              -78.4358038,
              -0.1897917
            ],
            [
              -78.4359343,
              -0.1898718
            ],
            [
              -78.436031,
              -0.1901614
            ],
            [
              -78.4360396,
              -0.1904038
            ],
            [
              -78.4361504,
              -0.1906774
            ],
            [
              -78.436447,
              -0.1909024
            ],
            [
              -78.4367141,
              -0.1909869
            ],
            [
              -78.4370059,
              -0.1910757
            ],
            [
              -78.4372654,
              -0.1911647
            ],
            [
              -78.4374366,
              -0.1911164
            ],
            [
              -78.4376561,
              -0.1910818
            ],
            [
              -78.4379809,
              -0.1910989
            ],
            [
              -78.438129,
              -0.1912622
            ],
            [
              -78.4381991,
              -0.1914938
            ],
            [
              -78.4382651,
              -0.1917633
            ],
            [
              -78.4383839,
              -0.1918442
            ],
            [
              -78.4386055,
              -0.1919072
            ],
            [
              -78.4387547,
              -0.1917349
            ],
            [
              -78.4388538,
              -0.1916787
            ],
            [
              -78.4389553,
              -0.1917273
            ],
            [
              -78.4392365,
              -0.1922556
            ],
            [
              -78.4393894,
              -0.1923186
            ],
            [
              -78.4398406,
              -0.1923259
            ],
            [
              -78.4399628,
              -0.1923834
            ],
            [
              -78.4399742,
              -0.192556
            ],
            [
              -78.4398007,
              -0.1930096
            ],
            [
              -78.4398457,
              -0.1931574
            ],
            [
              -78.4400131,
              -0.1932763
            ],
            [
              -78.4403136,
              -0.1932262
            ],
            [
              -78.4406213,
              -0.1932383
            ],
            [
              -78.4408023,
              -0.193323
            ],
            [
              -78.4409795,
              -0.1935656
            ],
            [
              -78.4410449,
              -0.1938121
            ],
            [
              -78.4411605,
              -0.1938429
            ],
            [
              -78.4416303,
              -0.193735
            ],
            [
              -78.441765,
              -0.1937427
            ],
            [
              -78.4418918,
              -0.1938298
            ],
            [
              -78.442099,
              -0.1944069
            ],
            [
              -78.4423149,
              -0.1946116
            ],
            [
              -78.4425463,
              -0.1946987
            ],
            [
              -78.4428322,
              -0.1946797
            ],
            [
              -78.4432053,
              -0.1945245
            ],
            [
              -78.443306,
              -0.1943938
            ],
            [
              -78.4434016,
              -0.1943232
            ],
            [
              -78.443532,
              -0.1943584
            ],
            [
              -78.443641,
              -0.1944782
            ],
            [
              -78.4439393,
              -0.1949722
            ],
            [
              -78.4441202,
              -0.1950745
            ],
            [
              -78.444412,
              -0.1950956
            ],
            [
              -78.4444851,
              -0.1950309
            ],
            [
              -78.4444415,
              -0.194617
            ],
            [
              -78.4446424,
              -0.1942213
            ],
            [
              -78.4449497,
              -0.1940383
            ],
            [
              -78.4452481,
              -0.1940626
            ],
            [
              -78.4454926,
              -0.1942222
            ],
            [
              -78.4457327,
              -0.1945957
            ],
            [
              -78.4461375,
              -0.1950454
            ],
            [
              -78.4463767,
              -0.1951184
            ],
            [
              -78.4464533,
              -0.1950097
            ],
            [
              -78.4463893,
              -0.1948632
            ],
            [
              -78.4463148,
              -0.1946569
            ],
            [
              -78.446386,
              -0.1943728
            ],
            [
              -78.4467588,
              -0.1940923
            ],
            [
              -78.4472044,
              -0.1939984
            ],
            [
              -78.4478428,
              -0.193998
            ],
            [
              -78.4480721,
              -0.1941334
            ],
            [
              -78.4484293,
              -0.194455
            ],
            [
              -78.4487107,
              -0.1947519
            ],
            [
              -78.4489737,
              -0.1952575
            ],
            [
              -78.4492404,
              -0.195329
            ],
            [
              -78.4495882,
              -0.1950335
            ],
            [
              -78.4498925,
              -0.194879
            ],
            [
              -78.4502095,
              -0.1949018
            ],
            [
              -78.4503765,
              -0.1950388
            ],
            [
              -78.4502828,
              -0.195512
            ],
            [
              -78.4502708,
              -0.195855
            ],
            [
              -78.4504374,
              -0.1960087
            ],
            [
              -78.4509774,
              -0.19602
            ],
            [
              -78.451525,
              -0.1964686
            ],
            [
              -78.4517916,
              -0.1966132
            ],
            [
              -78.4521758,
              -0.196557
            ],
            [
              -78.4525813,
              -0.196291
            ],
            [
              -78.4530192,
              -0.1964164
            ],
            [
              -78.4532031,
              -0.1965689
            ],
            [
              -78.4534175,
              -0.1965195
            ],
            [
              -78.453705,
              -0.1960377
            ],
            [
              -78.4538673,
              -0.1956807
            ],
            [
              -78.4541088,
              -0.195488
            ],
            [
              -78.4545762,
              -0.1955172
            ],
            [
              -78.4553943,
              -0.1964374
            ],
            [
              -78.456405,
              -0.1965291
            ],
            [
              -78.4570489,
              -0.197924
            ],
            [
              -78.4572068,
              -0.198266
            ],
            [
              -78.4572271,
              -0.1994507
            ],
            [
              -78.4569249,
              -0.2000897
            ],
            [
              -78.456657,
              -0.2004112
            ],
            [
              -78.4565599,
              -0.2007125
            ],
            [
              -78.4565599,
              -0.201026
            ],
            [
              -78.4566898,
              -0.2013529
            ],
            [
              -78.4569361,
              -0.2016619
            ],
            [
              -78.4592887,
              -0.2038382
            ],
            [
              -78.4596528,
              -0.2043735
            ],
            [
              -78.4599552,
              -0.2049055
            ],
            [
              -78.4612169,
              -0.2074195
            ],
            [
              -78.4615988,
              -0.2085942
            ],
            [
              -78.4623493,
              -0.2111024
            ],
            [
              -78.4625805,
              -0.2115457
            ],
            [
              -78.4635812,
              -0.2126256
            ],
            [
              -78.4638441,
              -0.213202
            ],
            [
              -78.4641006,
              -0.2147158
            ],
            [
              -78.464354,
              -0.2152573
            ],
            [
              -78.46481,
              -0.215783
            ],
            [
              -78.4657854,
              -0.2169167
            ],
            [
              -78.4660514,
              -0.2174298
            ],
            [
              -78.4667697,
              -0.21945
            ],
            [
              -78.4670066,
              -0.2202896
            ],
            [
              -78.4671593,
              -0.2208307
            ],
            [
              -78.4680052,
              -0.2225757
            ],
            [
              -78.4688624,
              -0.2248418
            ],
            [
              -78.4690137,
              -0.2254217
            ],
            [
              -78.4692595,
              -0.2270038
            ],
            [
              -78.4692469,
              -0.2277507
            ],
            [
              -78.4690768,
              -0.2287876
            ],
            [
              -78.4690768,
              -0.2291123
            ],
            [
              -78.4691902,
              -0.2294999
            ],
            [
              -78.4694613,
              -0.2299033
            ],
            [
              -78.4701672,
              -0.2308267
            ],
            [
              -78.4705423,
              -0.231413
            ],
            [
              -78.4710276,
              -0.2323143
            ],
            [
              -78.4711915,
              -0.2327335
            ],
            [
              -78.4712545,
              -0.2332125
            ],
            [
              -78.4712104,
              -0.2336916
            ],
            [
              -78.4709835,
              -0.234489
            ],
            [
              -78.4710024,
              -0.2347285
            ],
            [
              -78.4711127,
              -0.2350279
            ],
            [
              -78.4714625,
              -0.2353557
            ],
            [
              -78.4724143,
              -0.2356393
            ],
            [
              -78.4727831,
              -0.2358442
            ],
            [
              -78.473073,
              -0.2362287
            ]
          ]
        ]
      }
    },
    {
      "type": "Feature",
      "properties": {
        "name": "La Floresta",
        "category": "Hip",
        "osmType": "W",
        "osmId": 510571791,
        "source": "https://www.openstreetmap.org/way/510571791",
        "retrievedAt": "2026-09-24",
        "stroke": "#f43f5e",
        "stroke-width": 2,
        "stroke-opacity": 0.95,
        "fill": "#f43f5e",
        "fill-opacity": 0.16
      },
      "geometry": {
        "type": "Polygon",
        "coordinates": [
          [
            [
              -78.4938681,
              -0.2103771
            ],
            [
              -78.4928891,
              -0.2114539
            ],
            [
              -78.4916748,
              -0.2124661
            ],
            [
              -78.4905307,
              -0.2126273
            ],
            [
              -78.4886433,
              -0.2127424
            ],
            [
              -78.4866172,
              -0.212932
            ],
            [
              -78.4846453,
              -0.2124021
            ],
            [
              -78.4841506,
              -0.2121809
            ],
            [
              -78.4838596,
              -0.2120508
            ],
            [
              -78.4824932,
              -0.2111356
            ],
            [
              -78.4813301,
              -0.2119584
            ],
            [
              -78.4811412,
              -0.2120758
            ],
            [
              -78.4801698,
              -0.2137678
            ],
            [
              -78.4794464,
              -0.2140758
            ],
            [
              -78.4793188,
              -0.2146611
            ],
            [
              -78.4787744,
              -0.2147257
            ],
            [
              -78.4783974,
              -0.2144869
            ],
            [
              -78.4783445,
              -0.2136774
            ],
            [
              -78.47862,
              -0.2124592
            ],
            [
              -78.4785267,
              -0.2118963
            ],
            [
              -78.4779034,
              -0.2118388
            ],
            [
              -78.4772993,
              -0.2108461
            ],
            [
              -78.4764063,
              -0.2102394
            ],
            [
              -78.4766159,
              -0.2097985
            ],
            [
              -78.4818908,
              -0.2074062
            ],
            [
              -78.4820057,
              -0.2073541
            ],
            [
              -78.4819554,
              -0.2066653
            ],
            [
              -78.4823292,
              -0.2054743
            ],
            [
              -78.4825461,
              -0.2047833
            ],
            [
              -78.4825519,
              -0.2047648
            ],
            [
              -78.4829268,
              -0.2035727
            ],
            [
              -78.4831313,
              -0.2036846
            ],
            [
              -78.4831732,
              -0.2037076
            ],
            [
              -78.4831804,
              -0.2037115
            ],
            [
              -78.4833189,
              -0.2037873
            ],
            [
              -78.483379,
              -0.2038202
            ],
            [
              -78.4834344,
              -0.2038505
            ],
            [
              -78.4834519,
              -0.2038601
            ],
            [
              -78.4834765,
              -0.2038735
            ],
            [
              -78.4835487,
              -0.2039131
            ],
            [
              -78.4836494,
              -0.2039683
            ],
            [
              -78.4838099,
              -0.2040561
            ],
            [
              -78.4841268,
              -0.2042296
            ],
            [
              -78.4841774,
              -0.2042573
            ],
            [
              -78.4842246,
              -0.2042831
            ],
            [
              -78.4842602,
              -0.2043026
            ],
            [
              -78.4842926,
              -0.2043203
            ],
            [
              -78.4843432,
              -0.204348
            ],
            [
              -78.485407,
              -0.2049304
            ],
            [
              -78.4873371,
              -0.2061763
            ],
            [
              -78.4874242,
              -0.2062325
            ],
            [
              -78.4874638,
              -0.2062581
            ],
            [
              -78.4879275,
              -0.2065574
            ],
            [
              -78.4880601,
              -0.206643
            ],
            [
              -78.4883171,
              -0.2068113
            ],
            [
              -78.488339,
              -0.2068256
            ],
            [
              -78.4885193,
              -0.2069437
            ],
            [
              -78.489212,
              -0.2073973
            ],
            [
              -78.4892751,
              -0.2074386
            ],
            [
              -78.4894263,
              -0.2075376
            ],
            [
              -78.4896607,
              -0.2076912
            ],
            [
              -78.4900966,
              -0.2079766
            ],
            [
              -78.4901447,
              -0.2079752
            ],
            [
              -78.4910395,
              -0.2085941
            ],
            [
              -78.4911174,
              -0.2086451
            ],
            [
              -78.4914361,
              -0.2088538
            ],
            [
              -78.4914797,
              -0.2088824
            ],
            [
              -78.4938681,
              -0.2103771
            ]
          ]
        ]
      }
    }
  ]
}
