{
  "type": "FeatureCollection",
  "features": [
    {
      "type": "Feature",
      "properties": {
        "name": "Boa Viagem",
        "category": "Tourist",
        "osmType": "relation",
        "osmId": 4267727,
        "stroke": "#f59e0b",
        "stroke-width": 2,
        "stroke-opacity": 0.95,
        "fill": "#f59e0b",
        "fill-opacity": 0.16
      },
      "geometry": {
        "type": "Polygon",
        "coordinates": [
          [
            [
              -34.9180101,
              -8.1431553
            ],
            [
              -34.9157238,
              -8.144361
            ],
            [
              -34.9158973,
              -8.1450851
            ],
            [
              -34.9148862,
              -8.1462931
            ],
            [
              -34.9148768,
              -8.1467179
            ],
            [
              -34.9143804,
              -8.1469579
            ],
            [
              -34.9145725,
              -8.1476574
            ],
            [
              -34.9137472,
              -8.1479699
            ],
            [
              -34.9140492,
              -8.1487577
            ],
            [
              -34.9115634,
              -8.1497141
            ],
            [
              -34.9125593,
              -8.152253
            ],
            [
              -34.9136844,
              -8.1539021
            ],
            [
              -34.9121799,
              -8.1543349
            ],
            [
              -34.9119497,
              -8.1533259
            ],
            [
              -34.9111559,
              -8.1536357
            ],
            [
              -34.911332,
              -8.1541626
            ],
            [
              -34.9088591,
              -8.1551869
            ],
            [
              -34.9065819,
              -8.1495113
            ],
            [
              -34.9036195,
              -8.1433131
            ],
            [
              -34.9012969,
              -8.1369832
            ],
            [
              -34.9007709,
              -8.1349371
            ],
            [
              -34.899348,
              -8.1313459
            ],
            [
              -34.8976609,
              -8.1279246
            ],
            [
              -34.8959899,
              -8.1230813
            ],
            [
              -34.8900113,
              -8.1132566
            ],
            [
              -34.8865458,
              -8.1063154
            ],
            [
              -34.8867011,
              -8.1065326
            ],
            [
              -34.8850679,
              -8.1029165
            ],
            [
              -34.8834613,
              -8.1000672
            ],
            [
              -34.8865961,
              -8.0988371
            ],
            [
              -34.8883598,
              -8.1027327
            ],
            [
              -34.890828,
              -8.1048573
            ],
            [
              -34.8913412,
              -8.1050163
            ],
            [
              -34.8942912,
              -8.1076668
            ],
            [
              -34.8976146,
              -8.1078433
            ],
            [
              -34.8994277,
              -8.1099199
            ],
            [
              -34.9000232,
              -8.1112648
            ],
            [
              -34.900337,
              -8.1112807
            ],
            [
              -34.9006761,
              -8.1109605
            ],
            [
              -34.9007461,
              -8.1117922
            ],
            [
              -34.902142,
              -8.1128809
            ],
            [
              -34.9029624,
              -8.1145278
            ],
            [
              -34.9059025,
              -8.1177454
            ],
            [
              -34.9080833,
              -8.1189829
            ],
            [
              -34.9095543,
              -8.1212572
            ],
            [
              -34.9098604,
              -8.1260011
            ],
            [
              -34.9108183,
              -8.1314451
            ],
            [
              -34.9121073,
              -8.1316318
            ],
            [
              -34.9120195,
              -8.1309858
            ],
            [
              -34.9127394,
              -8.1310353
            ],
            [
              -34.9125163,
              -8.1300501
            ],
            [
              -34.9133197,
              -8.1298568
            ],
            [
              -34.9144113,
              -8.1290597
            ],
            [
              -34.9156134,
              -8.1287942
            ],
            [
              -34.9178898,
              -8.1423659
            ],
            [
              -34.9180101,
              -8.1431553
            ]
          ]
        ]
      }
    },
    {
      "type": "Feature",
      "properties": {
        "name": "Recife Antigo",
        "category": "Residential",
        "osmType": "relation",
        "osmId": 4264912,
        "stroke": "#0f766e",
        "stroke-width": 2,
        "stroke-opacity": 0.95,
        "fill": "#0f766e",
        "fill-opacity": 0.16
      },
      "geometry": {
        "type": "MultiPolygon",
        "coordinates": [
          [
            [
              [
                -34.876307,
                -8.057831
              ],
              [
                -34.8752833,
                -8.0598104
              ],
              [
                -34.8755521,
                -8.0626759
              ],
              [
                -34.8755176,
                -8.0658552
              ],
              [
                -34.8753186,
                -8.0665827
              ],
              [
                -34.8746701,
                -8.067247
              ],
              [
                -34.8712035,
                -8.0690753
              ],
              [
                -34.8657331,
                -8.0557846
              ],
              [
                -34.8652825,
                -8.0548136
              ],
              [
                -34.8649392,
                -8.0544992
              ],
              [
                -34.8622015,
                -8.0485539
              ],
              [
                -34.8612788,
                -8.0478369
              ],
              [
                -34.8590419,
                -8.0473133
              ],
              [
                -34.8587977,
                -8.0471039
              ],
              [
                -34.8605232,
                -8.0441569
              ],
              [
                -34.8633108,
                -8.0414326
              ],
              [
                -34.869348,
                -8.0365712
              ],
              [
                -34.8681602,
                -8.0381472
              ],
              [
                -34.8685013,
                -8.040048
              ],
              [
                -34.8697584,
                -8.0431068
              ],
              [
                -34.8711032,
                -8.047198
              ],
              [
                -34.8732373,
                -8.05154
              ],
              [
                -34.8749817,
                -8.0564608
              ],
              [
                -34.876307,
                -8.057831
              ]
            ]
          ],
          [
            [
              [
                -34.8539168,
                -8.0541082
              ],
              [
                -34.8537682,
                -8.0542744
              ],
              [
                -34.8535293,
                -8.0541584
              ],
              [
                -34.8517574,
                -8.0518164
              ],
              [
                -34.8515401,
                -8.0508811
              ],
              [
                -34.8516999,
                -8.0507525
              ],
              [
                -34.851968,
                -8.0517681
              ],
              [
                -34.85389,
                -8.0539671
              ],
              [
                -34.8539168,
                -8.0541082
              ]
            ]
          ]
        ]
      }
    },
    {
      "type": "Feature",
      "properties": {
        "name": "Boa Vista",
        "category": "Hip",
        "osmType": "relation",
        "osmId": 4265797,
        "stroke": "#f43f5e",
        "stroke-width": 2,
        "stroke-opacity": 0.95,
        "fill": "#f43f5e",
        "fill-opacity": 0.16
      },
      "geometry": {
        "type": "Polygon",
        "coordinates": [
          [
            [
              -34.8979101,
              -8.0564907
            ],
            [
              -34.8978849,
              -8.0587929
            ],
            [
              -34.8977436,
              -8.0588762
            ],
            [
              -34.8973654,
              -8.0624199
            ],
            [
              -34.8972241,
              -8.0624572
            ],
            [
              -34.8972668,
              -8.0620927
            ],
            [
              -34.8940959,
              -8.0593496
            ],
            [
              -34.8948844,
              -8.0605731
            ],
            [
              -34.8952727,
              -8.0627934
            ],
            [
              -34.891308,
              -8.0635514
            ],
            [
              -34.8907598,
              -8.0626712
            ],
            [
              -34.8900812,
              -8.0632093
            ],
            [
              -34.890752,
              -8.0639099
            ],
            [
              -34.8907168,
              -8.0652282
            ],
            [
              -34.8895425,
              -8.0652162
            ],
            [
              -34.8894006,
              -8.0662932
            ],
            [
              -34.8850196,
              -8.0648072
            ],
            [
              -34.8846574,
              -8.0653405
            ],
            [
              -34.882036,
              -8.0643405
            ],
            [
              -34.8794138,
              -8.0598947
            ],
            [
              -34.882755,
              -8.0577714
            ],
            [
              -34.8842733,
              -8.0577612
            ],
            [
              -34.8863008,
              -8.0566816
            ],
            [
              -34.8869848,
              -8.0577919
            ],
            [
              -34.8861985,
              -8.0592258
            ],
            [
              -34.8863998,
              -8.059567
            ],
            [
              -34.8899453,
              -8.0575185
            ],
            [
              -34.8899036,
              -8.0588542
            ],
            [
              -34.8901654,
              -8.0600877
            ],
            [
              -34.8899684,
              -8.0604173
            ],
            [
              -34.891466,
              -8.0605794
            ],
            [
              -34.8913178,
              -8.0593256
            ],
            [
              -34.8930163,
              -8.0589956
            ],
            [
              -34.8926582,
              -8.0566722
            ],
            [
              -34.8913493,
              -8.0544488
            ],
            [
              -34.8922978,
              -8.0525787
            ],
            [
              -34.889955,
              -8.0531971
            ],
            [
              -34.8900172,
              -8.0501348
            ],
            [
              -34.8897939,
              -8.048202
            ],
            [
              -34.8900234,
              -8.0450626
            ],
            [
              -34.8950025,
              -8.0513698
            ],
            [
              -34.8974178,
              -8.0547289
            ],
            [
              -34.8978963,
              -8.0559914
            ],
            [
              -34.8979101,
              -8.0564907
            ]
          ]
        ]
      }
    }
  ]
}
