{
  "type": "FeatureCollection",
  "features": [
    {
      "type": "Feature",
      "properties": {
        "name": "Barra",
        "category": "Residential",
        "osmType": "relation",
        "osmId": 14285610,
        "stroke": "#0f766e",
        "stroke-width": 2,
        "stroke-opacity": 0.95,
        "fill": "#0f766e",
        "fill-opacity": 0.16
      },
      "geometry": {
        "type": "Polygon",
        "coordinates": [
          [
            [
              -38.5345244,
              -13.004384
            ],
            [
              -38.5341476,
              -13.004316
            ],
            [
              -38.5341033,
              -13.0048047
            ],
            [
              -38.5336527,
              -13.0047812
            ],
            [
              -38.533937,
              -13.0052464
            ],
            [
              -38.5336125,
              -13.0050412
            ],
            [
              -38.5333456,
              -13.0052686
            ],
            [
              -38.5333939,
              -13.0056201
            ],
            [
              -38.5331056,
              -13.0057913
            ],
            [
              -38.5330506,
              -13.0061454
            ],
            [
              -38.5335508,
              -13.0064982
            ],
            [
              -38.5328574,
              -13.0077592
            ],
            [
              -38.5328789,
              -13.0081303
            ],
            [
              -38.5322969,
              -13.0086438
            ],
            [
              -38.5324689,
              -13.0095594
            ],
            [
              -38.5329386,
              -13.0096264
            ],
            [
              -38.5337206,
              -13.0101251
            ],
            [
              -38.5338453,
              -13.0105042
            ],
            [
              -38.5338576,
              -13.0108676
            ],
            [
              -38.5335318,
              -13.0113541
            ],
            [
              -38.5328006,
              -13.0117016
            ],
            [
              -38.5323981,
              -13.011659
            ],
            [
              -38.5317684,
              -13.0107258
            ],
            [
              -38.5264466,
              -13.0100287
            ],
            [
              -38.5252118,
              -13.0101105
            ],
            [
              -38.5247808,
              -13.0103147
            ],
            [
              -38.5243028,
              -13.0115794
            ],
            [
              -38.5236555,
              -13.0117644
            ],
            [
              -38.5231332,
              -13.0114934
            ],
            [
              -38.5227,
              -13.0108818
            ],
            [
              -38.5201076,
              -13.0101602
            ],
            [
              -38.5195833,
              -13.0101258
            ],
            [
              -38.518157,
              -13.0105867
            ],
            [
              -38.5184089,
              -13.0094315
            ],
            [
              -38.5190759,
              -13.0089485
            ],
            [
              -38.519093,
              -13.0086725
            ],
            [
              -38.5187679,
              -13.008279
            ],
            [
              -38.5189485,
              -13.007869
            ],
            [
              -38.5198896,
              -13.0077226
            ],
            [
              -38.5215318,
              -13.0060079
            ],
            [
              -38.5221993,
              -13.005956
            ],
            [
              -38.523001,
              -13.0064893
            ],
            [
              -38.5231955,
              -13.0056007
            ],
            [
              -38.5230983,
              -13.0047767
            ],
            [
              -38.5241775,
              -13.0045396
            ],
            [
              -38.5241635,
              -13.0022812
            ],
            [
              -38.5251028,
              -13.0025115
            ],
            [
              -38.5252346,
              -13.0019744
            ],
            [
              -38.5265476,
              -13.0021403
            ],
            [
              -38.5269579,
              -13.0024801
            ],
            [
              -38.5273227,
              -13.0033503
            ],
            [
              -38.5286099,
              -13.0038299
            ],
            [
              -38.5285163,
              -13.0033974
            ],
            [
              -38.5279557,
              -13.0029034
            ],
            [
              -38.527257,
              -13.0016294
            ],
            [
              -38.5275701,
              -13.001372
            ],
            [
              -38.5277177,
              -13.0007663
            ],
            [
              -38.5275346,
              -12.9999267
            ],
            [
              -38.526805,
              -12.9992668
            ],
            [
              -38.5267299,
              -12.9987363
            ],
            [
              -38.5269016,
              -12.9986474
            ],
            [
              -38.5268587,
              -12.9983887
            ],
            [
              -38.5273696,
              -12.9981901
            ],
            [
              -38.5272322,
              -12.9970049
            ],
            [
              -38.5276228,
              -12.9967425
            ],
            [
              -38.5280322,
              -12.9966769
            ],
            [
              -38.5283124,
              -12.9973433
            ],
            [
              -38.5289119,
              -12.9977105
            ],
            [
              -38.529148,
              -12.9976504
            ],
            [
              -38.5290332,
              -12.9969094
            ],
            [
              -38.529554,
              -12.9968976
            ],
            [
              -38.5296154,
              -12.9975709
            ],
            [
              -38.5298008,
              -12.9975682
            ],
            [
              -38.5297728,
              -12.9986632
            ],
            [
              -38.5300095,
              -12.999148
            ],
            [
              -38.5313091,
              -12.9999712
            ],
            [
              -38.5314037,
              -13.0004377
            ],
            [
              -38.5316853,
              -13.0006507
            ],
            [
              -38.5319656,
              -13.0006859
            ],
            [
              -38.5324135,
              -13.0003227
            ],
            [
              -38.532903,
              -13.0007095
            ],
            [
              -38.5330559,
              -13.0014857
            ],
            [
              -38.5329647,
              -13.0033699
            ],
            [
              -38.533186,
              -13.0040246
            ],
            [
              -38.5335754,
              -13.0043432
            ],
            [
              -38.5338432,
              -13.0043216
            ],
            [
              -38.5341302,
              -13.0040037
            ],
            [
              -38.5345043,
              -13.0043055
            ],
            [
              -38.5345244,
              -13.004384
            ]
          ]
        ]
      }
    },
    {
      "type": "Feature",
      "properties": {
        "name": "Rio Vermelho",
        "category": "Hip",
        "osmType": "relation",
        "osmId": 14262204,
        "stroke": "#f43f5e",
        "stroke-width": 2,
        "stroke-opacity": 0.95,
        "fill": "#f43f5e",
        "fill-opacity": 0.16
      },
      "geometry": {
        "type": "Polygon",
        "coordinates": [
          [
            [
              -38.5020792,
              -13.0064181
            ],
            [
              -38.5018846,
              -13.006657
            ],
            [
              -38.5004532,
              -13.0072705
            ],
            [
              -38.4999465,
              -13.0077249
            ],
            [
              -38.4999101,
              -13.0081566
            ],
            [
              -38.5003565,
              -13.008274
            ],
            [
              -38.5000215,
              -13.0090725
            ],
            [
              -38.5001952,
              -13.009562
            ],
            [
              -38.5000945,
              -13.0097825
            ],
            [
              -38.49935,
              -13.0097571
            ],
            [
              -38.4994047,
              -13.0102345
            ],
            [
              -38.4990911,
              -13.0101829
            ],
            [
              -38.4990301,
              -13.0104739
            ],
            [
              -38.5013039,
              -13.010971
            ],
            [
              -38.501625,
              -13.0117764
            ],
            [
              -38.5008826,
              -13.0128468
            ],
            [
              -38.4972146,
              -13.0117984
            ],
            [
              -38.4947264,
              -13.011732
            ],
            [
              -38.493959,
              -13.0119739
            ],
            [
              -38.4924864,
              -13.0119497
            ],
            [
              -38.4921388,
              -13.012316
            ],
            [
              -38.4926443,
              -13.0130387
            ],
            [
              -38.4923032,
              -13.0133214
            ],
            [
              -38.4909005,
              -13.0135735
            ],
            [
              -38.4896542,
              -13.0144872
            ],
            [
              -38.4898829,
              -13.0149957
            ],
            [
              -38.4895985,
              -13.0153578
            ],
            [
              -38.4890203,
              -13.0156049
            ],
            [
              -38.4889751,
              -13.016348
            ],
            [
              -38.4884889,
              -13.0171895
            ],
            [
              -38.4868998,
              -13.0173949
            ],
            [
              -38.4862762,
              -13.0169965
            ],
            [
              -38.4855556,
              -13.016187
            ],
            [
              -38.4846105,
              -13.0162599
            ],
            [
              -38.4841826,
              -13.0157912
            ],
            [
              -38.4818892,
              -13.0150337
            ],
            [
              -38.4819143,
              -13.013796
            ],
            [
              -38.4823067,
              -13.0127855
            ],
            [
              -38.481491,
              -13.0125675
            ],
            [
              -38.4814831,
              -13.0122194
            ],
            [
              -38.4810569,
              -13.0120454
            ],
            [
              -38.4803325,
              -13.0111599
            ],
            [
              -38.4807606,
              -13.0108438
            ],
            [
              -38.4809185,
              -13.0098472
            ],
            [
              -38.4814623,
              -13.0091442
            ],
            [
              -38.4818304,
              -13.0092895
            ],
            [
              -38.4824836,
              -13.0088685
            ],
            [
              -38.4829268,
              -13.0090841
            ],
            [
              -38.4838106,
              -13.0089417
            ],
            [
              -38.4841277,
              -13.0076233
            ],
            [
              -38.4854688,
              -13.0069611
            ],
            [
              -38.4853347,
              -13.0065707
            ],
            [
              -38.4858799,
              -13.0061297
            ],
            [
              -38.4865898,
              -13.0060261
            ],
            [
              -38.4873145,
              -13.0064089
            ],
            [
              -38.486994,
              -13.0057216
            ],
            [
              -38.486466,
              -13.0054594
            ],
            [
              -38.4865382,
              -13.004708
            ],
            [
              -38.4880075,
              -13.0046914
            ],
            [
              -38.4884843,
              -13.004887
            ],
            [
              -38.4888411,
              -13.0053418
            ],
            [
              -38.4897704,
              -13.0056109
            ],
            [
              -38.4913008,
              -13.0064342
            ],
            [
              -38.4914388,
              -13.0067948
            ],
            [
              -38.4916909,
              -13.0068863
            ],
            [
              -38.4919806,
              -13.0066445
            ],
            [
              -38.4913757,
              -13.0058579
            ],
            [
              -38.491365,
              -13.0057063
            ],
            [
              -38.491711,
              -13.0056488
            ],
            [
              -38.4912953,
              -13.0047655
            ],
            [
              -38.4917137,
              -13.003941
            ],
            [
              -38.4916842,
              -13.0034902
            ],
            [
              -38.4913342,
              -13.0034379
            ],
            [
              -38.4909198,
              -13.0030668
            ],
            [
              -38.4903538,
              -13.0021795
            ],
            [
              -38.4898469,
              -13.0020097
            ],
            [
              -38.4896994,
              -13.0016869
            ],
            [
              -38.490213,
              -13.0014909
            ],
            [
              -38.4923068,
              -13.0011436
            ],
            [
              -38.4923097,
              -13.0031598
            ],
            [
              -38.4926645,
              -13.0031622
            ],
            [
              -38.4926525,
              -13.003336
            ],
            [
              -38.4931111,
              -13.0034666
            ],
            [
              -38.4933297,
              -13.0037959
            ],
            [
              -38.4932346,
              -13.0040142
            ],
            [
              -38.4935889,
              -13.0043055
            ],
            [
              -38.4937777,
              -13.0043173
            ],
            [
              -38.4943788,
              -13.0035978
            ],
            [
              -38.4942863,
              -13.0039701
            ],
            [
              -38.4951013,
              -13.0040664
            ],
            [
              -38.4943396,
              -13.005579
            ],
            [
              -38.4944455,
              -13.0059468
            ],
            [
              -38.4945944,
              -13.0060147
            ],
            [
              -38.4947245,
              -13.0057808
            ],
            [
              -38.4953146,
              -13.0060931
            ],
            [
              -38.496307,
              -13.0049106
            ],
            [
              -38.4967965,
              -13.005202
            ],
            [
              -38.4966369,
              -13.0054947
            ],
            [
              -38.4969252,
              -13.0055913
            ],
            [
              -38.4963633,
              -13.0062552
            ],
            [
              -38.496358,
              -13.0072229
            ],
            [
              -38.4959918,
              -13.0070535
            ],
            [
              -38.4958403,
              -13.007213
            ],
            [
              -38.4954125,
              -13.0069359
            ],
            [
              -38.4949042,
              -13.0074429
            ],
            [
              -38.4953213,
              -13.0079926
            ],
            [
              -38.4960232,
              -13.0083778
            ],
            [
              -38.4969521,
              -13.0086045
            ],
            [
              -38.4977921,
              -13.0085022
            ],
            [
              -38.4982462,
              -13.0082057
            ],
            [
              -38.4988108,
              -13.0071463
            ],
            [
              -38.4992894,
              -13.0067553
            ],
            [
              -38.5016886,
              -13.006055
            ],
            [
              -38.502027,
              -13.0063501
            ],
            [
              -38.5020792,
              -13.0064181
            ]
          ]
        ]
      }
    }
  ]
}
