{
  "type": "FeatureCollection",
  "features": [
    {
      "type": "Feature",
      "properties": {
        "name": "Colonia Escalón",
        "category": "Tourist",
        "osmType": "R",
        "osmId": 9257019,
        "source": "https://www.openstreetmap.org/relation/9257019",
        "retrievedAt": "2026-09-24",
        "stroke": "#f59e0b",
        "stroke-width": 2,
        "stroke-opacity": 0.95,
        "fill": "#f59e0b",
        "fill-opacity": 0.16
      },
      "geometry": {
        "type": "Polygon",
        "coordinates": [
          [
            [
              -89.2603622,
              13.7092996
            ],
            [
              -89.2602917,
              13.7091693
            ],
            [
              -89.260032,
              13.7087788
            ],
            [
              -89.2600155,
              13.7086747
            ],
            [
              -89.2595682,
              13.7087708
            ],
            [
              -89.2594157,
              13.7082502
            ],
            [
              -89.2589519,
              13.7083764
            ],
            [
              -89.2588283,
              13.7082642
            ],
            [
              -89.2585995,
              13.7082082
            ],
            [
              -89.2584099,
              13.7078277
            ],
            [
              -89.2583402,
              13.7076713
            ],
            [
              -89.2582727,
              13.7074655
            ],
            [
              -89.258655,
              13.7071653
            ],
            [
              -89.2588673,
              13.7075394
            ],
            [
              -89.2592453,
              13.7074205
            ],
            [
              -89.259365,
              13.7074046
            ],
            [
              -89.259777,
              13.7071233
            ],
            [
              -89.2593269,
              13.7064918
            ],
            [
              -89.2589475,
              13.7067441
            ],
            [
              -89.2588415,
              13.7066384
            ],
            [
              -89.2592372,
              13.7063583
            ],
            [
              -89.2591923,
              13.7063095
            ],
            [
              -89.2592557,
              13.7062646
            ],
            [
              -89.259588,
              13.7060294
            ],
            [
              -89.259928,
              13.7060928
            ],
            [
              -89.2598629,
              13.7057722
            ],
            [
              -89.2597721,
              13.7056908
            ],
            [
              -89.2599185,
              13.705366
            ],
            [
              -89.2596291,
              13.7052108
            ],
            [
              -89.2597221,
              13.7046528
            ],
            [
              -89.2595288,
              13.704505
            ],
            [
              -89.2595178,
              13.7044881
            ],
            [
              -89.2595119,
              13.7044693
            ],
            [
              -89.2595079,
              13.7043547
            ],
            [
              -89.2595241,
              13.7042402
            ],
            [
              -89.2595119,
              13.7041494
            ],
            [
              -89.2594387,
              13.704023
            ],
            [
              -89.2592721,
              13.7038492
            ],
            [
              -89.2591745,
              13.703782
            ],
            [
              -89.25902,
              13.7037267
            ],
            [
              -89.2588452,
              13.7036872
            ],
            [
              -89.2587842,
              13.7036675
            ],
            [
              -89.2587436,
              13.7036201
            ],
            [
              -89.2587273,
              13.703549
            ],
            [
              -89.2587232,
              13.7034739
            ],
            [
              -89.2586866,
              13.7033397
            ],
            [
              -89.2585809,
              13.7031145
            ],
            [
              -89.2585403,
              13.7030869
            ],
            [
              -89.2584752,
              13.7030592
            ],
            [
              -89.2584061,
              13.7030039
            ],
            [
              -89.258215,
              13.7026998
            ],
            [
              -89.2581459,
              13.702605
            ],
            [
              -89.2580931,
              13.7025142
            ],
            [
              -89.2579589,
              13.7022258
            ],
            [
              -89.2578695,
              13.7020402
            ],
            [
              -89.2578329,
              13.7019177
            ],
            [
              -89.2578192,
              13.701831
            ],
            [
              -89.2578085,
              13.7017637
            ],
            [
              -89.2577798,
              13.7016031
            ],
            [
              -89.2577394,
              13.7014477
            ],
            [
              -89.257528,
              13.7011515
            ],
            [
              -89.2568591,
              13.7001748
            ],
            [
              -89.2565576,
              13.6999447
            ],
            [
              -89.2555779,
              13.6997181
            ],
            [
              -89.2553985,
              13.69961
            ],
            [
              -89.2552837,
              13.6995263
            ],
            [
              -89.2551832,
              13.6994566
            ],
            [
              -89.2551545,
              13.6994357
            ],
            [
              -89.2548925,
              13.6994078
            ],
            [
              -89.2545982,
              13.6993555
            ],
            [
              -89.2543614,
              13.6992439
            ],
            [
              -89.254286,
              13.6992578
            ],
            [
              -89.2540312,
              13.6993868
            ],
            [
              -89.2538949,
              13.6994147
            ],
            [
              -89.2538088,
              13.6994112
            ],
            [
              -89.2536939,
              13.6993659
            ],
            [
              -89.2535647,
              13.6992334
            ],
            [
              -89.2534894,
              13.699223
            ],
            [
              -89.2533709,
              13.6992544
            ],
            [
              -89.2532274,
              13.6992857
            ],
            [
              -89.2531592,
              13.6992857
            ],
            [
              -89.2528327,
              13.6991637
            ],
            [
              -89.2525707,
              13.6991463
            ],
            [
              -89.2523231,
              13.6992299
            ],
            [
              -89.2520539,
              13.6993868
            ],
            [
              -89.2519857,
              13.6994287
            ],
            [
              -89.2519032,
              13.6994357
            ],
            [
              -89.2516987,
              13.6993973
            ],
            [
              -89.25153,
              13.6993241
            ],
            [
              -89.2514403,
              13.6992474
            ],
            [
              -89.2512573,
              13.699216
            ],
            [
              -89.2509953,
              13.6991811
            ],
            [
              -89.2501627,
              13.6991009
            ],
            [
              -89.2496987,
              13.6991396
            ],
            [
              -89.2496,
              13.6991448
            ],
            [
              -89.2495928,
              13.6991675
            ],
            [
              -89.2494116,
              13.6992181
            ],
            [
              -89.2491842,
              13.6992343
            ],
            [
              -89.2482776,
              13.6990629
            ],
            [
              -89.2480115,
              13.6991164
            ],
            [
              -89.2477455,
              13.6992857
            ],
            [
              -89.2471949,
              13.6998384
            ],
            [
              -89.2463526,
              13.7007287
            ],
            [
              -89.2460522,
              13.7012291
            ],
            [
              -89.2457089,
              13.7016252
            ],
            [
              -89.2456105,
              13.7016518
            ],
            [
              -89.2452368,
              13.7015001
            ],
            [
              -89.2449149,
              13.7016043
            ],
            [
              -89.2442927,
              13.7017502
            ],
            [
              -89.2433485,
              13.7013958
            ],
            [
              -89.2425331,
              13.7011874
            ],
            [
              -89.2417876,
              13.7008773
            ],
            [
              -89.2415037,
              13.7007592
            ],
            [
              -89.2410759,
              13.7007868
            ],
            [
              -89.2406663,
              13.7003743
            ],
            [
              -89.2397441,
              13.6998323
            ],
            [
              -89.2389282,
              13.6993528
            ],
            [
              -89.2376193,
              13.6990193
            ],
            [
              -89.2367181,
              13.6992694
            ],
            [
              -89.2360958,
              13.6991235
            ],
            [
              -89.2359671,
              13.6988108
            ],
            [
              -89.2352633,
              13.6987271
            ],
            [
              -89.2349157,
              13.6986857
            ],
            [
              -89.2342505,
              13.6985398
            ],
            [
              -89.234132,
              13.698518
            ],
            [
              -89.2340671,
              13.6984545
            ],
            [
              -89.2340554,
              13.6983691
            ],
            [
              -89.2340694,
              13.698287
            ],
            [
              -89.2340922,
              13.6981854
            ],
            [
              -89.2341002,
              13.6980759
            ],
            [
              -89.2340439,
              13.6980134
            ],
            [
              -89.2339729,
              13.697943
            ],
            [
              -89.2338505,
              13.6978642
            ],
            [
              -89.2336691,
              13.6977697
            ],
            [
              -89.2334941,
              13.6977528
            ],
            [
              -89.2327055,
              13.6979561
            ],
            [
              -89.2321288,
              13.6980003
            ],
            [
              -89.2319907,
              13.6979912
            ],
            [
              -89.2317822,
              13.6979189
            ],
            [
              -89.2314204,
              13.6976925
            ],
            [
              -89.2313108,
              13.6976642
            ],
            [
              -89.230372,
              13.6976564
            ],
            [
              -89.2302298,
              13.6976447
            ],
            [
              -89.2300729,
              13.6976049
            ],
            [
              -89.2299407,
              13.6975081
            ],
            [
              -89.2298406,
              13.6973539
            ],
            [
              -89.2297745,
              13.6972437
            ],
            [
              -89.22968,
              13.6971847
            ],
            [
              -89.2294597,
              13.6971831
            ],
            [
              -89.2293306,
              13.6972023
            ],
            [
              -89.2292495,
              13.6972199
            ],
            [
              -89.2291731,
              13.6971977
            ],
            [
              -89.2290848,
              13.6970788
            ],
            [
              -89.2289747,
              13.6966458
            ],
            [
              -89.2289643,
              13.6965777
            ],
            [
              -89.2289322,
              13.6965065
            ],
            [
              -89.2288604,
              13.6964661
            ],
            [
              -89.2285065,
              13.6965641
            ],
            [
              -89.2283942,
              13.6966008
            ],
            [
              -89.2283566,
              13.6966321
            ],
            [
              -89.2282949,
              13.6967038
            ],
            [
              -89.2281809,
              13.696882
            ],
            [
              -89.2277817,
              13.6966665
            ],
            [
              -89.2278082,
              13.6965328
            ],
            [
              -89.2272581,
              13.6974796
            ],
            [
              -89.2269546,
              13.6980005
            ],
            [
              -89.2269452,
              13.6978926
            ],
            [
              -89.2268685,
              13.6978935
            ],
            [
              -89.2263085,
              13.6977892
            ],
            [
              -89.2262222,
              13.6977731
            ],
            [
              -89.226013,
              13.697742
            ],
            [
              -89.2255258,
              13.6976697
            ],
            [
              -89.2248077,
              13.6975382
            ],
            [
              -89.2248353,
              13.6972561
            ],
            [
              -89.2247161,
              13.6972567
            ],
            [
              -89.224569,
              13.6973003
            ],
            [
              -89.2246013,
              13.6973195
            ],
            [
              -89.2239984,
              13.6976019
            ],
            [
              -89.2237436,
              13.6976559
            ],
            [
              -89.2228666,
              13.6976159
            ],
            [
              -89.2218987,
              13.6978076
            ],
            [
              -89.2217513,
              13.6969919
            ],
            [
              -89.2216122,
              13.6970139
            ],
            [
              -89.2214545,
              13.697026
            ],
            [
              -89.2212886,
              13.697024
            ],
            [
              -89.2210755,
              13.6969975
            ],
            [
              -89.2210545,
              13.6971522
            ],
            [
              -89.2210522,
              13.6976841
            ],
            [
              -89.2210475,
              13.6978157
            ],
            [
              -89.2210382,
              13.697945
            ],
            [
              -89.2210126,
              13.6982423
            ],
            [
              -89.2209678,
              13.6986468
            ],
            [
              -89.2209632,
              13.6986784
            ],
            [
              -89.220948,
              13.6987826
            ],
            [
              -89.2209375,
              13.6988563
            ],
            [
              -89.220933,
              13.6988876
            ],
            [
              -89.2208392,
              13.6998911
            ],
            [
              -89.2207432,
              13.7009435
            ],
            [
              -89.2206877,
              13.7015302
            ],
            [
              -89.2205884,
              13.7024696
            ],
            [
              -89.2205651,
              13.7027864
            ],
            [
              -89.2205373,
              13.7028164
            ],
            [
              -89.2204723,
              13.70281
            ],
            [
              -89.2196245,
              13.7027342
            ],
            [
              -89.2197619,
              13.7030004
            ],
            [
              -89.2200481,
              13.7034671
            ],
            [
              -89.2202683,
              13.7034882
            ],
            [
              -89.2202683,
              13.7035146
            ],
            [
              -89.2204111,
              13.703582
            ],
            [
              -89.2205077,
              13.7038845
            ],
            [
              -89.2206389,
              13.7038677
            ],
            [
              -89.2207426,
              13.70384
            ],
            [
              -89.2208015,
              13.7038183
            ],
            [
              -89.2208646,
              13.7037966
            ],
            [
              -89.2209093,
              13.7037887
            ],
            [
              -89.2209764,
              13.7037907
            ],
            [
              -89.221076,
              13.7038203
            ],
            [
              -89.2213199,
              13.7039388
            ],
            [
              -89.2215821,
              13.7040869
            ],
            [
              -89.2216858,
              13.70416
            ],
            [
              -89.2218545,
              13.7043002
            ],
            [
              -89.2220009,
              13.70447
            ],
            [
              -89.2220903,
              13.7045569
            ],
            [
              -89.2221553,
              13.7046082
            ],
            [
              -89.2222529,
              13.7046497
            ],
            [
              -89.2222549,
              13.7046497
            ],
            [
              -89.2223139,
              13.7046596
            ],
            [
              -89.2223911,
              13.7046556
            ],
            [
              -89.222509,
              13.7046635
            ],
            [
              -89.222568,
              13.7046616
            ],
            [
              -89.2226839,
              13.7046181
            ],
            [
              -89.2227347,
              13.7046122
            ],
            [
              -89.2228119,
              13.7046102
            ],
            [
              -89.2229379,
              13.704626
            ],
            [
              -89.2230437,
              13.7046971
            ],
            [
              -89.2231372,
              13.7047643
            ],
            [
              -89.2232083,
              13.7048156
            ],
            [
              -89.2233099,
              13.7048452
            ],
            [
              -89.2234055,
              13.7048452
            ],
            [
              -89.2234807,
              13.7048136
            ],
            [
              -89.2235559,
              13.7047939
            ],
            [
              -89.2236433,
              13.7047978
            ],
            [
              -89.2237226,
              13.7048215
            ],
            [
              -89.2239177,
              13.7049558
            ],
            [
              -89.2241149,
              13.7050565
            ],
            [
              -89.2244808,
              13.705254
            ],
            [
              -89.2247003,
              13.7054179
            ],
            [
              -89.224802,
              13.7055206
            ],
            [
              -89.2248426,
              13.7055641
            ],
            [
              -89.224867,
              13.7055898
            ],
            [
              -89.2248975,
              13.7056075
            ],
            [
              -89.2249524,
              13.7056213
            ],
            [
              -89.2250154,
              13.7056134
            ],
            [
              -89.2251333,
              13.705574
            ],
            [
              -89.225241,
              13.7055285
            ],
            [
              -89.2254098,
              13.7054495
            ],
            [
              -89.2255358,
              13.7053824
            ],
            [
              -89.2255947,
              13.7053666
            ],
            [
              -89.2256598,
              13.7053705
            ],
            [
              -89.2257797,
              13.7054002
            ],
            [
              -89.2259972,
              13.7054693
            ],
            [
              -89.2260684,
              13.7055048
            ],
            [
              -89.226109,
              13.7055246
            ],
            [
              -89.2261334,
              13.7055266
            ],
            [
              -89.2264291,
              13.7055764
            ],
            [
              -89.2266843,
              13.7056194
            ],
            [
              -89.2267879,
              13.7056253
            ],
            [
              -89.2268916,
              13.7056134
            ],
            [
              -89.22704,
              13.7055819
            ],
            [
              -89.2270868,
              13.7055838
            ],
            [
              -89.2271498,
              13.7056095
            ],
            [
              -89.2272778,
              13.7056924
            ],
            [
              -89.2275218,
              13.7058564
            ],
            [
              -89.2276336,
              13.7058899
            ],
            [
              -89.2277271,
              13.7058959
            ],
            [
              -89.2278165,
              13.7058722
            ],
            [
              -89.2279202,
              13.7058465
            ],
            [
              -89.2279385,
              13.7058188
            ],
            [
              -89.2280747,
              13.7057201
            ],
            [
              -89.22816,
              13.7057142
            ],
            [
              -89.2282109,
              13.7057181
            ],
            [
              -89.228282,
              13.7057418
            ],
            [
              -89.2284182,
              13.7058346
            ],
            [
              -89.2285727,
              13.7059709
            ],
            [
              -89.2285971,
              13.7059748
            ],
            [
              -89.2286316,
              13.7059729
            ],
            [
              -89.2286682,
              13.7059571
            ],
            [
              -89.2288349,
              13.7058346
            ],
            [
              -89.2288857,
              13.705805
            ],
            [
              -89.2289528,
              13.7057912
            ],
            [
              -89.2290646,
              13.7057872
            ],
            [
              -89.2293167,
              13.7058109
            ],
            [
              -89.2294407,
              13.7058465
            ],
            [
              -89.2295992,
              13.7059097
            ],
            [
              -89.2296907,
              13.7059946
            ],
            [
              -89.2297618,
              13.7061072
            ],
            [
              -89.2298025,
              13.7062
            ],
            [
              -89.2298249,
              13.7063106
            ],
            [
              -89.2298228,
              13.7064073
            ],
            [
              -89.2297862,
              13.7064824
            ],
            [
              -89.2297659,
              13.7065298
            ],
            [
              -89.22977,
              13.7065752
            ],
            [
              -89.2297944,
              13.7066305
            ],
            [
              -89.2298594,
              13.7067095
            ],
            [
              -89.2299936,
              13.7068201
            ],
            [
              -89.2301135,
              13.7068872
            ],
            [
              -89.2302131,
              13.7069129
            ],
            [
              -89.2302802,
              13.7069129
            ],
            [
              -89.2304103,
              13.7068971
            ],
            [
              -89.2305709,
              13.7068161
            ],
            [
              -89.2306095,
              13.7067964
            ],
            [
              -89.23064,
              13.7067924
            ],
            [
              -89.2306664,
              13.7067984
            ],
            [
              -89.2307782,
              13.7070482
            ],
            [
              -89.2308137,
              13.7071724
            ],
            [
              -89.2308516,
              13.707269
            ],
            [
              -89.2309321,
              13.7073082
            ],
            [
              -89.2310789,
              13.7073174
            ],
            [
              -89.2312233,
              13.7073749
            ],
            [
              -89.2313156,
              13.7074807
            ],
            [
              -89.2312896,
              13.7076371
            ],
            [
              -89.2315429,
              13.7079476
            ],
            [
              -89.2318876,
              13.7081207
            ],
            [
              -89.2319596,
              13.7081569
            ],
            [
              -89.2321869,
              13.7082305
            ],
            [
              -89.2324877,
              13.7082973
            ],
            [
              -89.2325406,
              13.7083308
            ],
            [
              -89.2326016,
              13.7083545
            ],
            [
              -89.2328882,
              13.7084315
            ],
            [
              -89.2329898,
              13.708473
            ],
            [
              -89.2330955,
              13.7086053
            ],
            [
              -89.2331565,
              13.7086824
            ],
            [
              -89.2331703,
              13.7087211
            ],
            [
              -89.2332908,
              13.7090064
            ],
            [
              -89.2333485,
              13.7091138
            ],
            [
              -89.2333726,
              13.7091477
            ],
            [
              -89.2334182,
              13.7091763
            ],
            [
              -89.2335094,
              13.709218
            ],
            [
              -89.2335792,
              13.7092285
            ],
            [
              -89.2336516,
              13.7092259
            ],
            [
              -89.2337642,
              13.7091998
            ],
            [
              -89.2338299,
              13.7091607
            ],
            [
              -89.2338607,
              13.7091661
            ],
            [
              -89.233901,
              13.709205
            ],
            [
              -89.2340083,
              13.7093457
            ],
            [
              -89.2341156,
              13.7095568
            ],
            [
              -89.2341451,
              13.7095855
            ],
            [
              -89.2341961,
              13.7095959
            ],
            [
              -89.2342738,
              13.7095959
            ],
            [
              -89.2343168,
              13.7095672
            ],
            [
              -89.2344777,
              13.709489
            ],
            [
              -89.2345474,
              13.7094708
            ],
            [
              -89.234703,
              13.7094943
            ],
            [
              -89.2347459,
              13.7095438
            ],
            [
              -89.2347727,
              13.7096219
            ],
            [
              -89.2348559,
              13.7105809
            ],
            [
              -89.2348988,
              13.7107112
            ],
            [
              -89.2349337,
              13.7107424
            ],
            [
              -89.2350517,
              13.710818
            ],
            [
              -89.235108,
              13.7108232
            ],
            [
              -89.2351643,
              13.7108024
            ],
            [
              -89.2352341,
              13.7107607
            ],
            [
              -89.2353119,
              13.7106825
            ],
            [
              -89.2354755,
              13.7105704
            ],
            [
              -89.2355318,
              13.7105652
            ],
            [
              -89.2356257,
              13.7105965
            ],
            [
              -89.2357571,
              13.7106773
            ],
            [
              -89.2359341,
              13.7108649
            ],
            [
              -89.2360066,
              13.7109092
            ],
            [
              -89.2361997,
              13.7109457
            ],
            [
              -89.2364062,
              13.7109144
            ],
            [
              -89.2369078,
              13.7109405
            ],
            [
              -89.2372699,
              13.7110551
            ],
            [
              -89.2373638,
              13.7111489
            ],
            [
              -89.2374442,
              13.7114095
            ],
            [
              -89.2375596,
              13.7116206
            ],
            [
              -89.2377071,
              13.7118577
            ],
            [
              -89.2378331,
              13.7119254
            ],
            [
              -89.2379672,
              13.7119697
            ],
            [
              -89.2380719,
              13.7119541
            ],
            [
              -89.2383884,
              13.7117535
            ],
            [
              -89.2384635,
              13.7117352
            ],
            [
              -89.2385627,
              13.7117769
            ],
            [
              -89.2388282,
              13.7119776
            ],
            [
              -89.2388819,
              13.7120557
            ],
            [
              -89.2389355,
              13.7122017
            ],
            [
              -89.238965,
              13.7122381
            ],
            [
              -89.2390348,
              13.712259
            ],
            [
              -89.2390911,
              13.7122381
            ],
            [
              -89.2391742,
              13.7121521
            ],
            [
              -89.239362,
              13.7119072
            ],
            [
              -89.239538,
              13.7119197
            ],
            [
              -89.239905,
              13.7119554
            ],
            [
              -89.2399971,
              13.7119569
            ],
            [
              -89.2400478,
              13.7119369
            ],
            [
              -89.2400678,
              13.7118593
            ],
            [
              -89.2400997,
              13.7116032
            ],
            [
              -89.2401077,
              13.7115567
            ],
            [
              -89.2401437,
              13.7115295
            ],
            [
              -89.2411781,
              13.7112502
            ],
            [
              -89.241254,
              13.7112579
            ],
            [
              -89.2414118,
              13.71132
            ],
            [
              -89.2415695,
              13.7113821
            ],
            [
              -89.2416254,
              13.7113898
            ],
            [
              -89.2416654,
              13.7113821
            ],
            [
              -89.2417293,
              13.7113239
            ],
            [
              -89.2418651,
              13.7110911
            ],
            [
              -89.2419569,
              13.7110018
            ],
            [
              -89.2421287,
              13.7109048
            ],
            [
              -89.2422245,
              13.7108932
            ],
            [
              -89.2424801,
              13.7108233
            ],
            [
              -89.2427358,
              13.7107225
            ],
            [
              -89.2428995,
              13.7106953
            ],
            [
              -89.2430872,
              13.7106526
            ],
            [
              -89.2432709,
              13.710672
            ],
            [
              -89.2434147,
              13.710641
            ],
            [
              -89.2436703,
              13.7106061
            ],
            [
              -89.2437616,
              13.7106032
            ],
            [
              -89.2438983,
              13.7105988
            ],
            [
              -89.2440378,
              13.7105944
            ],
            [
              -89.2444212,
              13.7106681
            ],
            [
              -89.2447088,
              13.7108583
            ],
            [
              -89.2447926,
              13.7110173
            ],
            [
              -89.2448965,
              13.7112967
            ],
            [
              -89.2449045,
              13.7117662
            ],
            [
              -89.2449204,
              13.7118438
            ],
            [
              -89.2449724,
              13.7119214
            ],
            [
              -89.245232,
              13.7120999
            ],
            [
              -89.2453438,
              13.7122357
            ],
            [
              -89.2454317,
              13.712259
            ],
            [
              -89.2454836,
              13.7122357
            ],
            [
              -89.2455235,
              13.7121891
            ],
            [
              -89.2456114,
              13.7120107
            ],
            [
              -89.2456473,
              13.7119796
            ],
            [
              -89.2457192,
              13.7119408
            ],
            [
              -89.2457831,
              13.7119563
            ],
            [
              -89.245855,
              13.7120107
            ],
            [
              -89.2460827,
              13.7122163
            ],
            [
              -89.2461546,
              13.7122667
            ],
            [
              -89.2462704,
              13.7123133
            ],
            [
              -89.2464022,
              13.7122939
            ],
            [
              -89.2466099,
              13.7122435
            ],
            [
              -89.2468639,
              13.7121622
            ],
            [
              -89.2469494,
              13.7121348
            ],
            [
              -89.2470692,
              13.7121077
            ],
            [
              -89.2471291,
              13.7121542
            ],
            [
              -89.2471491,
              13.7122667
            ],
            [
              -89.2470652,
              13.7124026
            ],
            [
              -89.2470053,
              13.7124957
            ],
            [
              -89.2469813,
              13.7126004
            ],
            [
              -89.2470053,
              13.7126974
            ],
            [
              -89.2470532,
              13.7128449
            ],
            [
              -89.2471331,
              13.7130699
            ],
            [
              -89.247173,
              13.7131398
            ],
            [
              -89.2472529,
              13.7131863
            ],
            [
              -89.2473607,
              13.713198
            ],
            [
              -89.2476229,
              13.7131909
            ],
            [
              -89.2481835,
              13.7131592
            ],
            [
              -89.2483353,
              13.7131087
            ],
            [
              -89.2485669,
              13.7129652
            ],
            [
              -89.2487107,
              13.7128914
            ],
            [
              -89.2487826,
              13.7128759
            ],
            [
              -89.2488745,
              13.7128953
            ],
            [
              -89.2489983,
              13.7128837
            ],
            [
              -89.2491221,
              13.7128682
            ],
            [
              -89.249202,
              13.7128371
            ],
            [
              -89.2492459,
              13.7127828
            ],
            [
              -89.2493058,
              13.7127673
            ],
            [
              -89.2493857,
              13.7127906
            ],
            [
              -89.2494416,
              13.7128332
            ],
            [
              -89.2494855,
              13.7129729
            ],
            [
              -89.2495494,
              13.7131631
            ],
            [
              -89.2496014,
              13.7132135
            ],
            [
              -89.249829,
              13.713295
            ],
            [
              -89.2499448,
              13.7133842
            ],
            [
              -89.2501685,
              13.7135821
            ],
            [
              -89.2502843,
              13.7136209
            ],
            [
              -89.2505319,
              13.713617
            ],
            [
              -89.2508435,
              13.7136597
            ],
            [
              -89.2509932,
              13.7135997
            ],
            [
              -89.2510985,
              13.7136106
            ],
            [
              -89.2512174,
              13.7136029
            ],
            [
              -89.2514236,
              13.7134835
            ],
            [
              -89.2517051,
              13.7132678
            ],
            [
              -89.2518325,
              13.7132526
            ],
            [
              -89.2520462,
              13.7132983
            ],
            [
              -89.2522614,
              13.7133239
            ],
            [
              -89.2524068,
              13.7133421
            ],
            [
              -89.2528793,
              13.7133971
            ],
            [
              -89.2536137,
              13.7136052
            ],
            [
              -89.2539114,
              13.7136777
            ],
            [
              -89.2540351,
              13.713673
            ],
            [
              -89.2541654,
              13.7136586
            ],
            [
              -89.2542927,
              13.7135809
            ],
            [
              -89.2544098,
              13.7134809
            ],
            [
              -89.2545826,
              13.7132407
            ],
            [
              -89.2546595,
              13.7131227
            ],
            [
              -89.2548107,
              13.7128821
            ],
            [
              -89.2550715,
              13.7125741
            ],
            [
              -89.2553834,
              13.7123144
            ],
            [
              -89.2558026,
              13.7119652
            ],
            [
              -89.25582,
              13.711945
            ],
            [
              -89.2560116,
              13.7116409
            ],
            [
              -89.2563467,
              13.7111144
            ],
            [
              -89.2564509,
              13.710991
            ],
            [
              -89.2567834,
              13.7106937
            ],
            [
              -89.2568836,
              13.7106314
            ],
            [
              -89.2574972,
              13.7103156
            ],
            [
              -89.2577415,
              13.7101898
            ],
            [
              -89.2581256,
              13.7099044
            ],
            [
              -89.2583803,
              13.7097174
            ],
            [
              -89.2586929,
              13.7096289
            ],
            [
              -89.2589289,
              13.709585
            ],
            [
              -89.2593004,
              13.7095411
            ],
            [
              -89.2594182,
              13.7095632
            ],
            [
              -89.2602744,
              13.709324
            ],
            [
              -89.2603622,
              13.7092996
            ]
          ]
        ]
      }
    }
  ]
}
