{
  "type": "FeatureCollection",
  "features": [
    {
      "type": "Feature",
      "properties": {
        "name": "Escazú",
        "category": "Tourist",
        "osmType": "relation",
        "osmId": 4071270,
        "stroke": "#f59e0b",
        "stroke-width": 2,
        "stroke-opacity": 0.95,
        "fill": "#f59e0b",
        "fill-opacity": 0.16
      },
      "geometry": {
        "type": "Polygon",
        "coordinates": [
          [
            [
              -84.1858002,
              9.9717064
            ],
            [
              -84.1855512,
              9.9695557
            ],
            [
              -84.1846344,
              9.9676788
            ],
            [
              -84.1841117,
              9.9658022
            ],
            [
              -84.1835456,
              9.9654021
            ],
            [
              -84.1814261,
              9.9645503
            ],
            [
              -84.1815334,
              9.9640678
            ],
            [
              -84.1813743,
              9.963511
            ],
            [
              -84.1808742,
              9.963118
            ],
            [
              -84.1801976,
              9.9621299
            ],
            [
              -84.1795874,
              9.9618576
            ],
            [
              -84.1792258,
              9.9611829
            ],
            [
              -84.1782428,
              9.9603724
            ],
            [
              -84.1776189,
              9.958459
            ],
            [
              -84.1775832,
              9.957826
            ],
            [
              -84.176469,
              9.9570718
            ],
            [
              -84.1761064,
              9.9548914
            ],
            [
              -84.1748033,
              9.9534121
            ],
            [
              -84.1711114,
              9.9511121
            ],
            [
              -84.1702581,
              9.9507733
            ],
            [
              -84.1693399,
              9.9498419
            ],
            [
              -84.1670633,
              9.9482541
            ],
            [
              -84.1665847,
              9.9476477
            ],
            [
              -84.1661331,
              9.9441591
            ],
            [
              -84.1644103,
              9.9410992
            ],
            [
              -84.1633442,
              9.9397019
            ],
            [
              -84.1634362,
              9.9371399
            ],
            [
              -84.1632572,
              9.9368046
            ],
            [
              -84.1625845,
              9.9364908
            ],
            [
              -84.1618749,
              9.9356317
            ],
            [
              -84.1619277,
              9.9344727
            ],
            [
              -84.1611132,
              9.9332927
            ],
            [
              -84.1608504,
              9.9325547
            ],
            [
              -84.1602752,
              9.9320728
            ],
            [
              -84.1602118,
              9.9317028
            ],
            [
              -84.1595301,
              9.9308066
            ],
            [
              -84.159435,
              9.9302338
            ],
            [
              -84.1599887,
              9.9290511
            ],
            [
              -84.160507,
              9.9258792
            ],
            [
              -84.159953,
              9.9253353
            ],
            [
              -84.1594219,
              9.9239825
            ],
            [
              -84.1583736,
              9.9223868
            ],
            [
              -84.1591863,
              9.9213142
            ],
            [
              -84.1592936,
              9.9204132
            ],
            [
              -84.1599373,
              9.9196021
            ],
            [
              -84.1604335,
              9.9183708
            ],
            [
              -84.160658,
              9.917366
            ],
            [
              -84.1605407,
              9.91686
            ],
            [
              -84.1602644,
              9.9167041
            ],
            [
              -84.1602805,
              9.9161862
            ],
            [
              -84.1603691,
              9.915206
            ],
            [
              -84.1608156,
              9.9143843
            ],
            [
              -84.1606261,
              9.9141864
            ],
            [
              -84.1608596,
              9.9126323
            ],
            [
              -84.1616977,
              9.9114102
            ],
            [
              -84.1615481,
              9.9108947
            ],
            [
              -84.1622549,
              9.9099849
            ],
            [
              -84.162855,
              9.9085818
            ],
            [
              -84.1626305,
              9.9077564
            ],
            [
              -84.16277,
              9.9071669
            ],
            [
              -84.1618688,
              9.9065159
            ],
            [
              -84.16174,
              9.9062369
            ],
            [
              -84.1615855,
              9.9048418
            ],
            [
              -84.1617405,
              9.9037494
            ],
            [
              -84.1609525,
              9.9018584
            ],
            [
              -84.1609313,
              9.9011449
            ],
            [
              -84.1580755,
              9.8942607
            ],
            [
              -84.1553513,
              9.8893316
            ],
            [
              -84.1540779,
              9.8885615
            ],
            [
              -84.1523774,
              9.8857447
            ],
            [
              -84.1523784,
              9.8844359
            ],
            [
              -84.152739,
              9.8822199
            ],
            [
              -84.152506,
              9.8814476
            ],
            [
              -84.1514003,
              9.8802673
            ],
            [
              -84.1512494,
              9.8793978
            ],
            [
              -84.1507902,
              9.8789806
            ],
            [
              -84.1501479,
              9.8771107
            ],
            [
              -84.1489248,
              9.8764132
            ],
            [
              -84.1485887,
              9.875006
            ],
            [
              -84.1477853,
              9.8743376
            ],
            [
              -84.1485602,
              9.872919
            ],
            [
              -84.1481631,
              9.872256
            ],
            [
              -84.1480003,
              9.8714312
            ],
            [
              -84.1472949,
              9.8705933
            ],
            [
              -84.1469518,
              9.8696971
            ],
            [
              -84.147357,
              9.8690322
            ],
            [
              -84.1471941,
              9.8673077
            ],
            [
              -84.1485168,
              9.8652334
            ],
            [
              -84.1485038,
              9.864167
            ],
            [
              -84.1473609,
              9.8620068
            ],
            [
              -84.1472864,
              9.8612682
            ],
            [
              -84.1469773,
              9.8608346
            ],
            [
              -84.1451335,
              9.8595614
            ],
            [
              -84.1442081,
              9.8599539
            ],
            [
              -84.1420142,
              9.8599196
            ],
            [
              -84.138082,
              9.8611448
            ],
            [
              -84.1370222,
              9.8622922
            ],
            [
              -84.1365471,
              9.8642507
            ],
            [
              -84.1350281,
              9.8659344
            ],
            [
              -84.1346312,
              9.8674142
            ],
            [
              -84.1336334,
              9.8683021
            ],
            [
              -84.1326785,
              9.8703633
            ],
            [
              -84.1346317,
              9.8787157
            ],
            [
              -84.1343093,
              9.8797599
            ],
            [
              -84.1335235,
              9.8813442
            ],
            [
              -84.1327135,
              9.8821739
            ],
            [
              -84.1314744,
              9.8828873
            ],
            [
              -84.1298974,
              9.8850328
            ],
            [
              -84.129656,
              9.8869722
            ],
            [
              -84.1216166,
              9.8951792
            ],
            [
              -84.1216004,
              9.9202034
            ],
            [
              -84.1213202,
              9.9204005
            ],
            [
              -84.1211857,
              9.920892
            ],
            [
              -84.1211911,
              9.9218854
            ],
            [
              -84.1215719,
              9.9222236
            ],
            [
              -84.1216417,
              9.9234019
            ],
            [
              -84.1211911,
              9.923682
            ],
            [
              -84.1211428,
              9.9240942
            ],
            [
              -84.1214091,
              9.9251829
            ],
            [
              -84.1212018,
              9.926118
            ],
            [
              -84.1215129,
              9.9267891
            ],
            [
              -84.1207244,
              9.9273809
            ],
            [
              -84.1208263,
              9.9286808
            ],
            [
              -84.1213171,
              9.9298811
            ],
            [
              -84.1224327,
              9.9310861
            ],
            [
              -84.1218148,
              9.9324558
            ],
            [
              -84.1218222,
              9.9345487
            ],
            [
              -84.1221145,
              9.9347669
            ],
            [
              -84.1226451,
              9.9342587
            ],
            [
              -84.1229933,
              9.9343112
            ],
            [
              -84.1231473,
              9.9346583
            ],
            [
              -84.1228435,
              9.9359773
            ],
            [
              -84.1230052,
              9.9365011
            ],
            [
              -84.1232662,
              9.9366696
            ],
            [
              -84.1243391,
              9.9363652
            ],
            [
              -84.1253604,
              9.9363145
            ],
            [
              -84.1255645,
              9.9365317
            ],
            [
              -84.1254978,
              9.9371261
            ],
            [
              -84.1256609,
              9.9373468
            ],
            [
              -84.1273051,
              9.9373014
            ],
            [
              -84.1283229,
              9.9379584
            ],
            [
              -84.1314353,
              9.937906
            ],
            [
              -84.1323119,
              9.9383231
            ],
            [
              -84.1336337,
              9.9383569
            ],
            [
              -84.1353614,
              9.9390108
            ],
            [
              -84.1377879,
              9.9388811
            ],
            [
              -84.1382428,
              9.9390248
            ],
            [
              -84.1385861,
              9.9394729
            ],
            [
              -84.1395216,
              9.9396758
            ],
            [
              -84.1418648,
              9.941206
            ],
            [
              -84.1432381,
              9.9415019
            ],
            [
              -84.1440106,
              9.9427193
            ],
            [
              -84.1449547,
              9.9434041
            ],
            [
              -84.144826,
              9.9436661
            ],
            [
              -84.1442252,
              9.9439958
            ],
            [
              -84.1442166,
              9.9443763
            ],
            [
              -84.1445256,
              9.9447483
            ],
            [
              -84.1455126,
              9.9446637
            ],
            [
              -84.1458302,
              9.9449173
            ],
            [
              -84.1466542,
              9.9449934
            ],
            [
              -84.1470788,
              9.9453503
            ],
            [
              -84.1472087,
              9.9462748
            ],
            [
              -84.1475159,
              9.9466382
            ],
            [
              -84.1481234,
              9.9468277
            ],
            [
              -84.1496448,
              9.9468558
            ],
            [
              -84.1504109,
              9.9473554
            ],
            [
              -84.1511004,
              9.9487875
            ],
            [
              -84.1512666,
              9.9506039
            ],
            [
              -84.1515155,
              9.9510435
            ],
            [
              -84.1532577,
              9.9516381
            ],
            [
              -84.1548445,
              9.9518036
            ],
            [
              -84.1551941,
              9.9520408
            ],
            [
              -84.1559701,
              9.9536726
            ],
            [
              -84.15694,
              9.9542306
            ],
            [
              -84.1577983,
              9.9553888
            ],
            [
              -84.1589828,
              9.9560312
            ],
            [
              -84.1612143,
              9.9559467
            ],
            [
              -84.1630597,
              9.9572401
            ],
            [
              -84.1640183,
              9.9568317
            ],
            [
              -84.165051,
              9.9573416
            ],
            [
              -84.1663542,
              9.9603434
            ],
            [
              -84.1683063,
              9.9634694
            ],
            [
              -84.1693683,
              9.9647216
            ],
            [
              -84.1703982,
              9.965206
            ],
            [
              -84.1716823,
              9.9654885
            ],
            [
              -84.1723745,
              9.9659589
            ],
            [
              -84.1733888,
              9.9673108
            ],
            [
              -84.1745408,
              9.9680397
            ],
            [
              -84.1752723,
              9.9681911
            ],
            [
              -84.177074,
              9.9678532
            ],
            [
              -84.1780322,
              9.9683714
            ],
            [
              -84.1794321,
              9.9685346
            ],
            [
              -84.1816387,
              9.9682603
            ],
            [
              -84.1828723,
              9.9683403
            ],
            [
              -84.18322,
              9.9685727
            ],
            [
              -84.1831942,
              9.9709103
            ],
            [
              -84.1836905,
              9.9713198
            ],
            [
              -84.1837181,
              9.9718881
            ],
            [
              -84.1835389,
              9.9720001
            ],
            [
              -84.1842624,
              9.9725994
            ],
            [
              -84.1851084,
              9.9726031
            ],
            [
              -84.185718,
              9.9722294
            ],
            [
              -84.1858002,
              9.9717064
            ]
          ]
        ]
      }
    },
    {
      "type": "Feature",
      "properties": {
        "name": "Santa Ana",
        "category": "Residential",
        "osmType": "relation",
        "osmId": 5657109,
        "stroke": "#0f766e",
        "stroke-width": 2,
        "stroke-opacity": 0.95,
        "fill": "#0f766e",
        "fill-opacity": 0.16
      },
      "geometry": {
        "type": "Polygon",
        "coordinates": [
          [
            [
              -84.2437089,
              9.9352846
            ],
            [
              -84.2425065,
              9.9343721
            ],
            [
              -84.240987,
              9.9340975
            ],
            [
              -84.2383668,
              9.9325242
            ],
            [
              -84.2375659,
              9.9327043
            ],
            [
              -84.2371507,
              9.9326015
            ],
            [
              -84.2367813,
              9.9327871
            ],
            [
              -84.235687,
              9.9325625
            ],
            [
              -84.2337334,
              9.9331115
            ],
            [
              -84.2327078,
              9.9328139
            ],
            [
              -84.2325115,
              9.9325252
            ],
            [
              -84.2316744,
              9.9324701
            ],
            [
              -84.2300757,
              9.9310259
            ],
            [
              -84.2286136,
              9.9304972
            ],
            [
              -84.2286636,
              9.9298449
            ],
            [
              -84.2275511,
              9.928877
            ],
            [
              -84.2273136,
              9.9276385
            ],
            [
              -84.2265885,
              9.9266186
            ],
            [
              -84.2265051,
              9.9248956
            ],
            [
              -84.225458,
              9.923204
            ],
            [
              -84.2238319,
              9.9211245
            ],
            [
              -84.2212355,
              9.9140224
            ],
            [
              -84.221493,
              9.9133038
            ],
            [
              -84.2211282,
              9.9122469
            ],
            [
              -84.2202055,
              9.9118242
            ],
            [
              -84.2196476,
              9.910725
            ],
            [
              -84.2174589,
              9.9087592
            ],
            [
              -84.2143046,
              9.9068146
            ],
            [
              -84.2128455,
              9.9053349
            ],
            [
              -84.2121589,
              9.9043203
            ],
            [
              -84.210528,
              9.903703
            ],
            [
              -84.210405,
              9.903191
            ],
            [
              -84.2096205,
              9.9021794
            ],
            [
              -84.2082455,
              9.9018584
            ],
            [
              -84.2058291,
              9.9008753
            ],
            [
              -84.2038998,
              9.8985951
            ],
            [
              -84.2016393,
              9.8976244
            ],
            [
              -84.2006931,
              9.8964947
            ],
            [
              -84.1997374,
              9.8946358
            ],
            [
              -84.1992426,
              9.8942535
            ],
            [
              -84.1984291,
              9.8927593
            ],
            [
              -84.1960871,
              9.8896926
            ],
            [
              -84.194349,
              9.8882763
            ],
            [
              -84.1913449,
              9.8870925
            ],
            [
              -84.1887425,
              9.8854409
            ],
            [
              -84.1877505,
              9.884015
            ],
            [
              -84.1875255,
              9.8827801
            ],
            [
              -84.184736,
              9.8775375
            ],
            [
              -84.1830194,
              9.8755715
            ],
            [
              -84.1820996,
              9.8748558
            ],
            [
              -84.1810453,
              9.873373
            ],
            [
              -84.1800624,
              9.8714731
            ],
            [
              -84.1795743,
              9.87123
            ],
            [
              -84.1786623,
              9.86854
            ],
            [
              -84.178319,
              9.8680484
            ],
            [
              -84.1767311,
              9.867224
            ],
            [
              -84.1764039,
              9.8671711
            ],
            [
              -84.1748428,
              9.8677842
            ],
            [
              -84.1728913,
              9.8669464
            ],
            [
              -84.1668617,
              9.8672001
            ],
            [
              -84.1637504,
              9.8675172
            ],
            [
              -84.1620552,
              9.8671155
            ],
            [
              -84.1595018,
              9.8660374
            ],
            [
              -84.1578495,
              9.8659528
            ],
            [
              -84.1558754,
              9.8655089
            ],
            [
              -84.1513264,
              9.8633526
            ],
            [
              -84.1496312,
              9.8633314
            ],
            [
              -84.1485038,
              9.864167
            ],
            [
              -84.1485168,
              9.8652334
            ],
            [
              -84.1471941,
              9.8673077
            ],
            [
              -84.147357,
              9.8690322
            ],
            [
              -84.1469518,
              9.8696971
            ],
            [
              -84.1472949,
              9.8705933
            ],
            [
              -84.1480003,
              9.8714312
            ],
            [
              -84.1481631,
              9.872256
            ],
            [
              -84.1485602,
              9.872919
            ],
            [
              -84.1477853,
              9.8743376
            ],
            [
              -84.1485887,
              9.875006
            ],
            [
              -84.1489248,
              9.8764132
            ],
            [
              -84.1501479,
              9.8771107
            ],
            [
              -84.1507902,
              9.8789806
            ],
            [
              -84.1512494,
              9.8793978
            ],
            [
              -84.1514003,
              9.8802673
            ],
            [
              -84.152506,
              9.8814476
            ],
            [
              -84.152739,
              9.8822199
            ],
            [
              -84.1523784,
              9.8844359
            ],
            [
              -84.1523774,
              9.8857447
            ],
            [
              -84.1540779,
              9.8885615
            ],
            [
              -84.1553513,
              9.8893316
            ],
            [
              -84.1580755,
              9.8942607
            ],
            [
              -84.1609313,
              9.9011449
            ],
            [
              -84.1609525,
              9.9018584
            ],
            [
              -84.1617405,
              9.9037494
            ],
            [
              -84.1615855,
              9.9048418
            ],
            [
              -84.16174,
              9.9062369
            ],
            [
              -84.1618688,
              9.9065159
            ],
            [
              -84.16277,
              9.9071669
            ],
            [
              -84.1626305,
              9.9077564
            ],
            [
              -84.162855,
              9.9085818
            ],
            [
              -84.1622549,
              9.9099849
            ],
            [
              -84.1615481,
              9.9108947
            ],
            [
              -84.1616977,
              9.9114102
            ],
            [
              -84.1608596,
              9.9126323
            ],
            [
              -84.1606261,
              9.9141864
            ],
            [
              -84.1608156,
              9.9143843
            ],
            [
              -84.1603691,
              9.915206
            ],
            [
              -84.1602805,
              9.9161862
            ],
            [
              -84.1602644,
              9.9167041
            ],
            [
              -84.1605407,
              9.91686
            ],
            [
              -84.160658,
              9.917366
            ],
            [
              -84.1604335,
              9.9183708
            ],
            [
              -84.1599373,
              9.9196021
            ],
            [
              -84.1592936,
              9.9204132
            ],
            [
              -84.1591863,
              9.9213142
            ],
            [
              -84.1583736,
              9.9223868
            ],
            [
              -84.1594219,
              9.9239825
            ],
            [
              -84.159953,
              9.9253353
            ],
            [
              -84.160507,
              9.9258792
            ],
            [
              -84.1599887,
              9.9290511
            ],
            [
              -84.159435,
              9.9302338
            ],
            [
              -84.1595301,
              9.9308066
            ],
            [
              -84.1602118,
              9.9317028
            ],
            [
              -84.1602752,
              9.9320728
            ],
            [
              -84.1608504,
              9.9325547
            ],
            [
              -84.1611132,
              9.9332927
            ],
            [
              -84.1619277,
              9.9344727
            ],
            [
              -84.1618749,
              9.9356317
            ],
            [
              -84.1625845,
              9.9364908
            ],
            [
              -84.1632572,
              9.9368046
            ],
            [
              -84.1634362,
              9.9371399
            ],
            [
              -84.1633442,
              9.9397019
            ],
            [
              -84.1644103,
              9.9410992
            ],
            [
              -84.1661331,
              9.9441591
            ],
            [
              -84.1665847,
              9.9476477
            ],
            [
              -84.1670633,
              9.9482541
            ],
            [
              -84.1693399,
              9.9498419
            ],
            [
              -84.1702581,
              9.9507733
            ],
            [
              -84.1711114,
              9.9511121
            ],
            [
              -84.1751287,
              9.9537044
            ],
            [
              -84.1757402,
              9.954642
            ],
            [
              -84.1761064,
              9.9548914
            ],
            [
              -84.176469,
              9.9570718
            ],
            [
              -84.1775832,
              9.957826
            ],
            [
              -84.1776189,
              9.958459
            ],
            [
              -84.1782428,
              9.9603724
            ],
            [
              -84.1792258,
              9.9611829
            ],
            [
              -84.1795874,
              9.9618576
            ],
            [
              -84.1801976,
              9.9621299
            ],
            [
              -84.1808742,
              9.963118
            ],
            [
              -84.1813743,
              9.963511
            ],
            [
              -84.1815334,
              9.9640678
            ],
            [
              -84.1814261,
              9.9645503
            ],
            [
              -84.1835456,
              9.9654021
            ],
            [
              -84.1841117,
              9.9658022
            ],
            [
              -84.1846344,
              9.9676788
            ],
            [
              -84.1855512,
              9.9695557
            ],
            [
              -84.1858002,
              9.9717064
            ],
            [
              -84.185718,
              9.9722294
            ],
            [
              -84.1851084,
              9.9726031
            ],
            [
              -84.1842624,
              9.9725994
            ],
            [
              -84.1835389,
              9.9720001
            ],
            [
              -84.1839247,
              9.9728683
            ],
            [
              -84.1849583,
              9.9728834
            ],
            [
              -84.1865442,
              9.9723994
            ],
            [
              -84.1874398,
              9.9728977
            ],
            [
              -84.1900407,
              9.9732167
            ],
            [
              -84.190476,
              9.9730714
            ],
            [
              -84.1909729,
              9.972088
            ],
            [
              -84.1919042,
              9.9709745
            ],
            [
              -84.1928254,
              9.9704125
            ],
            [
              -84.1954751,
              9.9693262
            ],
            [
              -84.1961492,
              9.9678611
            ],
            [
              -84.1966901,
              9.9671349
            ],
            [
              -84.1973236,
              9.9667593
            ],
            [
              -84.197679,
              9.9657434
            ],
            [
              -84.1983407,
              9.9654262
            ],
            [
              -84.1993361,
              9.9653169
            ],
            [
              -84.2001619,
              9.9654754
            ],
            [
              -84.2013595,
              9.965109
            ],
            [
              -84.2026174,
              9.9616691
            ],
            [
              -84.2042362,
              9.9621449
            ],
            [
              -84.204794,
              9.9621066
            ],
            [
              -84.2051385,
              9.9619426
            ],
            [
              -84.2057794,
              9.9607537
            ],
            [
              -84.2063577,
              9.960709
            ],
            [
              -84.2080492,
              9.9616922
            ],
            [
              -84.2107016,
              9.9623119
            ],
            [
              -84.2124512,
              9.963072
            ],
            [
              -84.2139817,
              9.9610949
            ],
            [
              -84.2147966,
              9.9608214
            ],
            [
              -84.2151247,
              9.9600066
            ],
            [
              -84.2159724,
              9.9593066
            ],
            [
              -84.2173013,
              9.9590058
            ],
            [
              -84.2176568,
              9.9586886
            ],
            [
              -84.218808,
              9.9540817
            ],
            [
              -84.2195463,
              9.9534869
            ],
            [
              -84.2200112,
              9.9524752
            ],
            [
              -84.2192456,
              9.9507388
            ],
            [
              -84.2202436,
              9.9479565
            ],
            [
              -84.2216395,
              9.9474764
            ],
            [
              -84.2227291,
              9.9463041
            ],
            [
              -84.2241847,
              9.9454829
            ],
            [
              -84.2246059,
              9.9454891
            ],
            [
              -84.2253542,
              9.9457322
            ],
            [
              -84.2260481,
              9.9476915
            ],
            [
              -84.2271179,
              9.9484447
            ],
            [
              -84.2288637,
              9.9484422
            ],
            [
              -84.2302412,
              9.9486818
            ],
            [
              -84.2312108,
              9.9484929
            ],
            [
              -84.2316948,
              9.9482055
            ],
            [
              -84.2323816,
              9.9470029
            ],
            [
              -84.2335376,
              9.9461839
            ],
            [
              -84.2338138,
              9.9457737
            ],
            [
              -84.2335829,
              9.9433491
            ],
            [
              -84.2338635,
              9.9428888
            ],
            [
              -84.2345602,
              9.9425336
            ],
            [
              -84.235126,
              9.9416068
            ],
            [
              -84.2357726,
              9.9383288
            ],
            [
              -84.2360396,
              9.9378481
            ],
            [
              -84.2366057,
              9.937517
            ],
            [
              -84.2371825,
              9.9376131
            ],
            [
              -84.2382716,
              9.9380525
            ],
            [
              -84.2383853,
              9.9384832
            ],
            [
              -84.2392155,
              9.9385452
            ],
            [
              -84.2394654,
              9.9383433
            ],
            [
              -84.2396446,
              9.9377388
            ],
            [
              -84.2403976,
              9.9371004
            ],
            [
              -84.2408676,
              9.9369616
            ],
            [
              -84.2420681,
              9.9370687
            ],
            [
              -84.2421387,
              9.9367693
            ],
            [
              -84.2431855,
              9.935573
            ],
            [
              -84.2437089,
              9.9352846
            ]
          ]
        ]
      }
    }
  ]
}
