{
  "type": "FeatureCollection",
  "features": [
    {
      "type": "Feature",
      "properties": {
        "name": "Centro",
        "category": "Tourist",
        "osmType": "way",
        "osmId": 406481044,
        "stroke": "#f59e0b",
        "stroke-width": 2,
        "stroke-opacity": 0.95,
        "fill": "#f59e0b",
        "fill-opacity": 0.16
      },
      "geometry": {
        "type": "Polygon",
        "coordinates": [
          [
            [
              -79.1073736,
              -0.2703521
            ],
            [
              -79.1060431,
              -0.2723584
            ],
            [
              -79.1019609,
              -0.2730772
            ],
            [
              -79.1002174,
              -0.2729404
            ],
            [
              -79.0988951,
              -0.2720392
            ],
            [
              -79.0979483,
              -0.2718005
            ],
            [
              -79.0979965,
              -0.2711246
            ],
            [
              -79.0983278,
              -0.2707251
            ],
            [
              -79.1013318,
              -0.2707519
            ],
            [
              -79.1012031,
              -0.2690675
            ],
            [
              -79.1029412,
              -0.2687671
            ],
            [
              -79.1045304,
              -0.2680669
            ],
            [
              -79.1058233,
              -0.2679757
            ],
            [
              -79.106982,
              -0.2688716
            ],
            [
              -79.1073736,
              -0.2703521
            ]
          ]
        ]
      }
    },
    {
      "type": "Feature",
      "properties": {
        "name": "Bombolí",
        "category": "Residential",
        "osmType": "relation",
        "osmId": 11950524,
        "stroke": "#0f766e",
        "stroke-width": 2,
        "stroke-opacity": 0.95,
        "fill": "#0f766e",
        "fill-opacity": 0.16
      },
      "geometry": {
        "type": "Polygon",
        "coordinates": [
          [
            [
              -79.2164898,
              -0.2416341
            ],
            [
              -79.2150736,
              -0.2416341
            ],
            [
              -79.206394,
              -0.2425031
            ],
            [
              -79.2052889,
              -0.2430718
            ],
            [
              -79.2047632,
              -0.2438013
            ],
            [
              -79.2042375,
              -0.2466766
            ],
            [
              -79.2037869,
              -0.2476315
            ],
            [
              -79.1989267,
              -0.2531139
            ],
            [
              -79.1976071,
              -0.2539614
            ],
            [
              -79.1938412,
              -0.254809
            ],
            [
              -79.1915989,
              -0.254927
            ],
            [
              -79.1787243,
              -0.2550021
            ],
            [
              -79.1764873,
              -0.2541492
            ],
            [
              -79.1762191,
              -0.2535484
            ],
            [
              -79.1761494,
              -0.2519713
            ],
            [
              -79.1732794,
              -0.245062
            ],
            [
              -79.1695511,
              -0.240175
            ],
            [
              -79.1693634,
              -0.2396869
            ],
            [
              -79.1683495,
              -0.2390163
            ],
            [
              -79.1672766,
              -0.2365702
            ],
            [
              -79.1677594,
              -0.2302831
            ],
            [
              -79.1671801,
              -0.2224726
            ],
            [
              -79.1673947,
              -0.221507
            ],
            [
              -79.1678024,
              -0.2207774
            ],
            [
              -79.1687894,
              -0.2196187
            ],
            [
              -79.1856766,
              -0.2168292
            ],
            [
              -79.1881228,
              -0.2160139
            ],
            [
              -79.1899896,
              -0.2166361
            ],
            [
              -79.1985727,
              -0.2148766
            ],
            [
              -79.1995597,
              -0.2144475
            ],
            [
              -79.2016196,
              -0.2152628
            ],
            [
              -79.2020059,
              -0.2160353
            ],
            [
              -79.2020059,
              -0.2173013
            ],
            [
              -79.2052245,
              -0.220713
            ],
            [
              -79.2041731,
              -0.224275
            ],
            [
              -79.2028213,
              -0.2259487
            ],
            [
              -79.2164898,
              -0.2416341
            ]
          ]
        ]
      }
    }
  ]
}
