{
  "type": "FeatureCollection",
  "features": [
    {
      "type": "Feature",
      "properties": {
        "name": "Centro Histórico",
        "category": "Tourist",
        "osmType": "way",
        "osmId": 685629345,
        "stroke": "#f59e0b",
        "stroke-width": 2,
        "stroke-opacity": 0.95,
        "fill": "#f59e0b",
        "fill-opacity": 0.16
      },
      "geometry": {
        "type": "Polygon",
        "coordinates": [
          [
            [
              -74.2156085,
              11.2413344
            ],
            [
              -74.2061877,
              11.2390847
            ],
            [
              -74.2071695,
              11.2435585
            ],
            [
              -74.2079038,
              11.2456368
            ],
            [
              -74.2087138,
              11.2464158
            ],
            [
              -74.2114769,
              11.2476256
            ],
            [
              -74.2130791,
              11.2479354
            ],
            [
              -74.2135907,
              11.2476361
            ],
            [
              -74.2142466,
              11.2451838
            ],
            [
              -74.2155229,
              11.2416923
            ],
            [
              -74.2156085,
              11.2413344
            ]
          ]
        ]
      }
    },
    {
      "type": "Feature",
      "properties": {
        "name": "El Rodadero",
        "category": "Residential",
        "osmType": "way",
        "osmId": 341216800,
        "stroke": "#0f766e",
        "stroke-width": 2,
        "stroke-opacity": 0.95,
        "fill": "#0f766e",
        "fill-opacity": 0.16
      },
      "geometry": {
        "type": "Polygon",
        "coordinates": [
          [
            [
              -74.2293356,
              11.1982833
            ],
            [
              -74.2292858,
              11.1978847
            ],
            [
              -74.228846,
              11.1984155
            ],
            [
              -74.2283401,
              11.1998068
            ],
            [
              -74.2281693,
              11.200056
            ],
            [
              -74.2279206,
              11.1999702
            ],
            [
              -74.2275065,
              11.2015689
            ],
            [
              -74.2278527,
              11.2016765
            ],
            [
              -74.2277062,
              11.2030623
            ],
            [
              -74.2278493,
              11.2053056
            ],
            [
              -74.2282401,
              11.2064893
            ],
            [
              -74.2288227,
              11.2072985
            ],
            [
              -74.2290527,
              11.2071275
            ],
            [
              -74.2283795,
              11.2060287
            ],
            [
              -74.2280048,
              11.2033194
            ],
            [
              -74.2281953,
              11.2015303
            ],
            [
              -74.229105,
              11.1985937
            ],
            [
              -74.2293356,
              11.1982833
            ]
          ]
        ]
      }
    },
    {
      "type": "Feature",
      "properties": {
        "name": "Bello Horizonte",
        "category": "Hip",
        "osmType": "way",
        "osmId": 204923815,
        "stroke": "#f43f5e",
        "stroke-width": 2,
        "stroke-opacity": 0.95,
        "fill": "#f43f5e",
        "fill-opacity": 0.16
      },
      "geometry": {
        "type": "Polygon",
        "coordinates": [
          [
            [
              -74.2338574,
              11.1704789
            ],
            [
              -74.2329052,
              11.1689224
            ],
            [
              -74.2325206,
              11.1690714
            ],
            [
              -74.2331117,
              11.1695776
            ],
            [
              -74.2335491,
              11.1706919
            ],
            [
              -74.233756,
              11.1705711
            ],
            [
              -74.2338574,
              11.1704789
            ]
          ]
        ]
      }
    }
  ]
}
