{
  "type": "FeatureCollection",
  "features": [
    {
      "type": "Feature",
      "properties": {
        "name": "Centro Histórico",
        "category": "Tourist",
        "osmType": "relation",
        "osmId": 16264362,
        "stroke": "#f59e0b",
        "stroke-width": 2,
        "stroke-opacity": 0.95,
        "fill": "#f59e0b",
        "fill-opacity": 0.16
      },
      "geometry": {
        "type": "Polygon",
        "coordinates": [
          [
            [
              -87.21103,
              14.0955339
            ],
            [
              -87.2101417,
              14.0954669
            ],
            [
              -87.2104792,
              14.0911097
            ],
            [
              -87.2080027,
              14.0910744
            ],
            [
              -87.2077727,
              14.0908376
            ],
            [
              -87.2068628,
              14.0913341
            ],
            [
              -87.2059187,
              14.0921416
            ],
            [
              -87.205447,
              14.0928689
            ],
            [
              -87.2060255,
              14.0936398
            ],
            [
              -87.2062223,
              14.0943993
            ],
            [
              -87.2061182,
              14.0954131
            ],
            [
              -87.2053072,
              14.0977089
            ],
            [
              -87.2055825,
              14.1017599
            ],
            [
              -87.2058321,
              14.10305
            ],
            [
              -87.2047892,
              14.1027576
            ],
            [
              -87.2032979,
              14.1015015
            ],
            [
              -87.2029462,
              14.1015195
            ],
            [
              -87.2027157,
              14.1019253
            ],
            [
              -87.2027312,
              14.102387
            ],
            [
              -87.203323,
              14.1026027
            ],
            [
              -87.2031929,
              14.1029704
            ],
            [
              -87.2027572,
              14.1031739
            ],
            [
              -87.2017516,
              14.1030269
            ],
            [
              -87.2007905,
              14.1024181
            ],
            [
              -87.199683,
              14.1020763
            ],
            [
              -87.1994981,
              14.1022509
            ],
            [
              -87.2001167,
              14.1030454
            ],
            [
              -87.1998563,
              14.1037149
            ],
            [
              -87.1975286,
              14.1052979
            ],
            [
              -87.1968534,
              14.105068
            ],
            [
              -87.1966183,
              14.1058288
            ],
            [
              -87.1981915,
              14.1062957
            ],
            [
              -87.1987029,
              14.1068483
            ],
            [
              -87.1992585,
              14.1069083
            ],
            [
              -87.1998248,
              14.1063008
            ],
            [
              -87.1999752,
              14.1072327
            ],
            [
              -87.2005273,
              14.1073837
            ],
            [
              -87.2005362,
              14.1078385
            ],
            [
              -87.2003026,
              14.1080599
            ],
            [
              -87.20043,
              14.1082522
            ],
            [
              -87.2011839,
              14.108144
            ],
            [
              -87.201037,
              14.1095548
            ],
            [
              -87.2011928,
              14.1101855
            ],
            [
              -87.201473,
              14.1097767
            ],
            [
              -87.2015011,
              14.1099737
            ],
            [
              -87.2027106,
              14.1097224
            ],
            [
              -87.2026627,
              14.1108478
            ],
            [
              -87.2033843,
              14.110728
            ],
            [
              -87.2037093,
              14.1108954
            ],
            [
              -87.2047062,
              14.1105559
            ],
            [
              -87.2048907,
              14.111455
            ],
            [
              -87.2045942,
              14.1128227
            ],
            [
              -87.2051149,
              14.1125283
            ],
            [
              -87.2047109,
              14.1140048
            ],
            [
              -87.2056764,
              14.1142984
            ],
            [
              -87.2093388,
              14.1144939
            ],
            [
              -87.2089198,
              14.1139283
            ],
            [
              -87.208828,
              14.1134116
            ],
            [
              -87.2090432,
              14.1124742
            ],
            [
              -87.2096863,
              14.1114971
            ],
            [
              -87.2102614,
              14.1099488
            ],
            [
              -87.2105848,
              14.1069776
            ],
            [
              -87.2102872,
              14.1053432
            ],
            [
              -87.2099393,
              14.1049954
            ],
            [
              -87.2104315,
              14.1029866
            ],
            [
              -87.2107048,
              14.0994414
            ],
            [
              -87.21103,
              14.0955339
            ]
          ]
        ]
      }
    },
    {
      "type": "Feature",
      "properties": {
        "name": "Lomas del Guijarro",
        "category": "Residential",
        "osmType": "relation",
        "osmId": 10395542,
        "stroke": "#0f766e",
        "stroke-width": 2,
        "stroke-opacity": 0.95,
        "fill": "#0f766e",
        "fill-opacity": 0.16
      },
      "geometry": {
        "type": "Polygon",
        "coordinates": [
          [
            [
              -87.1788992,
              14.0935122
            ],
            [
              -87.1783368,
              14.0917244
            ],
            [
              -87.1780058,
              14.0919604
            ],
            [
              -87.1783206,
              14.0915778
            ],
            [
              -87.1782695,
              14.0910644
            ],
            [
              -87.1778116,
              14.0912124
            ],
            [
              -87.1775488,
              14.0910348
            ],
            [
              -87.17769,
              14.0908857
            ],
            [
              -87.1776446,
              14.0896458
            ],
            [
              -87.1773404,
              14.0898551
            ],
            [
              -87.1770436,
              14.0896059
            ],
            [
              -87.1766474,
              14.0895851
            ],
            [
              -87.1742564,
              14.0903567
            ],
            [
              -87.17336,
              14.0900643
            ],
            [
              -87.1720949,
              14.0906638
            ],
            [
              -87.1708926,
              14.0918522
            ],
            [
              -87.1703388,
              14.0919545
            ],
            [
              -87.1691846,
              14.0917573
            ],
            [
              -87.1686614,
              14.0910228
            ],
            [
              -87.1680714,
              14.0907668
            ],
            [
              -87.1661195,
              14.0917528
            ],
            [
              -87.1657362,
              14.0922823
            ],
            [
              -87.1658845,
              14.0928176
            ],
            [
              -87.1662896,
              14.0931637
            ],
            [
              -87.1665451,
              14.0931741
            ],
            [
              -87.1666706,
              14.0927899
            ],
            [
              -87.169372,
              14.0930006
            ],
            [
              -87.1693506,
              14.0931771
            ],
            [
              -87.1713178,
              14.0940555
            ],
            [
              -87.1717722,
              14.0951237
            ],
            [
              -87.1715248,
              14.0966831
            ],
            [
              -87.1726876,
              14.0971843
            ],
            [
              -87.1734734,
              14.0970566
            ],
            [
              -87.1736087,
              14.0976081
            ],
            [
              -87.1739013,
              14.0977514
            ],
            [
              -87.1758904,
              14.0967713
            ],
            [
              -87.1756783,
              14.096257
            ],
            [
              -87.1754208,
              14.096257
            ],
            [
              -87.1752616,
              14.0958745
            ],
            [
              -87.1753951,
              14.0953662
            ],
            [
              -87.1766187,
              14.0946476
            ],
            [
              -87.1779906,
              14.094157
            ],
            [
              -87.1788702,
              14.0935242
            ],
            [
              -87.1788992,
              14.0935122
            ]
          ]
        ]
      }
    }
  ]
}
