{
  "type": "FeatureCollection",
  "features": [
    {
      "type": "Feature",
      "properties": {
        "name": "Centro Histórico",
        "category": "Tourist",
        "osmType": "way",
        "osmId": 353905864,
        "stroke": "#f59e0b",
        "stroke-width": 2,
        "stroke-opacity": 0.95,
        "fill": "#f59e0b",
        "fill-opacity": 0.16
      },
      "geometry": {
        "type": "Polygon",
        "coordinates": [
          [
            [
              -96.135416,
              19.1983859
            ],
            [
              -96.1349044,
              19.1977665
            ],
            [
              -96.1346115,
              19.1979928
            ],
            [
              -96.1351108,
              19.1985959
            ],
            [
              -96.135416,
              19.1983859
            ]
          ]
        ]
      }
    },
    {
      "type": "Feature",
      "properties": {
        "name": "Boca del Río",
        "category": "Residential",
        "osmType": "relation",
        "osmId": 6037613,
        "stroke": "#0f766e",
        "stroke-width": 2,
        "stroke-opacity": 0.95,
        "fill": "#0f766e",
        "fill-opacity": 0.16
      },
      "geometry": {
        "type": "Polygon",
        "coordinates": [
          [
            [
              -96.1496576,
              19.109512
            ],
            [
              -96.1480433,
              19.1094249
            ],
            [
              -96.1477239,
              19.1084443
            ],
            [
              -96.1468587,
              19.1082446
            ],
            [
              -96.144866,
              19.110432
            ],
            [
              -96.1439594,
              19.1107986
            ],
            [
              -96.1436304,
              19.1111402
            ],
            [
              -96.1401221,
              19.112392
            ],
            [
              -96.137771,
              19.1137329
            ],
            [
              -96.1373709,
              19.1141879
            ],
            [
              -96.1362712,
              19.1140466
            ],
            [
              -96.1358856,
              19.1142003
            ],
            [
              -96.1357333,
              19.1143664
            ],
            [
              -96.1360685,
              19.1158223
            ],
            [
              -96.1355295,
              19.1162042
            ],
            [
              -96.1345092,
              19.1164499
            ],
            [
              -96.1343932,
              19.1165989
            ],
            [
              -96.1345419,
              19.1171829
            ],
            [
              -96.1342255,
              19.1177705
            ],
            [
              -96.1333944,
              19.1179407
            ],
            [
              -96.1326358,
              19.1178534
            ],
            [
              -96.131622,
              19.1164842
            ],
            [
              -96.1309598,
              19.1165151
            ],
            [
              -96.1306752,
              19.1166651
            ],
            [
              -96.130394,
              19.1172478
            ],
            [
              -96.1302409,
              19.1185741
            ],
            [
              -96.1297535,
              19.1185356
            ],
            [
              -96.1294191,
              19.1174936
            ],
            [
              -96.1278118,
              19.1152951
            ],
            [
              -96.1259747,
              19.1161243
            ],
            [
              -96.1249927,
              19.1155227
            ],
            [
              -96.1242778,
              19.1154702
            ],
            [
              -96.1233764,
              19.1157885
            ],
            [
              -96.1228383,
              19.1153191
            ],
            [
              -96.1227936,
              19.1148554
            ],
            [
              -96.1217751,
              19.1132699
            ],
            [
              -96.1209225,
              19.1124895
            ],
            [
              -96.1206741,
              19.1107625
            ],
            [
              -96.1192507,
              19.1109555
            ],
            [
              -96.1173935,
              19.1090199
            ],
            [
              -96.1169649,
              19.1092877
            ],
            [
              -96.1158144,
              19.1094237
            ],
            [
              -96.1152063,
              19.1092245
            ],
            [
              -96.1139325,
              19.1082665
            ],
            [
              -96.1132413,
              19.1073922
            ],
            [
              -96.1139624,
              19.1047602
            ],
            [
              -96.1137388,
              19.1030513
            ],
            [
              -96.1121571,
              19.0999239
            ],
            [
              -96.109687,
              19.09859
            ],
            [
              -96.1115254,
              19.0976661
            ],
            [
              -96.1131496,
              19.0960743
            ],
            [
              -96.1141822,
              19.0955882
            ],
            [
              -96.1150308,
              19.0945704
            ],
            [
              -96.1177596,
              19.0921142
            ],
            [
              -96.1183425,
              19.091898
            ],
            [
              -96.1192358,
              19.0919519
            ],
            [
              -96.1212513,
              19.0932831
            ],
            [
              -96.1236215,
              19.0942298
            ],
            [
              -96.1277914,
              19.0944702
            ],
            [
              -96.1291519,
              19.0941363
            ],
            [
              -96.1318204,
              19.0939393
            ],
            [
              -96.1356034,
              19.0942868
            ],
            [
              -96.1384796,
              19.0949149
            ],
            [
              -96.1393588,
              19.0949869
            ],
            [
              -96.1403665,
              19.0947303
            ],
            [
              -96.1407829,
              19.0943285
            ],
            [
              -96.1410228,
              19.0928598
            ],
            [
              -96.1402265,
              19.0887777
            ],
            [
              -96.1403056,
              19.0869828
            ],
            [
              -96.1408804,
              19.0862613
            ],
            [
              -96.1415346,
              19.0858719
            ],
            [
              -96.1435424,
              19.0850809
            ],
            [
              -96.1442177,
              19.083994
            ],
            [
              -96.1445523,
              19.0829118
            ],
            [
              -96.1443567,
              19.0817573
            ],
            [
              -96.1432774,
              19.080103
            ],
            [
              -96.1413048,
              19.0785479
            ],
            [
              -96.1390312,
              19.0775594
            ],
            [
              -96.1378554,
              19.0773053
            ],
            [
              -96.1341132,
              19.077146
            ],
            [
              -96.1326708,
              19.0766956
            ],
            [
              -96.1320819,
              19.075737
            ],
            [
              -96.1313688,
              19.0700668
            ],
            [
              -96.1314298,
              19.0697998
            ],
            [
              -96.1326273,
              19.0696219
            ],
            [
              -96.1358163,
              19.0704382
            ],
            [
              -96.1380216,
              19.0701688
            ],
            [
              -96.1390758,
              19.0695688
            ],
            [
              -96.141298,
              19.0678288
            ],
            [
              -96.1422805,
              19.0659234
            ],
            [
              -96.1430648,
              19.0631342
            ],
            [
              -96.1432431,
              19.0588647
            ],
            [
              -96.1427238,
              19.0577669
            ],
            [
              -96.1415957,
              19.0573858
            ],
            [
              -96.1404174,
              19.0575493
            ],
            [
              -96.1389125,
              19.0584219
            ],
            [
              -96.1367352,
              19.0587107
            ],
            [
              -96.1237641,
              19.0595771
            ],
            [
              -96.1228399,
              19.0543119
            ],
            [
              -96.1172069,
              19.055707
            ],
            [
              -96.1179808,
              19.0561519
            ],
            [
              -96.1186463,
              19.0568294
            ],
            [
              -96.1195099,
              19.0592784
            ],
            [
              -96.1203319,
              19.0603089
            ],
            [
              -96.1208094,
              19.0613657
            ],
            [
              -96.1203145,
              19.0613176
            ],
            [
              -96.1185796,
              19.0588086
            ],
            [
              -96.1179928,
              19.0586623
            ],
            [
              -96.1170531,
              19.0588317
            ],
            [
              -96.1166206,
              19.0595611
            ],
            [
              -96.116412,
              19.0604168
            ],
            [
              -96.1162879,
              19.061928
            ],
            [
              -96.1155942,
              19.0639959
            ],
            [
              -96.1153365,
              19.0665231
            ],
            [
              -96.1139034,
              19.0725546
            ],
            [
              -96.1136581,
              19.0756984
            ],
            [
              -96.1140606,
              19.0771932
            ],
            [
              -96.1148489,
              19.082806
            ],
            [
              -96.1152737,
              19.0836794
            ],
            [
              -96.1156971,
              19.0840927
            ],
            [
              -96.1160465,
              19.0839309
            ],
            [
              -96.1161647,
              19.0830562
            ],
            [
              -96.1168886,
              19.0830662
            ],
            [
              -96.117047,
              19.0836181
            ],
            [
              -96.1169161,
              19.0842281
            ],
            [
              -96.113732,
              19.0861093
            ],
            [
              -96.1102804,
              19.0863332
            ],
            [
              -96.1089124,
              19.0860839
            ],
            [
              -96.1080899,
              19.0850209
            ],
            [
              -96.1077803,
              19.0836271
            ],
            [
              -96.1064799,
              19.0830593
            ],
            [
              -96.1057291,
              19.0832138
            ],
            [
              -96.1054629,
              19.0871392
            ],
            [
              -96.1063692,
              19.08874
            ],
            [
              -96.1066256,
              19.0919196
            ],
            [
              -96.1055712,
              19.0928567
            ],
            [
              -96.1032007,
              19.0920033
            ],
            [
              -96.1021062,
              19.092074
            ],
            [
              -96.0990193,
              19.0943647
            ],
            [
              -96.099056,
              19.0949118
            ],
            [
              -96.1005626,
              19.095709
            ],
            [
              -96.1014843,
              19.0966687
            ],
            [
              -96.1022068,
              19.0987206
            ],
            [
              -96.1021862,
              19.0999037
            ],
            [
              -96.1015823,
              19.1007418
            ],
            [
              -96.0982522,
              19.102406
            ],
            [
              -96.0981177,
              19.1037815
            ],
            [
              -96.0958135,
              19.1049218
            ],
            [
              -96.0960026,
              19.1050954
            ],
            [
              -96.0978674,
              19.1040905
            ],
            [
              -96.0981739,
              19.1043085
            ],
            [
              -96.0995136,
              19.1062461
            ],
            [
              -96.1016125,
              19.1100528
            ],
            [
              -96.1024192,
              19.1135539
            ],
            [
              -96.101878,
              19.113886
            ],
            [
              -96.1021838,
              19.1137669
            ],
            [
              -96.1025265,
              19.1141621
            ],
            [
              -96.1028055,
              19.1147906
            ],
            [
              -96.1024407,
              19.1149528
            ],
            [
              -96.102291,
              19.1152786
            ],
            [
              -96.1025821,
              19.1150924
            ],
            [
              -96.1029128,
              19.1154191
            ],
            [
              -96.1035565,
              19.1174668
            ],
            [
              -96.1028892,
              19.1179878
            ],
            [
              -96.1036135,
              19.1176874
            ],
            [
              -96.1038973,
              19.1186848
            ],
            [
              -96.1032003,
              19.1189572
            ],
            [
              -96.103941,
              19.1187825
            ],
            [
              -96.1045512,
              19.1209163
            ],
            [
              -96.10384,
              19.1211372
            ],
            [
              -96.1045914,
              19.1210173
            ],
            [
              -96.1044845,
              19.1215985
            ],
            [
              -96.104815,
              19.1224949
            ],
            [
              -96.1041203,
              19.1226837
            ],
            [
              -96.1048405,
              19.1225862
            ],
            [
              -96.1050296,
              19.1235352
            ],
            [
              -96.1042625,
              19.1236784
            ],
            [
              -96.1050457,
              19.1236417
            ],
            [
              -96.1051959,
              19.1247288
            ],
            [
              -96.1045025,
              19.1248061
            ],
            [
              -96.1051959,
              19.1248416
            ],
            [
              -96.1053488,
              19.1265699
            ],
            [
              -96.1045079,
              19.1265965
            ],
            [
              -96.1053461,
              19.1266535
            ],
            [
              -96.1052267,
              19.1282361
            ],
            [
              -96.1050805,
              19.1282982
            ],
            [
              -96.1052173,
              19.1283223
            ],
            [
              -96.1044237,
              19.1297994
            ],
            [
              -96.1037824,
              19.1296032
            ],
            [
              -96.1043532,
              19.1298752
            ],
            [
              -96.1039352,
              19.1311807
            ],
            [
              -96.1037718,
              19.1313972
            ],
            [
              -96.1027806,
              19.131163
            ],
            [
              -96.1033426,
              19.1313093
            ],
            [
              -96.1022589,
              19.1326809
            ],
            [
              -96.1014649,
              19.1322133
            ],
            [
              -96.1020604,
              19.132743
            ],
            [
              -96.1016983,
              19.1338541
            ],
            [
              -96.1009821,
              19.1344142
            ],
            [
              -96.1005288,
              19.1339884
            ],
            [
              -96.1015695,
              19.1352605
            ],
            [
              -96.1017312,
              19.1377994
            ],
            [
              -96.101666,
              19.1382802
            ],
            [
              -96.1014099,
              19.1383064
            ],
            [
              -96.1016432,
              19.13832
            ],
            [
              -96.1013862,
              19.1399501
            ],
            [
              -96.1008292,
              19.1399674
            ],
            [
              -96.1013761,
              19.1400395
            ],
            [
              -96.1010143,
              19.141228
            ],
            [
              -96.100547,
              19.1415408
            ],
            [
              -96.1007666,
              19.1416359
            ],
            [
              -96.1003162,
              19.1431686
            ],
            [
              -96.0998387,
              19.144011
            ],
            [
              -96.0989933,
              19.1449059
            ],
            [
              -96.0964492,
              19.1460836
            ],
            [
              -96.0935818,
              19.1485263
            ],
            [
              -96.0930619,
              19.1494217
            ],
            [
              -96.0927662,
              19.1513909
            ],
            [
              -96.0932942,
              19.152755
            ],
            [
              -96.094158,
              19.1538754
            ],
            [
              -96.0988931,
              19.1587266
            ],
            [
              -96.0992615,
              19.1595485
            ],
            [
              -96.0984656,
              19.1601868
            ],
            [
              -96.0993508,
              19.1596319
            ],
            [
              -96.1001876,
              19.1604832
            ],
            [
              -96.100381,
              19.1617222
            ],
            [
              -96.0996727,
              19.1615777
            ],
            [
              -96.0995439,
              19.1617399
            ],
            [
              -96.1006495,
              19.1618275
            ],
            [
              -96.1016214,
              19.1612065
            ],
            [
              -96.1030167,
              19.1626267
            ],
            [
              -96.1031764,
              19.163452
            ],
            [
              -96.1027859,
              19.1635186
            ],
            [
              -96.1035204,
              19.1633518
            ],
            [
              -96.1037023,
              19.1635928
            ],
            [
              -96.103878,
              19.1640859
            ],
            [
              -96.1036678,
              19.1650918
            ],
            [
              -96.1031144,
              19.1645907
            ],
            [
              -96.1030073,
              19.1647078
            ],
            [
              -96.1036922,
              19.1653122
            ],
            [
              -96.1055771,
              19.1655435
            ],
            [
              -96.1061803,
              19.1660611
            ],
            [
              -96.1073484,
              19.1664994
            ],
            [
              -96.107913,
              19.167186
            ],
            [
              -96.1085379,
              19.1675938
            ],
            [
              -96.1143878,
              19.1688783
            ],
            [
              -96.1160736,
              19.1694268
            ],
            [
              -96.1183373,
              19.1717424
            ],
            [
              -96.1190782,
              19.1709947
            ],
            [
              -96.1185589,
              19.1686023
            ],
            [
              -96.1314424,
              19.1651237
            ],
            [
              -96.1315968,
              19.1625375
            ],
            [
              -96.131361,
              19.1600375
            ],
            [
              -96.130682,
              19.1556096
            ],
            [
              -96.1299828,
              19.153194
            ],
            [
              -96.1298811,
              19.151293
            ],
            [
              -96.1289379,
              19.1481284
            ],
            [
              -96.129143,
              19.1464056
            ],
            [
              -96.129828,
              19.1455722
            ],
            [
              -96.1310705,
              19.1455414
            ],
            [
              -96.1332951,
              19.1446262
            ],
            [
              -96.1342647,
              19.1446375
            ],
            [
              -96.1353539,
              19.1443834
            ],
            [
              -96.1381723,
              19.1415058
            ],
            [
              -96.1389873,
              19.1412023
            ],
            [
              -96.1400975,
              19.1410936
            ],
            [
              -96.1398457,
              19.1403346
            ],
            [
              -96.1399584,
              19.139874
            ],
            [
              -96.1412662,
              19.1384661
            ],
            [
              -96.1416392,
              19.1376018
            ],
            [
              -96.1469351,
              19.1215465
            ],
            [
              -96.1484315,
              19.1158208
            ],
            [
              -96.1496311,
              19.1099928
            ],
            [
              -96.1496576,
              19.109512
            ]
          ]
        ]
      }
    }
  ]
}
