{
  "type": "FeatureCollection",
  "features": [
    {
      "type": "Feature",
      "properties": {
        "name": "Praia do Canto",
        "category": "Tourist",
        "osmType": "R",
        "osmId": 1845504,
        "source": "https://www.openstreetmap.org/relation/1845504",
        "retrievedAt": "2026-09-24",
        "stroke": "#f59e0b",
        "stroke-width": 2,
        "stroke-opacity": 0.95,
        "fill": "#f59e0b",
        "fill-opacity": 0.16
      },
      "geometry": {
        "type": "Polygon",
        "coordinates": [
          [
            [
              -40.2990288,
              -20.3003538
            ],
            [
              -40.298459,
              -20.3017478
            ],
            [
              -40.2982264,
              -20.3023767
            ],
            [
              -40.2979491,
              -20.3030072
            ],
            [
              -40.2955898,
              -20.3086265
            ],
            [
              -40.2943333,
              -20.306755
            ],
            [
              -40.2935938,
              -20.3057183
            ],
            [
              -40.2927416,
              -20.3046071
            ],
            [
              -40.2919528,
              -20.3032523
            ],
            [
              -40.2918511,
              -20.302042
            ],
            [
              -40.2916502,
              -20.3024141
            ],
            [
              -40.2912162,
              -20.302721
            ],
            [
              -40.2909463,
              -20.3028057
            ],
            [
              -40.2906128,
              -20.3028481
            ],
            [
              -40.2898389,
              -20.3028312
            ],
            [
              -40.288965,
              -20.3028121
            ],
            [
              -40.2889649,
              -20.3028664
            ],
            [
              -40.288945,
              -20.3028659
            ],
            [
              -40.288923,
              -20.3028338
            ],
            [
              -40.2888629,
              -20.3027461
            ],
            [
              -40.2889078,
              -20.3027223
            ],
            [
              -40.2890483,
              -20.3027317
            ],
            [
              -40.2892985,
              -20.3027421
            ],
            [
              -40.2895984,
              -20.3026572
            ],
            [
              -40.2897272,
              -20.3025069
            ],
            [
              -40.2898948,
              -20.3022931
            ],
            [
              -40.2901925,
              -20.3019472
            ],
            [
              -40.2904218,
              -20.3015912
            ],
            [
              -40.2904943,
              -20.3014554
            ],
            [
              -40.2905989,
              -20.3011787
            ],
            [
              -40.2906364,
              -20.3010063
            ],
            [
              -40.2906673,
              -20.3008956
            ],
            [
              -40.2906753,
              -20.3007938
            ],
            [
              -40.2906773,
              -20.3007082
            ],
            [
              -40.2906807,
              -20.3006523
            ],
            [
              -40.2906632,
              -20.3005259
            ],
            [
              -40.2906418,
              -20.3003938
            ],
            [
              -40.2906257,
              -20.3002718
            ],
            [
              -40.2905975,
              -20.3001271
            ],
            [
              -40.2905908,
              -20.2999548
            ],
            [
              -40.2905881,
              -20.2997838
            ],
            [
              -40.2905828,
              -20.2996064
            ],
            [
              -40.2905774,
              -20.299458
            ],
            [
              -40.2905023,
              -20.2992379
            ],
            [
              -40.2904566,
              -20.2991836
            ],
            [
              -40.2903707,
              -20.2990918
            ],
            [
              -40.2902028,
              -20.2990001
            ],
            [
              -40.2895557,
              -20.2987806
            ],
            [
              -40.2896068,
              -20.2986674
            ],
            [
              -40.289399,
              -20.2985762
            ],
            [
              -40.2893085,
              -20.2985298
            ],
            [
              -40.2891469,
              -20.2984469
            ],
            [
              -40.289121,
              -20.2984336
            ],
            [
              -40.2892283,
              -20.2982486
            ],
            [
              -40.2890779,
              -20.2981676
            ],
            [
              -40.2890548,
              -20.2982001
            ],
            [
              -40.2890176,
              -20.298223
            ],
            [
              -40.2889342,
              -20.2982158
            ],
            [
              -40.2888405,
              -20.2981869
            ],
            [
              -40.2888058,
              -20.2981989
            ],
            [
              -40.2887699,
              -20.2981977
            ],
            [
              -40.2886775,
              -20.2980809
            ],
            [
              -40.2885579,
              -20.2978911
            ],
            [
              -40.2884094,
              -20.2977054
            ],
            [
              -40.2884391,
              -20.2975198
            ],
            [
              -40.28835,
              -20.2974734
            ],
            [
              -40.2883335,
              -20.2973686
            ],
            [
              -40.2883203,
              -20.2972228
            ],
            [
              -40.2883302,
              -20.2970557
            ],
            [
              -40.2882511,
              -20.2969072
            ],
            [
              -40.2881521,
              -20.2968329
            ],
            [
              -40.2881422,
              -20.296703
            ],
            [
              -40.2879938,
              -20.2964245
            ],
            [
              -40.2878595,
              -20.2961531
            ],
            [
              -40.2874791,
              -20.2959697
            ],
            [
              -40.2873208,
              -20.2959418
            ],
            [
              -40.2871328,
              -20.2960161
            ],
            [
              -40.2870338,
              -20.2961182
            ],
            [
              -40.2868952,
              -20.2960996
            ],
            [
              -40.2867963,
              -20.2960161
            ],
            [
              -40.2867072,
              -20.2959604
            ],
            [
              -40.286539,
              -20.2960347
            ],
            [
              -40.2863806,
              -20.2959697
            ],
            [
              -40.2862619,
              -20.2958583
            ],
            [
              -40.2860441,
              -20.2958026
            ],
            [
              -40.2856285,
              -20.2956355
            ],
            [
              -40.2851732,
              -20.2951714
            ],
            [
              -40.2849852,
              -20.2951064
            ],
            [
              -40.2848367,
              -20.2950693
            ],
            [
              -40.2847477,
              -20.2949951
            ],
            [
              -40.2848466,
              -20.2948929
            ],
            [
              -40.2846091,
              -20.2948465
            ],
            [
              -40.2844706,
              -20.2949022
            ],
            [
              -40.2843815,
              -20.2948094
            ],
            [
              -40.2841836,
              -20.2946887
            ],
            [
              -40.2840351,
              -20.294698
            ],
            [
              -40.2840054,
              -20.2945774
            ],
            [
              -40.2841242,
              -20.2945124
            ],
            [
              -40.2842627,
              -20.2945866
            ],
            [
              -40.2843122,
              -20.294401
            ],
            [
              -40.2844508,
              -20.2942618
            ],
            [
              -40.2846289,
              -20.2942432
            ],
            [
              -40.284718,
              -20.2941504
            ],
            [
              -40.2848565,
              -20.2942246
            ],
            [
              -40.2849951,
              -20.2942432
            ],
            [
              -40.2851336,
              -20.294271
            ],
            [
              -40.2851732,
              -20.2940947
            ],
            [
              -40.2852623,
              -20.2939554
            ],
            [
              -40.2854701,
              -20.2938162
            ],
            [
              -40.2855889,
              -20.2936955
            ],
            [
              -40.2853712,
              -20.2934635
            ],
            [
              -40.2852623,
              -20.2932685
            ],
            [
              -40.2851336,
              -20.2932685
            ],
            [
              -40.2850842,
              -20.2931479
            ],
            [
              -40.2851831,
              -20.2930551
            ],
            [
              -40.2852128,
              -20.2929529
            ],
            [
              -40.2853613,
              -20.2929994
            ],
            [
              -40.2855196,
              -20.2930272
            ],
            [
              -40.2854404,
              -20.2928973
            ],
            [
              -40.2855691,
              -20.2928787
            ],
            [
              -40.2856878,
              -20.2929437
            ],
            [
              -40.2857967,
              -20.2930643
            ],
            [
              -40.2859155,
              -20.2929715
            ],
            [
              -40.2861035,
              -20.2931107
            ],
            [
              -40.2864499,
              -20.2930643
            ],
            [
              -40.2865785,
              -20.2931293
            ],
            [
              -40.2866181,
              -20.2932778
            ],
            [
              -40.2865192,
              -20.2933521
            ],
            [
              -40.286628,
              -20.2935006
            ],
            [
              -40.2866379,
              -20.2936306
            ],
            [
              -40.2867468,
              -20.2937605
            ],
            [
              -40.286915,
              -20.2938162
            ],
            [
              -40.287113,
              -20.2938162
            ],
            [
              -40.2871921,
              -20.2939647
            ],
            [
              -40.2872218,
              -20.2941596
            ],
            [
              -40.2873604,
              -20.2942339
            ],
            [
              -40.2875088,
              -20.2943917
            ],
            [
              -40.2875781,
              -20.2945588
            ],
            [
              -40.2875484,
              -20.2949394
            ],
            [
              -40.2876375,
              -20.29506
            ],
            [
              -40.2877463,
              -20.2951807
            ],
            [
              -40.2879047,
              -20.2952178
            ],
            [
              -40.288063,
              -20.2951621
            ],
            [
              -40.2882511,
              -20.29519
            ],
            [
              -40.288449,
              -20.2951807
            ],
            [
              -40.2886271,
              -20.295125
            ],
            [
              -40.2887874,
              -20.2951177
            ],
            [
              -40.2889714,
              -20.2950739
            ],
            [
              -40.2890352,
              -20.2950453
            ],
            [
              -40.2890712,
              -20.2950375
            ],
            [
              -40.2890629,
              -20.2950791
            ],
            [
              -40.2891128,
              -20.2950505
            ],
            [
              -40.2891322,
              -20.2950115
            ],
            [
              -40.28911,
              -20.2949803
            ],
            [
              -40.2891239,
              -20.2949517
            ],
            [
              -40.2891627,
              -20.2949439
            ],
            [
              -40.2892015,
              -20.2949699
            ],
            [
              -40.2892486,
              -20.2949387
            ],
            [
              -40.2892738,
              -20.2949273
            ],
            [
              -40.2894038,
              -20.2948685
            ],
            [
              -40.2894509,
              -20.2948373
            ],
            [
              -40.2895313,
              -20.2948035
            ],
            [
              -40.2896034,
              -20.2948035
            ],
            [
              -40.289645,
              -20.2948503
            ],
            [
              -40.2897337,
              -20.2948711
            ],
            [
              -40.2898057,
              -20.2948529
            ],
            [
              -40.2899166,
              -20.2947879
            ],
            [
              -40.2899915,
              -20.2947308
            ],
            [
              -40.2900666,
              -20.2946857
            ],
            [
              -40.2901308,
              -20.2946419
            ],
            [
              -40.2901746,
              -20.2946501
            ],
            [
              -40.290198,
              -20.2946885
            ],
            [
              -40.2902421,
              -20.2946858
            ],
            [
              -40.2903011,
              -20.2946531
            ],
            [
              -40.2904406,
              -20.2945575
            ],
            [
              -40.2905265,
              -20.2944971
            ],
            [
              -40.2904299,
              -20.2943914
            ],
            [
              -40.2904664,
              -20.2943381
            ],
            [
              -40.2905511,
              -20.2942888
            ],
            [
              -40.2905949,
              -20.2942724
            ],
            [
              -40.2906474,
              -20.2942259
            ],
            [
              -40.2906591,
              -20.2941958
            ],
            [
              -40.2907057,
              -20.2941739
            ],
            [
              -40.2908079,
              -20.294141
            ],
            [
              -40.290945,
              -20.2940452
            ],
            [
              -40.2910158,
              -20.2939886
            ],
            [
              -40.291063,
              -20.2939345
            ],
            [
              -40.2911417,
              -20.2938755
            ],
            [
              -40.2911888,
              -20.2938115
            ],
            [
              -40.2911731,
              -20.2937427
            ],
            [
              -40.2911836,
              -20.2936689
            ],
            [
              -40.291278,
              -20.2936492
            ],
            [
              -40.2913566,
              -20.2936148
            ],
            [
              -40.2914562,
              -20.2935312
            ],
            [
              -40.2915192,
              -20.2934575
            ],
            [
              -40.2916135,
              -20.2934476
            ],
            [
              -40.2917027,
              -20.2933935
            ],
            [
              -40.2917708,
              -20.2933493
            ],
            [
              -40.2918285,
              -20.2933542
            ],
            [
              -40.2918862,
              -20.2933935
            ],
            [
              -40.2919753,
              -20.2933886
            ],
            [
              -40.2920697,
              -20.2933345
            ],
            [
              -40.2920959,
              -20.293246
            ],
            [
              -40.2921431,
              -20.2931919
            ],
            [
              -40.2922217,
              -20.2931919
            ],
            [
              -40.2922951,
              -20.2931231
            ],
            [
              -40.2925666,
              -20.2929594
            ],
            [
              -40.292658,
              -20.2929594
            ],
            [
              -40.2927302,
              -20.2929098
            ],
            [
              -40.2928986,
              -20.2928601
            ],
            [
              -40.2930814,
              -20.2928105
            ],
            [
              -40.2931969,
              -20.2927924
            ],
            [
              -40.2933268,
              -20.2927338
            ],
            [
              -40.2934375,
              -20.2927022
            ],
            [
              -40.2935145,
              -20.2926841
            ],
            [
              -40.29363,
              -20.2926977
            ],
            [
              -40.2937406,
              -20.2927157
            ],
            [
              -40.2938272,
              -20.2926886
            ],
            [
              -40.2938754,
              -20.2926119
            ],
            [
              -40.293962,
              -20.2925803
            ],
            [
              -40.2939963,
              -20.2926427
            ],
            [
              -40.2943416,
              -20.293134
            ],
            [
              -40.2946453,
              -20.2935412
            ],
            [
              -40.2945826,
              -20.2937039
            ],
            [
              -40.2944614,
              -20.2946272
            ],
            [
              -40.2944512,
              -20.2949131
            ],
            [
              -40.2944558,
              -20.2952691
            ],
            [
              -40.2946654,
              -20.2951911
            ],
            [
              -40.2948773,
              -20.2953586
            ],
            [
              -40.2950321,
              -20.2954281
            ],
            [
              -40.2957332,
              -20.2957946
            ],
            [
              -40.2958961,
              -20.2960113
            ],
            [
              -40.2972779,
              -20.2979278
            ],
            [
              -40.2990288,
              -20.3003538
            ]
          ]
        ]
      }
    },
    {
      "type": "Feature",
      "properties": {
        "name": "Enseada do Suá",
        "category": "Residential",
        "osmType": "R",
        "osmId": 1844899,
        "source": "https://www.openstreetmap.org/relation/1844899",
        "retrievedAt": "2026-09-24",
        "stroke": "#0f766e",
        "stroke-width": 2,
        "stroke-opacity": 0.95,
        "fill": "#0f766e",
        "fill-opacity": 0.16
      },
      "geometry": {
        "type": "Polygon",
        "coordinates": [
          [
            [
              -40.3006132,
              -20.3161129
            ],
            [
              -40.300555,
              -20.3162599
            ],
            [
              -40.30046,
              -20.3164878
            ],
            [
              -40.3003258,
              -20.3167972
            ],
            [
              -40.3002329,
              -20.3168237
            ],
            [
              -40.300157,
              -20.3169051
            ],
            [
              -40.3000908,
              -20.3172989
            ],
            [
              -40.3000013,
              -20.3177889
            ],
            [
              -40.29982,
              -20.3177375
            ],
            [
              -40.2996198,
              -20.3177311
            ],
            [
              -40.2988601,
              -20.3177687
            ],
            [
              -40.2988553,
              -20.3182885
            ],
            [
              -40.2988265,
              -20.3182927
            ],
            [
              -40.2987969,
              -20.3182906
            ],
            [
              -40.2987491,
              -20.318265
            ],
            [
              -40.2987015,
              -20.3182767
            ],
            [
              -40.2986241,
              -20.3182469
            ],
            [
              -40.2985694,
              -20.3182362
            ],
            [
              -40.2985034,
              -20.3182447
            ],
            [
              -40.2984032,
              -20.318234
            ],
            [
              -40.2983395,
              -20.3182255
            ],
            [
              -40.2982598,
              -20.3182255
            ],
            [
              -40.2981915,
              -20.318217
            ],
            [
              -40.2981095,
              -20.3182106
            ],
            [
              -40.2980116,
              -20.3181913
            ],
            [
              -40.29795,
              -20.318218
            ],
            [
              -40.2979113,
              -20.3182415
            ],
            [
              -40.2978863,
              -20.3182116
            ],
            [
              -40.2978453,
              -20.318218
            ],
            [
              -40.2978157,
              -20.318233
            ],
            [
              -40.297758,
              -20.3182153
            ],
            [
              -40.2977194,
              -20.3182217
            ],
            [
              -40.2976625,
              -20.3182174
            ],
            [
              -40.2976171,
              -20.3182174
            ],
            [
              -40.2975875,
              -20.3181897
            ],
            [
              -40.2975852,
              -20.3182217
            ],
            [
              -40.2975033,
              -20.3182366
            ],
            [
              -40.2974715,
              -20.3182217
            ],
            [
              -40.2974601,
              -20.318258
            ],
            [
              -40.2974238,
              -20.3182516
            ],
            [
              -40.2973987,
              -20.3182174
            ],
            [
              -40.2973555,
              -20.3182388
            ],
            [
              -40.2972633,
              -20.3183301
            ],
            [
              -40.2972675,
              -20.3183623
            ],
            [
              -40.2972038,
              -20.3183666
            ],
            [
              -40.297172,
              -20.3183666
            ],
            [
              -40.2971652,
              -20.3183325
            ],
            [
              -40.2971288,
              -20.3183175
            ],
            [
              -40.2970697,
              -20.3182877
            ],
            [
              -40.2970333,
              -20.3183026
            ],
            [
              -40.2969605,
              -20.3183218
            ],
            [
              -40.2968945,
              -20.3183325
            ],
            [
              -40.296774,
              -20.3183794
            ],
            [
              -40.2966626,
              -20.3184263
            ],
            [
              -40.2965784,
              -20.3184732
            ],
            [
              -40.2964949,
              -20.3185586
            ],
            [
              -40.2964429,
              -20.3186178
            ],
            [
              -40.2964138,
              -20.3186529
            ],
            [
              -40.2964026,
              -20.3186859
            ],
            [
              -40.2963934,
              -20.3187082
            ],
            [
              -40.2963813,
              -20.3187337
            ],
            [
              -40.2963686,
              -20.3187557
            ],
            [
              -40.2963556,
              -20.318783
            ],
            [
              -40.2963415,
              -20.3188156
            ],
            [
              -40.2963353,
              -20.3188407
            ],
            [
              -40.2963316,
              -20.3188598
            ],
            [
              -40.2963328,
              -20.3188936
            ],
            [
              -40.2963354,
              -20.3189179
            ],
            [
              -40.2963391,
              -20.3189382
            ],
            [
              -40.2963416,
              -20.3189506
            ],
            [
              -40.2963442,
              -20.3189637
            ],
            [
              -40.2963579,
              -20.3189957
            ],
            [
              -40.2963988,
              -20.319017
            ],
            [
              -40.2964079,
              -20.3190575
            ],
            [
              -40.2963783,
              -20.3190725
            ],
            [
              -40.2963488,
              -20.3190554
            ],
            [
              -40.2963237,
              -20.3190448
            ],
            [
              -40.2963033,
              -20.319081
            ],
            [
              -40.2963033,
              -20.3191237
            ],
            [
              -40.296326,
              -20.3191386
            ],
            [
              -40.2963624,
              -20.3191279
            ],
            [
              -40.2963897,
              -20.3191386
            ],
            [
              -40.2963874,
              -20.3191663
            ],
            [
              -40.2963647,
              -20.3191556
            ],
            [
              -40.2963402,
              -20.3191736
            ],
            [
              -40.2963306,
              -20.3192098
            ],
            [
              -40.2963081,
              -20.3192385
            ],
            [
              -40.2963354,
              -20.3192385
            ],
            [
              -40.296329,
              -20.3192716
            ],
            [
              -40.2963627,
              -20.3193093
            ],
            [
              -40.2963434,
              -20.3193048
            ],
            [
              -40.2963434,
              -20.3193229
            ],
            [
              -40.2963306,
              -20.3193515
            ],
            [
              -40.2963193,
              -20.3193229
            ],
            [
              -40.2963113,
              -20.319347
            ],
            [
              -40.296292,
              -20.31935
            ],
            [
              -40.2962904,
              -20.3193244
            ],
            [
              -40.2962438,
              -20.3192972
            ],
            [
              -40.2962261,
              -20.3193214
            ],
            [
              -40.2962309,
              -20.3193379
            ],
            [
              -40.2962374,
              -20.319359
            ],
            [
              -40.2962084,
              -20.3193696
            ],
            [
              -40.2961908,
              -20.3193605
            ],
            [
              -40.2961908,
              -20.3193349
            ],
            [
              -40.2962052,
              -20.3193259
            ],
            [
              -40.2961972,
              -20.3193108
            ],
            [
              -40.296165,
              -20.3193123
            ],
            [
              -40.2961683,
              -20.3193394
            ],
            [
              -40.2961441,
              -20.3193621
            ],
            [
              -40.2961136,
              -20.3193726
            ],
            [
              -40.2961184,
              -20.3193575
            ],
            [
              -40.2961007,
              -20.3193515
            ],
            [
              -40.2960718,
              -20.3193907
            ],
            [
              -40.2960349,
              -20.3193801
            ],
            [
              -40.2960493,
              -20.3194027
            ],
            [
              -40.2960445,
              -20.3194223
            ],
            [
              -40.2960461,
              -20.319451
            ],
            [
              -40.2960188,
              -20.319448
            ],
            [
              -40.2960043,
              -20.3194359
            ],
            [
              -40.2959882,
              -20.319448
            ],
            [
              -40.2960156,
              -20.3194676
            ],
            [
              -40.2960011,
              -20.3194826
            ],
            [
              -40.2959754,
              -20.3194781
            ],
            [
              -40.2959609,
              -20.3194706
            ],
            [
              -40.2959513,
              -20.319448
            ],
            [
              -40.2959304,
              -20.3194389
            ],
            [
              -40.2958982,
              -20.319451
            ],
            [
              -40.2958822,
              -20.3194419
            ],
            [
              -40.2958789,
              -20.3194163
            ],
            [
              -40.2958597,
              -20.3194329
            ],
            [
              -40.2958436,
              -20.3194254
            ],
            [
              -40.2958372,
              -20.3194419
            ],
            [
              -40.2958516,
              -20.3194495
            ],
            [
              -40.2958564,
              -20.3194766
            ],
            [
              -40.2958372,
              -20.3194721
            ],
            [
              -40.2958323,
              -20.3194932
            ],
            [
              -40.2958018,
              -20.3194962
            ],
            [
              -40.2957922,
              -20.3194691
            ],
            [
              -40.2957713,
              -20.3194826
            ],
            [
              -40.2957568,
              -20.3194359
            ],
            [
              -40.2957359,
              -20.3194781
            ],
            [
              -40.2957086,
              -20.319463
            ],
            [
              -40.2956955,
              -20.319495
            ],
            [
              -40.2956215,
              -20.319495
            ],
            [
              -40.2955214,
              -20.3194256
            ],
            [
              -40.2954517,
              -20.3193644
            ],
            [
              -40.2953734,
              -20.319344
            ],
            [
              -40.2952863,
              -20.3192542
            ],
            [
              -40.2952166,
              -20.3191929
            ],
            [
              -40.2952079,
              -20.3191358
            ],
            [
              -40.2951818,
              -20.3190664
            ],
            [
              -40.2951165,
              -20.3191031
            ],
            [
              -40.2951296,
              -20.3190296
            ],
            [
              -40.2951557,
              -20.318948
            ],
            [
              -40.2951862,
              -20.3190011
            ],
            [
              -40.2952297,
              -20.3189602
            ],
            [
              -40.2951905,
              -20.3189072
            ],
            [
              -40.2951818,
              -20.31885
            ],
            [
              -40.2952166,
              -20.3188051
            ],
            [
              -40.2951818,
              -20.3187357
            ],
            [
              -40.295147,
              -20.3186214
            ],
            [
              -40.2951035,
              -20.3184826
            ],
            [
              -40.2950556,
              -20.3183602
            ],
            [
              -40.2950308,
              -20.3182939
            ],
            [
              -40.2950074,
              -20.3182695
            ],
            [
              -40.2949709,
              -20.3182501
            ],
            [
              -40.2949387,
              -20.3182413
            ],
            [
              -40.2948917,
              -20.3182284
            ],
            [
              -40.2948431,
              -20.3182265
            ],
            [
              -40.2947818,
              -20.318229
            ],
            [
              -40.2947456,
              -20.3182297
            ],
            [
              -40.2946939,
              -20.3182303
            ],
            [
              -40.2946329,
              -20.318229
            ],
            [
              -40.2945558,
              -20.3182322
            ],
            [
              -40.2945015,
              -20.3182366
            ],
            [
              -40.2944371,
              -20.318241
            ],
            [
              -40.2944083,
              -20.318241
            ],
            [
              -40.2943667,
              -20.318241
            ],
            [
              -40.2942681,
              -20.3182379
            ],
            [
              -40.2941877,
              -20.3182429
            ],
            [
              -40.2941072,
              -20.3182414
            ],
            [
              -40.2939697,
              -20.318268
            ],
            [
              -40.293902,
              -20.3182838
            ],
            [
              -40.2938537,
              -20.318275
            ],
            [
              -40.2938008,
              -20.3182423
            ],
            [
              -40.2937739,
              -20.3182416
            ],
            [
              -40.2937478,
              -20.3182435
            ],
            [
              -40.2936988,
              -20.3182504
            ],
            [
              -40.2936284,
              -20.3182605
            ],
            [
              -40.2935674,
              -20.3182693
            ],
            [
              -40.2935097,
              -20.3182712
            ],
            [
              -40.293446,
              -20.3182718
            ],
            [
              -40.2933833,
              -20.3182739
            ],
            [
              -40.2933494,
              -20.318274
            ],
            [
              -40.2933055,
              -20.3182689
            ],
            [
              -40.2932128,
              -20.3182561
            ],
            [
              -40.2931375,
              -20.3182492
            ],
            [
              -40.2930311,
              -20.3182523
            ],
            [
              -40.2928938,
              -20.3182171
            ],
            [
              -40.2927794,
              -20.3182171
            ],
            [
              -40.2926347,
              -20.3181982
            ],
            [
              -40.2925674,
              -20.3182297
            ],
            [
              -40.2925439,
              -20.318195
            ],
            [
              -40.2924732,
              -20.3182203
            ],
            [
              -40.2923958,
              -20.3182171
            ],
            [
              -40.2922781,
              -20.3182234
            ],
            [
              -40.2921233,
              -20.3182171
            ],
            [
              -40.2920694,
              -20.3182077
            ],
            [
              -40.2919887,
              -20.3182329
            ],
            [
              -40.2919315,
              -20.318214
            ],
            [
              -40.2918272,
              -20.318214
            ],
            [
              -40.2917666,
              -20.3182266
            ],
            [
              -40.2916522,
              -20.3182077
            ],
            [
              -40.2915176,
              -20.3182234
            ],
            [
              -40.2913516,
              -20.3182077
            ],
            [
              -40.2912587,
              -20.3182056
            ],
            [
              -40.2911657,
              -20.3182077
            ],
            [
              -40.2910954,
              -20.318212
            ],
            [
              -40.2910477,
              -20.3182099
            ],
            [
              -40.2910092,
              -20.3182184
            ],
            [
              -40.2909593,
              -20.3182184
            ],
            [
              -40.2909185,
              -20.3182141
            ],
            [
              -40.2908572,
              -20.3182141
            ],
            [
              -40.2908028,
              -20.3182035
            ],
            [
              -40.2907711,
              -20.3182248
            ],
            [
              -40.2906894,
              -20.3182333
            ],
            [
              -40.2906622,
              -20.3182056
            ],
            [
              -40.2906305,
              -20.3182184
            ],
            [
              -40.2906055,
              -20.3182056
            ],
            [
              -40.2905533,
              -20.3182099
            ],
            [
              -40.2905193,
              -20.318229
            ],
            [
              -40.2904808,
              -20.3182269
            ],
            [
              -40.2904377,
              -20.3182141
            ],
            [
              -40.2903946,
              -20.3182226
            ],
            [
              -40.2903424,
              -20.3182184
            ],
            [
              -40.2902971,
              -20.3182099
            ],
            [
              -40.2902631,
              -20.3182269
            ],
            [
              -40.2901769,
              -20.3182311
            ],
            [
              -40.2901791,
              -20.3181992
            ],
            [
              -40.2901338,
              -20.3182014
            ],
            [
              -40.2901338,
              -20.3182524
            ],
            [
              -40.2901497,
              -20.3182737
            ],
            [
              -40.2901859,
              -20.3182801
            ],
            [
              -40.2902064,
              -20.3182971
            ],
            [
              -40.2902064,
              -20.3183268
            ],
            [
              -40.2901791,
              -20.3183162
            ],
            [
              -40.2901519,
              -20.3183013
            ],
            [
              -40.2901066,
              -20.3182907
            ],
            [
              -40.2901043,
              -20.3182481
            ],
            [
              -40.2900794,
              -20.318246
            ],
            [
              -40.2900635,
              -20.3182205
            ],
            [
              -40.2900317,
              -20.3181971
            ],
            [
              -40.2899818,
              -20.3181886
            ],
            [
              -40.2899841,
              -20.3182333
            ],
            [
              -40.2897165,
              -20.3182269
            ],
            [
              -40.2897074,
              -20.318195
            ],
            [
              -40.2896598,
              -20.3182035
            ],
            [
              -40.2896099,
              -20.3182205
            ],
            [
              -40.2895872,
              -20.3182056
            ],
            [
              -40.28956,
              -20.3182162
            ],
            [
              -40.2895283,
              -20.3182056
            ],
            [
              -40.2894761,
              -20.318212
            ],
            [
              -40.2894207,
              -20.3182117
            ],
            [
              -40.2894023,
              -20.3181875
            ],
            [
              -40.2893563,
              -20.3182065
            ],
            [
              -40.2892883,
              -20.3182048
            ],
            [
              -40.289257,
              -20.3182048
            ],
            [
              -40.2892312,
              -20.3181875
            ],
            [
              -40.2891816,
              -20.3181961
            ],
            [
              -40.289143,
              -20.3182099
            ],
            [
              -40.2891135,
              -20.3181979
            ],
            [
              -40.2890878,
              -20.3182151
            ],
            [
              -40.2890363,
              -20.3182117
            ],
            [
              -40.2890308,
              -20.3182341
            ],
            [
              -40.2889977,
              -20.3182341
            ],
            [
              -40.2889756,
              -20.318222
            ],
            [
              -40.2889517,
              -20.3182375
            ],
            [
              -40.2889094,
              -20.3182358
            ],
            [
              -40.2888763,
              -20.3182186
            ],
            [
              -40.2888487,
              -20.3182117
            ],
            [
              -40.2888137,
              -20.3182393
            ],
            [
              -40.2887788,
              -20.3182393
            ],
            [
              -40.288753,
              -20.3182582
            ],
            [
              -40.288731,
              -20.3182255
            ],
            [
              -40.288696,
              -20.3182341
            ],
            [
              -40.2887144,
              -20.3182065
            ],
            [
              -40.2886924,
              -20.3182048
            ],
            [
              -40.2886832,
              -20.3181772
            ],
            [
              -40.2886592,
              -20.3181858
            ],
            [
              -40.2886611,
              -20.3182151
            ],
            [
              -40.2886335,
              -20.3182341
            ],
            [
              -40.2886151,
              -20.3182082
            ],
            [
              -40.2885838,
              -20.3182117
            ],
            [
              -40.288536,
              -20.3181979
            ],
            [
              -40.2884845,
              -20.3181754
            ],
            [
              -40.2884459,
              -20.3181547
            ],
            [
              -40.2884238,
              -20.318153
            ],
            [
              -40.2883907,
              -20.3181358
            ],
            [
              -40.288365,
              -20.3181099
            ],
            [
              -40.2883447,
              -20.3181271
            ],
            [
              -40.288308,
              -20.3181237
            ],
            [
              -40.2882749,
              -20.3181099
            ],
            [
              -40.2882785,
              -20.3180702
            ],
            [
              -40.288273,
              -20.3180409
            ],
            [
              -40.2882822,
              -20.318003
            ],
            [
              -40.2883024,
              -20.318003
            ],
            [
              -40.288319,
              -20.3180254
            ],
            [
              -40.2883429,
              -20.3180288
            ],
            [
              -40.2883576,
              -20.3180081
            ],
            [
              -40.2883778,
              -20.3179909
            ],
            [
              -40.2883926,
              -20.3179667
            ],
            [
              -40.2883981,
              -20.3179374
            ],
            [
              -40.2883429,
              -20.3179374
            ],
            [
              -40.288319,
              -20.3179219
            ],
            [
              -40.2883116,
              -20.3178943
            ],
            [
              -40.2883208,
              -20.3178736
            ],
            [
              -40.2882804,
              -20.317846
            ],
            [
              -40.2882528,
              -20.3178219
            ],
            [
              -40.2882344,
              -20.3177891
            ],
            [
              -40.288262,
              -20.3177994
            ],
            [
              -40.2882822,
              -20.3177736
            ],
            [
              -40.2882657,
              -20.3177563
            ],
            [
              -40.2882605,
              -20.317736
            ],
            [
              -40.2882815,
              -20.317712
            ],
            [
              -40.2882559,
              -20.3176989
            ],
            [
              -40.2883024,
              -20.3176728
            ],
            [
              -40.2883466,
              -20.3176662
            ],
            [
              -40.2883536,
              -20.3176313
            ],
            [
              -40.2882931,
              -20.3175942
            ],
            [
              -40.2882419,
              -20.3175484
            ],
            [
              -40.2882186,
              -20.3175069
            ],
            [
              -40.2882326,
              -20.3174829
            ],
            [
              -40.2882326,
              -20.3174415
            ],
            [
              -40.2882093,
              -20.3174044
            ],
            [
              -40.2881721,
              -20.3173717
            ],
            [
              -40.2882,
              -20.3173477
            ],
            [
              -40.2882233,
              -20.3173542
            ],
            [
              -40.2882559,
              -20.3173302
            ],
            [
              -40.2882559,
              -20.3172953
            ],
            [
              -40.2882768,
              -20.3172604
            ],
            [
              -40.2882838,
              -20.317208
            ],
            [
              -40.288307,
              -20.3171731
            ],
            [
              -40.2883396,
              -20.3171709
            ],
            [
              -40.2883792,
              -20.317184
            ],
            [
              -40.2884257,
              -20.317184
            ],
            [
              -40.2883862,
              -20.3171491
            ],
            [
              -40.2883862,
              -20.3171142
            ],
            [
              -40.2884048,
              -20.3170727
            ],
            [
              -40.288428,
              -20.3170466
            ],
            [
              -40.2884746,
              -20.3170596
            ],
            [
              -40.2884513,
              -20.3170313
            ],
            [
              -40.2884629,
              -20.3170116
            ],
            [
              -40.2884932,
              -20.3170269
            ],
            [
              -40.2885281,
              -20.3170378
            ],
            [
              -40.2885397,
              -20.3170684
            ],
            [
              -40.2885769,
              -20.3170684
            ],
            [
              -40.2885979,
              -20.3170225
            ],
            [
              -40.2886072,
              -20.3169855
            ],
            [
              -40.2886002,
              -20.3169396
            ],
            [
              -40.2886165,
              -20.3168916
            ],
            [
              -40.2886214,
              -20.3168522
            ],
            [
              -40.2886251,
              -20.316823
            ],
            [
              -40.2886156,
              -20.3167951
            ],
            [
              -40.2886144,
              -20.3167571
            ],
            [
              -40.2886204,
              -20.3167281
            ],
            [
              -40.288612,
              -20.3166946
            ],
            [
              -40.2886144,
              -20.3166566
            ],
            [
              -40.2886216,
              -20.3166108
            ],
            [
              -40.2886168,
              -20.3165806
            ],
            [
              -40.2886204,
              -20.3165549
            ],
            [
              -40.2886108,
              -20.3165337
            ],
            [
              -40.2886108,
              -20.3164991
            ],
            [
              -40.2886001,
              -20.3164667
            ],
            [
              -40.2885966,
              -20.3164343
            ],
            [
              -40.2885989,
              -20.3164086
            ],
            [
              -40.2885851,
              -20.3163679
            ],
            [
              -40.2885851,
              -20.3163155
            ],
            [
              -40.2885963,
              -20.3162823
            ],
            [
              -40.2885851,
              -20.3162422
            ],
            [
              -40.2885628,
              -20.3162247
            ],
            [
              -40.2885609,
              -20.3161811
            ],
            [
              -40.2885497,
              -20.3161287
            ],
            [
              -40.2885479,
              -20.3160746
            ],
            [
              -40.2885423,
              -20.3160118
            ],
            [
              -40.2885162,
              -20.3159524
            ],
            [
              -40.2884939,
              -20.3158966
            ],
            [
              -40.2884734,
              -20.3158494
            ],
            [
              -40.2884492,
              -20.3158093
            ],
            [
              -40.2884381,
              -20.3157709
            ],
            [
              -40.288412,
              -20.3157395
            ],
            [
              -40.2883953,
              -20.3157185
            ],
            [
              -40.2883915,
              -20.3156889
            ],
            [
              -40.2883673,
              -20.3156662
            ],
            [
              -40.2883264,
              -20.3156679
            ],
            [
              -40.2882761,
              -20.3156801
            ],
            [
              -40.2882426,
              -20.3156906
            ],
            [
              -40.2882054,
              -20.3156854
            ],
            [
              -40.2881552,
              -20.3156784
            ],
            [
              -40.2881272,
              -20.3156871
            ],
            [
              -40.2880974,
              -20.3156801
            ],
            [
              -40.2880472,
              -20.3156836
            ],
            [
              -40.2880062,
              -20.3156906
            ],
            [
              -40.287969,
              -20.3156958
            ],
            [
              -40.2879448,
              -20.3157185
            ],
            [
              -40.2879113,
              -20.3157238
            ],
            [
              -40.2878927,
              -20.3157028
            ],
            [
              -40.2878611,
              -20.3156958
            ],
            [
              -40.2878238,
              -20.3156714
            ],
            [
              -40.2877866,
              -20.3156574
            ],
            [
              -40.2877401,
              -20.3156557
            ],
            [
              -40.2876917,
              -20.3156592
            ],
            [
              -40.2876507,
              -20.3156557
            ],
            [
              -40.2875968,
              -20.3156592
            ],
            [
              -40.2875521,
              -20.3156574
            ],
            [
              -40.2875279,
              -20.3156382
            ],
            [
              -40.2875037,
              -20.3156487
            ],
            [
              -40.2874702,
              -20.3156435
            ],
            [
              -40.287453,
              -20.3156118
            ],
            [
              -40.287404,
              -20.3155935
            ],
            [
              -40.2873404,
              -20.3155889
            ],
            [
              -40.287267,
              -20.3155843
            ],
            [
              -40.2872573,
              -20.3155338
            ],
            [
              -40.2871472,
              -20.3154881
            ],
            [
              -40.2871356,
              -20.3153839
            ],
            [
              -40.2871194,
              -20.315362
            ],
            [
              -40.2871015,
              -20.3153519
            ],
            [
              -40.2870925,
              -20.3153216
            ],
            [
              -40.2870925,
              -20.315293
            ],
            [
              -40.2871535,
              -20.3151937
            ],
            [
              -40.2871445,
              -20.31516
            ],
            [
              -40.2871176,
              -20.31516
            ],
            [
              -40.2871104,
              -20.3151398
            ],
            [
              -40.2871122,
              -20.3151061
            ],
            [
              -40.2871033,
              -20.3150876
            ],
            [
              -40.2870781,
              -20.3150842
            ],
            [
              -40.2870781,
              -20.3150657
            ],
            [
              -40.2871051,
              -20.3150539
            ],
            [
              -40.2871033,
              -20.3150287
            ],
            [
              -40.2870261,
              -20.3150809
            ],
            [
              -40.2869992,
              -20.3150809
            ],
            [
              -40.2869956,
              -20.3150573
            ],
            [
              -40.2869812,
              -20.3150455
            ],
            [
              -40.2869794,
              -20.3150135
            ],
            [
              -40.2870045,
              -20.3149816
            ],
            [
              -40.2870368,
              -20.3149816
            ],
            [
              -40.287062,
              -20.314995
            ],
            [
              -40.2870925,
              -20.314995
            ],
            [
              -40.2871069,
              -20.3149765
            ],
            [
              -40.2870799,
              -20.3149496
            ],
            [
              -40.2870889,
              -20.3149243
            ],
            [
              -40.2871069,
              -20.3149092
            ],
            [
              -40.2871069,
              -20.3148873
            ],
            [
              -40.2871388,
              -20.3148645
            ],
            [
              -40.2871249,
              -20.314801
            ],
            [
              -40.2871403,
              -20.3147314
            ],
            [
              -40.2871305,
              -20.3147135
            ],
            [
              -40.2871277,
              -20.3146781
            ],
            [
              -40.2871378,
              -20.314654
            ],
            [
              -40.2871507,
              -20.314654
            ],
            [
              -40.2871608,
              -20.3146325
            ],
            [
              -40.2871764,
              -20.3146247
            ],
            [
              -40.2871893,
              -20.3145894
            ],
            [
              -40.287181,
              -20.3145394
            ],
            [
              -40.2871305,
              -20.3144954
            ],
            [
              -40.2871149,
              -20.3144498
            ],
            [
              -40.287102,
              -20.3144385
            ],
            [
              -40.287102,
              -20.3143851
            ],
            [
              -40.2870788,
              -20.3143154
            ],
            [
              -40.2870627,
              -20.3143025
            ],
            [
              -40.2870546,
              -20.3142669
            ],
            [
              -40.2870478,
              -20.3142109
            ],
            [
              -40.2870535,
              -20.3141807
            ],
            [
              -40.2871121,
              -20.3141215
            ],
            [
              -40.2871121,
              -20.314101
            ],
            [
              -40.2869719,
              -20.314073
            ],
            [
              -40.2869547,
              -20.3140601
            ],
            [
              -40.2869513,
              -20.3140299
            ],
            [
              -40.2869168,
              -20.313975
            ],
            [
              -40.2868639,
              -20.3139235
            ],
            [
              -40.2867973,
              -20.3138362
            ],
            [
              -40.286733,
              -20.3138007
            ],
            [
              -40.2866916,
              -20.3137554
            ],
            [
              -40.2866744,
              -20.3137134
            ],
            [
              -40.2866319,
              -20.3136735
            ],
            [
              -40.286617,
              -20.3136488
            ],
            [
              -40.286563,
              -20.3136154
            ],
            [
              -40.2865503,
              -20.3135917
            ],
            [
              -40.2864584,
              -20.3135173
            ],
            [
              -40.2864373,
              -20.3134674
            ],
            [
              -40.2864006,
              -20.3134199
            ],
            [
              -40.2863787,
              -20.3133435
            ],
            [
              -40.2863213,
              -20.3132519
            ],
            [
              -40.2862731,
              -20.3131969
            ],
            [
              -40.2862306,
              -20.3131075
            ],
            [
              -40.286203,
              -20.3130698
            ],
            [
              -40.2861605,
              -20.3130353
            ],
            [
              -40.2861386,
              -20.3129895
            ],
            [
              -40.2859031,
              -20.3127158
            ],
            [
              -40.2858641,
              -20.312649
            ],
            [
              -40.2857998,
              -20.3125682
            ],
            [
              -40.2857687,
              -20.3125391
            ],
            [
              -40.2857515,
              -20.3125111
            ],
            [
              -40.2856926,
              -20.3124589
            ],
            [
              -40.2855735,
              -20.3124099
            ],
            [
              -40.2855279,
              -20.3123837
            ],
            [
              -40.285475,
              -20.3123279
            ],
            [
              -40.2856971,
              -20.3121554
            ],
            [
              -40.2855211,
              -20.3119274
            ],
            [
              -40.2854514,
              -20.3117343
            ],
            [
              -40.2854311,
              -20.3116193
            ],
            [
              -40.2854301,
              -20.3114874
            ],
            [
              -40.2855148,
              -20.3106423
            ],
            [
              -40.2855537,
              -20.3098461
            ],
            [
              -40.2855839,
              -20.3098441
            ],
            [
              -40.2856655,
              -20.3097875
            ],
            [
              -40.2858244,
              -20.3097375
            ],
            [
              -40.2859764,
              -20.3096616
            ],
            [
              -40.2861045,
              -20.3096118
            ],
            [
              -40.2862125,
              -20.3095227
            ],
            [
              -40.2863015,
              -20.3094665
            ],
            [
              -40.2863694,
              -20.3094255
            ],
            [
              -40.2864204,
              -20.3093707
            ],
            [
              -40.2865141,
              -20.3093146
            ],
            [
              -40.286647,
              -20.3092667
            ],
            [
              -40.2868083,
              -20.309191
            ],
            [
              -40.2869766,
              -20.3091691
            ],
            [
              -40.2871589,
              -20.3090946
            ],
            [
              -40.2872897,
              -20.3090726
            ],
            [
              -40.2874206,
              -20.3090157
            ],
            [
              -40.2875234,
              -20.3089981
            ],
            [
              -40.2876589,
              -20.3089499
            ],
            [
              -40.2878886,
              -20.3089333
            ],
            [
              -40.2880743,
              -20.3088947
            ],
            [
              -40.2885643,
              -20.3087932
            ],
            [
              -40.2887743,
              -20.3087254
            ],
            [
              -40.289014,
              -20.308679
            ],
            [
              -40.289148,
              -20.3086329
            ],
            [
              -40.2892917,
              -20.3085415
            ],
            [
              -40.2894272,
              -20.3084363
            ],
            [
              -40.2895487,
              -20.3083399
            ],
            [
              -40.2896656,
              -20.3082128
            ],
            [
              -40.2897544,
              -20.3081295
            ],
            [
              -40.2898245,
              -20.3080024
            ],
            [
              -40.2898665,
              -20.3078578
            ],
            [
              -40.2899834,
              -20.307643
            ],
            [
              -40.2900768,
              -20.3074764
            ],
            [
              -40.290175,
              -20.3072441
            ],
            [
              -40.2902918,
              -20.3069242
            ],
            [
              -40.2903713,
              -20.3067401
            ],
            [
              -40.2904147,
              -20.3064529
            ],
            [
              -40.2904786,
              -20.306042
            ],
            [
              -40.2904238,
              -20.3056996
            ],
            [
              -40.2904055,
              -20.3053743
            ],
            [
              -40.2904055,
              -20.3051602
            ],
            [
              -40.2905059,
              -20.3049633
            ],
            [
              -40.2905242,
              -20.3047493
            ],
            [
              -40.2905516,
              -20.3045353
            ],
            [
              -40.2904694,
              -20.3043127
            ],
            [
              -40.2903781,
              -20.3040645
            ],
            [
              -40.2902504,
              -20.3038333
            ],
            [
              -40.2901499,
              -20.3035765
            ],
            [
              -40.2900678,
              -20.3033196
            ],
            [
              -40.2898761,
              -20.30302
            ],
            [
              -40.2897027,
              -20.3029686
            ],
            [
              -40.2895794,
              -20.302908
            ],
            [
              -40.2894288,
              -20.3029002
            ],
            [
              -40.2892919,
              -20.3028745
            ],
            [
              -40.2889649,
              -20.3028664
            ],
            [
              -40.288965,
              -20.3028121
            ],
            [
              -40.2900395,
              -20.3028492
            ],
            [
              -40.2904375,
              -20.3028577
            ],
            [
              -40.2904546,
              -20.3028589
            ],
            [
              -40.2904716,
              -20.3028618
            ],
            [
              -40.2907861,
              -20.302893
            ],
            [
              -40.29097,
              -20.3029278
            ],
            [
              -40.2911771,
              -20.3029881
            ],
            [
              -40.2913781,
              -20.3030666
            ],
            [
              -40.2915696,
              -20.3031964
            ],
            [
              -40.2916172,
              -20.3032118
            ],
            [
              -40.2916637,
              -20.303227
            ],
            [
              -40.291716,
              -20.3032301
            ],
            [
              -40.2917723,
              -20.3032176
            ],
            [
              -40.291811,
              -20.3032007
            ],
            [
              -40.2918809,
              -20.3031553
            ],
            [
              -40.2918943,
              -20.3033428
            ],
            [
              -40.2919259,
              -20.3034534
            ],
            [
              -40.2919353,
              -20.3034722
            ],
            [
              -40.2919749,
              -20.3035515
            ],
            [
              -40.2920672,
              -20.3037372
            ],
            [
              -40.2921234,
              -20.3038225
            ],
            [
              -40.2923525,
              -20.3041703
            ],
            [
              -40.2923998,
              -20.3042354
            ],
            [
              -40.2926358,
              -20.3045013
            ],
            [
              -40.2927416,
              -20.3046071
            ],
            [
              -40.29341,
              -20.3073653
            ],
            [
              -40.2933867,
              -20.3074605
            ],
            [
              -40.2934179,
              -20.3076637
            ],
            [
              -40.2934058,
              -20.3077489
            ],
            [
              -40.2933911,
              -20.3078524
            ],
            [
              -40.2933212,
              -20.3080151
            ],
            [
              -40.2931547,
              -20.3083636
            ],
            [
              -40.2929742,
              -20.3087529
            ],
            [
              -40.2928737,
              -20.3090257
            ],
            [
              -40.2926851,
              -20.3095637
            ],
            [
              -40.2923465,
              -20.310349
            ],
            [
              -40.2922971,
              -20.3104805
            ],
            [
              -40.2922815,
              -20.310601
            ],
            [
              -40.2923013,
              -20.3106666
            ],
            [
              -40.2923716,
              -20.3107294
            ],
            [
              -40.2924987,
              -20.3108239
            ],
            [
              -40.2925842,
              -20.3108496
            ],
            [
              -40.2929049,
              -20.3109617
            ],
            [
              -40.2933856,
              -20.3111287
            ],
            [
              -40.2938823,
              -20.3113117
            ],
            [
              -40.294073,
              -20.311374
            ],
            [
              -40.2944149,
              -20.3121043
            ],
            [
              -40.2946886,
              -20.3119997
            ],
            [
              -40.2947449,
              -20.3119752
            ],
            [
              -40.2947932,
              -20.3119526
            ],
            [
              -40.2948419,
              -20.3119284
            ],
            [
              -40.2948502,
              -20.3121416
            ],
            [
              -40.2948535,
              -20.3122708
            ],
            [
              -40.2948541,
              -20.3123016
            ],
            [
              -40.2948549,
              -20.3123418
            ],
            [
              -40.2948558,
              -20.3123523
            ],
            [
              -40.2948577,
              -20.3123757
            ],
            [
              -40.2948581,
              -20.312381
            ],
            [
              -40.2948616,
              -20.3124236
            ],
            [
              -40.294879,
              -20.3125097
            ],
            [
              -40.2949112,
              -20.3125927
            ],
            [
              -40.2949454,
              -20.3126556
            ],
            [
              -40.2949917,
              -20.3127179
            ],
            [
              -40.2950393,
              -20.3127657
            ],
            [
              -40.2950922,
              -20.3128066
            ],
            [
              -40.295168,
              -20.3128556
            ],
            [
              -40.295274,
              -20.3129204
            ],
            [
              -40.2954654,
              -20.3130404
            ],
            [
              -40.2954779,
              -20.3130495
            ],
            [
              -40.295885,
              -20.313267
            ],
            [
              -40.2959363,
              -20.313295
            ],
            [
              -40.2960291,
              -20.3133455
            ],
            [
              -40.2965817,
              -20.3136479
            ],
            [
              -40.2968031,
              -20.3137412
            ],
            [
              -40.2968849,
              -20.3137794
            ],
            [
              -40.296941,
              -20.313806
            ],
            [
              -40.2971021,
              -20.3138826
            ],
            [
              -40.297126,
              -20.3138944
            ],
            [
              -40.2972,
              -20.3139309
            ],
            [
              -40.297433,
              -20.3140563
            ],
            [
              -40.2980557,
              -20.3142952
            ],
            [
              -40.2986459,
              -20.3144731
            ],
            [
              -40.2989377,
              -20.3145937
            ],
            [
              -40.299138,
              -20.3149867
            ],
            [
              -40.2992634,
              -20.3153035
            ],
            [
              -40.2992999,
              -20.3153932
            ],
            [
              -40.2994843,
              -20.3158284
            ],
            [
              -40.2996481,
              -20.3163398
            ],
            [
              -40.3005781,
              -20.316012
            ],
            [
              -40.3006132,
              -20.3161129
            ]
          ]
        ]
      }
    },
    {
      "type": "Feature",
      "properties": {
        "name": "Jardim da Penha",
        "category": "Hip",
        "osmType": "R",
        "osmId": 1845505,
        "source": "https://www.openstreetmap.org/relation/1845505",
        "retrievedAt": "2026-09-24",
        "stroke": "#f43f5e",
        "stroke-width": 2,
        "stroke-opacity": 0.95,
        "fill": "#f43f5e",
        "fill-opacity": 0.16
      },
      "geometry": {
        "type": "Polygon",
        "coordinates": [
          [
            [
              -40.3034309,
              -20.2855196
            ],
            [
              -40.3018943,
              -20.2857568
            ],
            [
              -40.3017049,
              -20.2858539
            ],
            [
              -40.3015799,
              -20.2859158
            ],
            [
              -40.3009619,
              -20.2862789
            ],
            [
              -40.3003628,
              -20.2866487
            ],
            [
              -40.3000991,
              -20.2868051
            ],
            [
              -40.2991659,
              -20.2873939
            ],
            [
              -40.2978972,
              -20.28809
            ],
            [
              -40.2972694,
              -20.2885016
            ],
            [
              -40.2966401,
              -20.288865
            ],
            [
              -40.296043,
              -20.2892154
            ],
            [
              -40.2954346,
              -20.2895806
            ],
            [
              -40.2948337,
              -20.2899347
            ],
            [
              -40.2942766,
              -20.2902702
            ],
            [
              -40.2941623,
              -20.2903391
            ],
            [
              -40.2930723,
              -20.2909884
            ],
            [
              -40.2921394,
              -20.2915293
            ],
            [
              -40.2918629,
              -20.2916868
            ],
            [
              -40.2915149,
              -20.2918914
            ],
            [
              -40.291124,
              -20.2921274
            ],
            [
              -40.2897459,
              -20.2929292
            ],
            [
              -40.2896502,
              -20.2929863
            ],
            [
              -40.2892668,
              -20.2932152
            ],
            [
              -40.2891748,
              -20.2934419
            ],
            [
              -40.2891209,
              -20.2935757
            ],
            [
              -40.2891001,
              -20.2937473
            ],
            [
              -40.2891408,
              -20.2939839
            ],
            [
              -40.2891652,
              -20.2940853
            ],
            [
              -40.2892979,
              -20.2943298
            ],
            [
              -40.2891565,
              -20.2943246
            ],
            [
              -40.2890623,
              -20.2943168
            ],
            [
              -40.2889403,
              -20.294296
            ],
            [
              -40.288837,
              -20.2942207
            ],
            [
              -40.2887335,
              -20.2939826
            ],
            [
              -40.288783,
              -20.2936948
            ],
            [
              -40.2887731,
              -20.2935185
            ],
            [
              -40.288882,
              -20.293305
            ],
            [
              -40.2888325,
              -20.2931657
            ],
            [
              -40.2887236,
              -20.2930915
            ],
            [
              -40.288547,
              -20.2929965
            ],
            [
              -40.2881415,
              -20.2928074
            ],
            [
              -40.2881181,
              -20.2927969
            ],
            [
              -40.2879542,
              -20.2927248
            ],
            [
              -40.2878979,
              -20.2927386
            ],
            [
              -40.2877718,
              -20.292687
            ],
            [
              -40.2877624,
              -20.2926355
            ],
            [
              -40.2873579,
              -20.2924417
            ],
            [
              -40.2868733,
              -20.2922141
            ],
            [
              -40.2868143,
              -20.2921877
            ],
            [
              -40.2867512,
              -20.2921663
            ],
            [
              -40.2866815,
              -20.2921474
            ],
            [
              -40.2866212,
              -20.2921386
            ],
            [
              -40.286542,
              -20.2921298
            ],
            [
              -40.2862022,
              -20.2921131
            ],
            [
              -40.2861728,
              -20.2921333
            ],
            [
              -40.2861381,
              -20.2921442
            ],
            [
              -40.2861016,
              -20.2921446
            ],
            [
              -40.2860667,
              -20.2921347
            ],
            [
              -40.2860366,
              -20.2921153
            ],
            [
              -40.2860143,
              -20.2920882
            ],
            [
              -40.2860017,
              -20.2920561
            ],
            [
              -40.2860006,
              -20.2920218
            ],
            [
              -40.2860088,
              -20.2919879
            ],
            [
              -40.2860282,
              -20.2919582
            ],
            [
              -40.2860565,
              -20.2919358
            ],
            [
              -40.286091,
              -20.2919229
            ],
            [
              -40.286128,
              -20.2919209
            ],
            [
              -40.2861638,
              -20.2919301
            ],
            [
              -40.2861947,
              -20.2919494
            ],
            [
              -40.2862174,
              -20.2919769
            ],
            [
              -40.286601,
              -20.2919902
            ],
            [
              -40.2866922,
              -20.2919939
            ],
            [
              -40.2867754,
              -20.292009
            ],
            [
              -40.2868398,
              -20.2920304
            ],
            [
              -40.2869242,
              -20.2920656
            ],
            [
              -40.2877986,
              -20.2924795
            ],
            [
              -40.2878684,
              -20.2924669
            ],
            [
              -40.2879918,
              -20.2925285
            ],
            [
              -40.2880079,
              -20.2925751
            ],
            [
              -40.2885443,
              -20.2928166
            ],
            [
              -40.2887991,
              -20.2925474
            ],
            [
              -40.2890056,
              -20.2923059
            ],
            [
              -40.2891263,
              -20.2921248
            ],
            [
              -40.289239,
              -20.2919235
            ],
            [
              -40.2894026,
              -20.2915713
            ],
            [
              -40.2897486,
              -20.2906858
            ],
            [
              -40.2900356,
              -20.289887
            ],
            [
              -40.2900758,
              -20.2897574
            ],
            [
              -40.2901161,
              -20.2895939
            ],
            [
              -40.2901483,
              -20.2894417
            ],
            [
              -40.290269,
              -20.2887536
            ],
            [
              -40.2902877,
              -20.288575
            ],
            [
              -40.2902944,
              -20.2884127
            ],
            [
              -40.2902797,
              -20.2877976
            ],
            [
              -40.290269,
              -20.2875787
            ],
            [
              -40.2902502,
              -20.2873725
            ],
            [
              -40.2901644,
              -20.2867963
            ],
            [
              -40.2900893,
              -20.2864441
            ],
            [
              -40.2897379,
              -20.2851459
            ],
            [
              -40.2896521,
              -20.2848692
            ],
            [
              -40.2895501,
              -20.2846
            ],
            [
              -40.2894053,
              -20.2842931
            ],
            [
              -40.2892497,
              -20.2840138
            ],
            [
              -40.2888045,
              -20.2833421
            ],
            [
              -40.2884477,
              -20.2827911
            ],
            [
              -40.2880722,
              -20.2822502
            ],
            [
              -40.2878335,
              -20.281835
            ],
            [
              -40.2875431,
              -20.281376
            ],
            [
              -40.288278,
              -20.2807141
            ],
            [
              -40.2887724,
              -20.2802688
            ],
            [
              -40.2891895,
              -20.279826
            ],
            [
              -40.2896419,
              -20.2793505
            ],
            [
              -40.2900837,
              -20.2789157
            ],
            [
              -40.2906338,
              -20.278333
            ],
            [
              -40.2913816,
              -20.2789615
            ],
            [
              -40.2917421,
              -20.279273
            ],
            [
              -40.2919728,
              -20.2795168
            ],
            [
              -40.2921324,
              -20.27967
            ],
            [
              -40.2922507,
              -20.2798413
            ],
            [
              -40.292366,
              -20.2800089
            ],
            [
              -40.2924778,
              -20.2801636
            ],
            [
              -40.2925808,
              -20.2801083
            ],
            [
              -40.2930301,
              -20.2798821
            ],
            [
              -40.2935963,
              -20.2795834
            ],
            [
              -40.2941033,
              -20.2793173
            ],
            [
              -40.2944047,
              -20.2791827
            ],
            [
              -40.2947234,
              -20.2790184
            ],
            [
              -40.2954017,
              -20.2795585
            ],
            [
              -40.2960366,
              -20.2800107
            ],
            [
              -40.2966436,
              -20.2799163
            ],
            [
              -40.2972712,
              -20.2798209
            ],
            [
              -40.2979418,
              -20.2797309
            ],
            [
              -40.2978975,
              -20.2794534
            ],
            [
              -40.2978318,
              -20.2790143
            ],
            [
              -40.2977733,
              -20.2786747
            ],
            [
              -40.2977283,
              -20.2784231
            ],
            [
              -40.2991214,
              -20.2782515
            ],
            [
              -40.2996903,
              -20.2781815
            ],
            [
              -40.3002396,
              -20.2781134
            ],
            [
              -40.3011964,
              -20.2779883
            ],
            [
              -40.3012592,
              -20.2785101
            ],
            [
              -40.3013253,
              -20.2789649
            ],
            [
              -40.3013752,
              -20.2793057
            ],
            [
              -40.3014408,
              -20.2797855
            ],
            [
              -40.3014758,
              -20.2800555
            ],
            [
              -40.3016786,
              -20.2814357
            ],
            [
              -40.3017266,
              -20.2817895
            ],
            [
              -40.3018251,
              -20.2824113
            ],
            [
              -40.3019582,
              -20.282937
            ],
            [
              -40.3020818,
              -20.283282
            ],
            [
              -40.3022151,
              -20.2835021
            ],
            [
              -40.3023758,
              -20.2838455
            ],
            [
              -40.3025501,
              -20.2842025
            ],
            [
              -40.3028157,
              -20.2846657
            ],
            [
              -40.3034309,
              -20.2855196
            ]
          ]
        ]
      }
    }
  ]
}
